{
"type": "FeatureCollection",
"name": "fuel_a_TPE",
"crs": { "type": "name", "properties": { "name": "urn:ogc:def:crs:OGC:1.3:CRS84" } },
"features": [
{ "type": "Feature", "properties": { "full_id": "r6303259", "osm_id": "6303259", "osm_type": "relation", "amenity": "fuel", "fuel:lpg": null, "network": null, "short_name:en": null, "short_name": null, "addr:floor": null, "wheelchair:description": null, "fuel:gasoline": null, "fuel:diesel": null, "description": null, "addr:full": null, "toilets:wheelchair": null, "alt_name": null, "wheelchair": null, "building": null, "website": null, "phone": null, "opening_hours": null, "fuel:octane_98": null, "fuel:octane_95": null, "fuel:octane_92": null, "fuel:e3": null, "fuel:biodiesel": null, "branch": null, "addr:street": null, "addr:postcode": null, "addr:housenumber": null, "addr:district": null, "addr:country": null, "addr:city": null, "operator": null, "name:zh": null, "name:en": null, "brand:zh": null, "brand:wikipedia": null, "brand:wikidata": null, "brand:en": null, "brand": null, "type": "multipolygon", "name": "中油復興北路站" }, "geometry": { "type": "MultiPolygon", "coordinates": [ [ [ [ 121.5442028, 25.0492486 ], [ 121.5441938, 25.0490189 ], [ 121.5444002, 25.0489997 ], [ 121.5444055, 25.0492455 ], [ 121.5442028, 25.0492486 ] ] ], [ [ [ 121.5442062, 25.0493312 ], [ 121.5442277, 25.0493257 ], [ 121.5444775, 25.0493213 ], [ 121.5444865, 25.0498051 ], [ 121.5443813, 25.0498503 ], [ 121.5443003, 25.0498742 ], [ 121.5442214, 25.0498855 ], [ 121.5442062, 25.0493312 ] ] ] ] } },
{ "type": "Feature", "properties": { "full_id": "w73750292", "osm_id": "73750292", "osm_type": "way", "amenity": "fuel", "fuel:lpg": null, "network": null, "short_name:en": null, "short_name": null, "addr:floor": null, "wheelchair:description": null, "fuel:gasoline": null, "fuel:diesel": null, "description": null, "addr:full": null, "toilets:wheelchair": null, "alt_name": null, "wheelchair": null, "building": null, "website": null, "phone": null, "opening_hours": null, "fuel:octane_98": null, "fuel:octane_95": null, "fuel:octane_92": null, "fuel:e3": null, "fuel:biodiesel": null, "branch": null, "addr:street": null, "addr:postcode": null, "addr:housenumber": null, "addr:district": null, "addr:country": null, "addr:city": null, "operator": "CPC", "name:zh": "台灣中油", "name:en": "CPC Corporation, Taiwan", "brand:zh": "台灣中油", "brand:wikipedia": "en:CPC Corporation, Taiwan", "brand:wikidata": "Q21527177", "brand:en": "CPC Corporation, Taiwan", "brand": "台灣中油", "type": null, "name": "台灣中" }, "geometry": { "type": "MultiPolygon", "coordinates": [ [ [ [ 121.604163, 25.0543068 ], [ 121.6049194, 25.0544367 ], [ 121.6049771, 25.0541607 ], [ 121.6042207, 25.0540308 ], [ 121.604163, 25.0543068 ] ] ] ] } },
{ "type": "Feature", "properties": { "full_id": "w246307720", "osm_id": "246307720", "osm_type": "way", "amenity": "fuel", "fuel:lpg": null, "network": null, "short_name:en": null, "short_name": null, "addr:floor": null, "wheelchair:description": null, "fuel:gasoline": null, "fuel:diesel": null, "description": null, "addr:full": null, "toilets:wheelchair": null, "alt_name": null, "wheelchair": null, "building": null, "website": "http://new.cpc.com.tw/", "phone": "+886-2-2341-0686", "opening_hours": "24/7", "fuel:octane_98": "yes", "fuel:octane_95": "yes", "fuel:octane_92": "yes", "fuel:e3": "yes", "fuel:biodiesel": "no", "branch": "林森北路站", "addr:street": "林森北路", "addr:postcode": "10049", "addr:housenumber": "11", "addr:district": "中正區", "addr:country": "TW", "addr:city": "臺北市", "operator": "台灣中油股份有限公司", "name:zh": "台灣中油", "name:en": "CPC Corporation, Taiwan", "brand:zh": "台灣中油", "brand:wikipedia": "en:CPC Corporation", "brand:wikidata": "Q698024", "brand:en": "CPC Corporation, Taiwan", "brand": "台灣中油", "type": null, "name": "台灣中油" }, "geometry": { "type": "MultiPolygon", "coordinates": [ [ [ [ 121.5237667, 25.0458102 ], [ 121.5239964, 25.0457525 ], [ 121.5241086, 25.0461327 ], [ 121.5239168, 25.0461763 ], [ 121.5238629, 25.0461551 ], [ 121.5238212, 25.0459884 ], [ 121.5237667, 25.0458102 ] ] ] ] } },
{ "type": "Feature", "properties": { "full_id": "w256810940", "osm_id": "256810940", "osm_type": "way", "amenity": "fuel", "fuel:lpg": null, "network": null, "short_name:en": null, "short_name": null, "addr:floor": null, "wheelchair:description": null, "fuel:gasoline": null, "fuel:diesel": null, "description": null, "addr:full": null, "toilets:wheelchair": null, "alt_name": null, "wheelchair": null, "building": "yes", "website": null, "phone": null, "opening_hours": null, "fuel:octane_98": null, "fuel:octane_95": null, "fuel:octane_92": null, "fuel:e3": null, "fuel:biodiesel": null, "branch": null, "addr:street": null, "addr:postcode": null, "addr:housenumber": null, "addr:district": null, "addr:country": null, "addr:city": null, "operator": "中油", "name:zh": null, "name:en": null, "brand:zh": null, "brand:wikipedia": null, "brand:wikidata": null, "brand:en": null, "brand": null, "type": null, "name": "中油 直營" }, "geometry": { "type": "MultiPolygon", "coordinates": [ [ [ [ 121.5025514, 25.1196439 ], [ 121.5026396, 25.119566 ], [ 121.5025649, 25.1194966 ], [ 121.5022939, 25.1192473 ], [ 121.502206, 25.1193256 ], [ 121.502479, 25.1195767 ], [ 121.5025514, 25.1196439 ] ] ] ] } },
{ "type": "Feature", "properties": { "full_id": "w259671983", "osm_id": "259671983", "osm_type": "way", "amenity": "fuel", "fuel:lpg": null, "network": null, "short_name:en": null, "short_name": null, "addr:floor": null, "wheelchair:description": null, "fuel:gasoline": null, "fuel:diesel": null, "description": null, "addr:full": null, "toilets:wheelchair": null, "alt_name": null, "wheelchair": null, "building": null, "website": null, "phone": "+886 2 2832 0320", "opening_hours": null, "fuel:octane_98": null, "fuel:octane_95": null, "fuel:octane_92": null, "fuel:e3": null, "fuel:biodiesel": null, "branch": null, "addr:street": "至誠路二段", "addr:postcode": "111", "addr:housenumber": "40", "addr:district": "士林區", "addr:country": "TW", "addr:city": "台北市", "operator": null, "name:zh": null, "name:en": null, "brand:zh": null, "brand:wikipedia": null, "brand:wikidata": null, "brand:en": null, "brand": null, "type": null, "name": "芝山加油站" }, "geometry": { "type": "MultiPolygon", "coordinates": [ [ [ [ 121.5284687, 25.1019828 ], [ 121.5285694, 25.1017352 ], [ 121.5289017, 25.1018395 ], [ 121.5289598, 25.1018713 ], [ 121.5289919, 25.1019143 ], [ 121.5289751, 25.1019495 ], [ 121.5288776, 25.1021439 ], [ 121.5284687, 25.1019828 ] ] ] ] } },
{ "type": "Feature", "properties": { "full_id": "w259672182", "osm_id": "259672182", "osm_type": "way", "amenity": "fuel", "fuel:lpg": null, "network": null, "short_name:en": null, "short_name": null, "addr:floor": null, "wheelchair:description": null, "fuel:gasoline": null, "fuel:diesel": null, "description": null, "addr:full": null, "toilets:wheelchair": null, "alt_name": null, "wheelchair": "yes", "building": null, "website": "http://www.cocosure.com.tw/", "phone": "+886 2 2881-2342", "opening_hours": "24/7", "fuel:octane_98": null, "fuel:octane_95": null, "fuel:octane_92": null, "fuel:e3": null, "fuel:biodiesel": null, "branch": "士林站", "addr:street": "中山北路五段", "addr:postcode": "11111", "addr:housenumber": "570", "addr:district": "士林區", "addr:country": "TW", "addr:city": "臺北市", "operator": null, "name:zh": null, "name:en": null, "brand:zh": null, "brand:wikipedia": null, "brand:wikidata": null, "brand:en": null, "brand": null, "type": null, "name": "台塑加油站" }, "geometry": { "type": "MultiPolygon", "coordinates": [ [ [ [ 121.5281582, 25.0956425 ], [ 121.5284143, 25.0956907 ], [ 121.5284769, 25.0953624 ], [ 121.5282565, 25.095327 ], [ 121.5281582, 25.0956425 ] ] ] ] } },
{ "type": "Feature", "properties": { "full_id": "w261084895", "osm_id": "261084895", "osm_type": "way", "amenity": "fuel", "fuel:lpg": null, "network": null, "short_name:en": null, "short_name": null, "addr:floor": null, "wheelchair:description": null, "fuel:gasoline": null, "fuel:diesel": null, "description": null, "addr:full": null, "toilets:wheelchair": null, "alt_name": null, "wheelchair": null, "building": null, "website": null, "phone": null, "opening_hours": null, "fuel:octane_98": null, "fuel:octane_95": null, "fuel:octane_92": null, "fuel:e3": null, "fuel:biodiesel": null, "branch": null, "addr:street": "木柵路三段", "addr:postcode": "116", "addr:housenumber": "2", "addr:district": null, "addr:country": "TW", "addr:city": "台北市", "operator": "台灣中油", "name:zh": null, "name:en": null, "brand:zh": null, "brand:wikipedia": null, "brand:wikidata": null, "brand:en": null, "brand": null, "type": null, "name": "中油木柵站" }, "geometry": { "type": "MultiPolygon", "coordinates": [ [ [ [ 121.5639908, 24.9886364 ], [ 121.5643328, 24.9885122 ], [ 121.564222, 24.9882006 ], [ 121.5640594, 24.9881981 ], [ 121.5641319, 24.9883572 ], [ 121.5640215, 24.9884068 ], [ 121.563953, 24.9885485 ], [ 121.5639908, 24.9886364 ] ] ] ] } },
{ "type": "Feature", "properties": { "full_id": "w262340854", "osm_id": "262340854", "osm_type": "way", "amenity": "fuel", "fuel:lpg": null, "network": null, "short_name:en": null, "short_name": null, "addr:floor": null, "wheelchair:description": null, "fuel:gasoline": null, "fuel:diesel": null, "description": null, "addr:full": null, "toilets:wheelchair": "yes", "alt_name": "中油加油站", "wheelchair": "yes", "building": null, "website": null, "phone": "+886 2 2365 5595", "opening_hours": "24/7", "fuel:octane_98": "yes", "fuel:octane_95": "yes", "fuel:octane_92": "yes", "fuel:e3": "no", "fuel:biodiesel": "no", "branch": "汀州路站", "addr:street": "汀州路三段", "addr:postcode": "100", "addr:housenumber": "1", "addr:district": "中正區", "addr:country": "TW", "addr:city": "臺北市", "operator": "台灣中油股份有限公司", "name:zh": "台灣中油", "name:en": "CPC Corporation, Taiwan", "brand:zh": "台灣中油", "brand:wikipedia": "en:CPC Corporation", "brand:wikidata": "Q698024", "brand:en": "CPC Corporation, Taiwan", "brand": "台灣中油", "type": null, "name": "台灣中油" }, "geometry": { "type": "MultiPolygon", "coordinates": [ [ [ [ 121.5259284, 25.0205541 ], [ 121.5257846, 25.0207106 ], [ 121.5258733, 25.0208355 ], [ 121.5262798, 25.0207857 ], [ 121.5259284, 25.0205541 ] ] ] ] } },
{ "type": "Feature", "properties": { "full_id": "w262377511", "osm_id": "262377511", "osm_type": "way", "amenity": "fuel", "fuel:lpg": null, "network": null, "short_name:en": null, "short_name": null, "addr:floor": null, "wheelchair:description": null, "fuel:gasoline": null, "fuel:diesel": null, "description": null, "addr:full": null, "toilets:wheelchair": "yes", "alt_name": null, "wheelchair": "yes", "building": null, "website": null, "phone": null, "opening_hours": "24/7", "fuel:octane_98": null, "fuel:octane_95": null, "fuel:octane_92": null, "fuel:e3": null, "fuel:biodiesel": null, "branch": "福林站", "addr:street": "中山北路五段", "addr:postcode": "111", "addr:housenumber": "465", "addr:district": "士林區", "addr:country": "TW", "addr:city": "台北市", "operator": "台灣中油", "name:zh": "台灣中油", "name:en": "CPC Corporation, Taiwan", "brand:zh": "台灣中油", "brand:wikipedia": "en:CPC Corporation", "brand:wikidata": "Q698024", "brand:en": "CPC Corporation, Taiwan", "brand": "台灣中油", "type": null, "name": "台灣中油" }, "geometry": { "type": "MultiPolygon", "coordinates": [ [ [ [ 121.5270675, 25.0929391 ], [ 121.5271372, 25.093035 ], [ 121.5272029, 25.0930642 ], [ 121.5274648, 25.0930488 ], [ 121.5274814, 25.0930155 ], [ 121.5275002, 25.0929776 ], [ 121.5276589, 25.0929776 ], [ 121.5275295, 25.0921754 ], [ 121.5271197, 25.0921712 ], [ 121.5270675, 25.0929391 ] ] ] ] } },
{ "type": "Feature", "properties": { "full_id": "w263473860", "osm_id": "263473860", "osm_type": "way", "amenity": "fuel", "fuel:lpg": null, "network": null, "short_name:en": null, "short_name": null, "addr:floor": null, "wheelchair:description": null, "fuel:gasoline": null, "fuel:diesel": null, "description": null, "addr:full": "台北市大安區仁愛路三段1號", "toilets:wheelchair": null, "alt_name": null, "wheelchair": null, "building": null, "website": null, "phone": "+886 2 2711 2316", "opening_hours": null, "fuel:octane_98": null, "fuel:octane_95": null, "fuel:octane_92": null, "fuel:e3": null, "fuel:biodiesel": null, "branch": "新生南路站", "addr:street": "仁愛路三段", "addr:postcode": null, "addr:housenumber": "1", "addr:district": "大安區", "addr:country": "TW", "addr:city": "台北市", "operator": null, "name:zh": "台灣中油", "name:en": "CPC Corporation, Taiwan", "brand:zh": "台灣中油", "brand:wikipedia": "en:CPC Corporation", "brand:wikidata": "Q698024", "brand:en": "CPC Corporation, Taiwan", "brand": "台灣中油", "type": null, "name": "台灣中油" }, "geometry": { "type": "MultiPolygon", "coordinates": [ [ [ [ 121.5330147, 25.03849 ], [ 121.5330687, 25.0384363 ], [ 121.5333585, 25.0384336 ], [ 121.533393, 25.0384601 ], [ 121.5333997, 25.0385932 ], [ 121.5333212, 25.0385959 ], [ 121.5333212, 25.0386223 ], [ 121.5332914, 25.0386232 ], [ 121.5332917, 25.0386286 ], [ 121.5330165, 25.0386296 ], [ 121.5330147, 25.03849 ] ] ] ] } },
{ "type": "Feature", "properties": { "full_id": "w265760961", "osm_id": "265760961", "osm_type": "way", "amenity": "fuel", "fuel:lpg": null, "network": null, "short_name:en": null, "short_name": null, "addr:floor": null, "wheelchair:description": null, "fuel:gasoline": null, "fuel:diesel": null, "description": null, "addr:full": null, "toilets:wheelchair": null, "alt_name": null, "wheelchair": "yes", "building": null, "website": null, "phone": null, "opening_hours": "24/7", "fuel:octane_98": null, "fuel:octane_95": null, "fuel:octane_92": null, "fuel:e3": null, "fuel:biodiesel": null, "branch": null, "addr:street": null, "addr:postcode": null, "addr:housenumber": null, "addr:district": null, "addr:country": null, "addr:city": null, "operator": null, "name:zh": "台灣中油", "name:en": "CPC Corporation, Taiwan", "brand:zh": "台灣中油", "brand:wikipedia": "en:CPC Corporation", "brand:wikidata": "Q698024", "brand:en": "CPC Corporation, Taiwan", "brand": "台灣中油", "type": null, "name": "台灣中油" }, "geometry": { "type": "MultiPolygon", "coordinates": [ [ [ [ 121.53922, 25.0463465 ], [ 121.5397191, 25.0464236 ], [ 121.5397805, 25.0461317 ], [ 121.5394025, 25.0460696 ], [ 121.5393761, 25.0462418 ], [ 121.5392996, 25.0462534 ], [ 121.53922, 25.0463465 ] ] ] ] } },
{ "type": "Feature", "properties": { "full_id": "w265761761", "osm_id": "265761761", "osm_type": "way", "amenity": "fuel", "fuel:lpg": null, "network": null, "short_name:en": null, "short_name": null, "addr:floor": null, "wheelchair:description": null, "fuel:gasoline": null, "fuel:diesel": null, "description": null, "addr:full": null, "toilets:wheelchair": null, "alt_name": null, "wheelchair": null, "building": null, "website": null, "phone": null, "opening_hours": null, "fuel:octane_98": null, "fuel:octane_95": null, "fuel:octane_92": null, "fuel:e3": null, "fuel:biodiesel": null, "branch": null, "addr:street": null, "addr:postcode": null, "addr:housenumber": null, "addr:district": null, "addr:country": null, "addr:city": null, "operator": null, "name:zh": null, "name:en": null, "brand:zh": null, "brand:wikipedia": null, "brand:wikidata": null, "brand:en": null, "brand": null, "type": null, "name": "陽光加油站" }, "geometry": { "type": "MultiPolygon", "coordinates": [ [ [ [ 121.5368211, 25.0440537 ], [ 121.5364289, 25.0440488 ], [ 121.5364557, 25.044615 ], [ 121.5368268, 25.0445975 ], [ 121.5368211, 25.0440537 ] ] ] ] } },
{ "type": "Feature", "properties": { "full_id": "w288169326", "osm_id": "288169326", "osm_type": "way", "amenity": "fuel", "fuel:lpg": null, "network": null, "short_name:en": null, "short_name": null, "addr:floor": null, "wheelchair:description": null, "fuel:gasoline": null, "fuel:diesel": null, "description": null, "addr:full": null, "toilets:wheelchair": null, "alt_name": null, "wheelchair": null, "building": null, "website": null, "phone": "+886-2-2935-6519", "opening_hours": "24/7", "fuel:octane_98": null, "fuel:octane_95": null, "fuel:octane_92": null, "fuel:e3": null, "fuel:biodiesel": null, "branch": "景美站", "addr:street": "羅斯福路六段", "addr:postcode": "11674", "addr:housenumber": "140", "addr:district": "文山區", "addr:country": "TW", "addr:city": "臺北市", "operator": "全國加油站股份有限公司", "name:zh": "全國加油站", "name:en": "NPC", "brand:zh": "全國加油站", "brand:wikipedia": "zh:全國加油站", "brand:wikidata": "Q20410455", "brand:en": "NPC", "brand": "全國加油站", "type": null, "name": "全國加油站" }, "geometry": { "type": "MultiPolygon", "coordinates": [ [ [ [ 121.5408997, 24.9962376 ], [ 121.5408407, 24.9961793 ], [ 121.5405215, 24.9963543 ], [ 121.5405993, 24.9964102 ], [ 121.5408649, 24.9964418 ], [ 121.5408997, 24.9962376 ] ] ] ] } },
{ "type": "Feature", "properties": { "full_id": "w294015488", "osm_id": "294015488", "osm_type": "way", "amenity": "fuel", "fuel:lpg": null, "network": null, "short_name:en": null, "short_name": null, "addr:floor": null, "wheelchair:description": null, "fuel:gasoline": "yes", "fuel:diesel": "yes", "description": "提供柴油", "addr:full": null, "toilets:wheelchair": null, "alt_name": null, "wheelchair": null, "building": null, "website": null, "phone": null, "opening_hours": "24/7", "fuel:octane_98": null, "fuel:octane_95": null, "fuel:octane_92": null, "fuel:e3": null, "fuel:biodiesel": null, "branch": "富陽街站", "addr:street": null, "addr:postcode": null, "addr:housenumber": null, "addr:district": null, "addr:country": null, "addr:city": null, "operator": "台灣中油", "name:zh": "台灣中油", "name:en": "CPC Corporation, Taiwan", "brand:zh": "台灣中油", "brand:wikipedia": "en:CPC Corporation", "brand:wikidata": "Q698024", "brand:en": "CPC Corporation, Taiwan", "brand": "台灣中油", "type": null, "name": "台灣中油" }, "geometry": { "type": "MultiPolygon", "coordinates": [ [ [ [ 121.5568843, 25.0191603 ], [ 121.5569303, 25.0186055 ], [ 121.5572777, 25.0186313 ], [ 121.5572274, 25.0191879 ], [ 121.5570289, 25.0191765 ], [ 121.5568843, 25.0191603 ] ] ] ] } },
{ "type": "Feature", "properties": { "full_id": "w299324753", "osm_id": "299324753", "osm_type": "way", "amenity": "fuel", "fuel:lpg": null, "network": null, "short_name:en": null, "short_name": null, "addr:floor": null, "wheelchair:description": null, "fuel:gasoline": null, "fuel:diesel": null, "description": null, "addr:full": null, "toilets:wheelchair": null, "alt_name": null, "wheelchair": null, "building": null, "website": null, "phone": null, "opening_hours": null, "fuel:octane_98": null, "fuel:octane_95": null, "fuel:octane_92": null, "fuel:e3": null, "fuel:biodiesel": null, "branch": null, "addr:street": null, "addr:postcode": null, "addr:housenumber": null, "addr:district": null, "addr:country": null, "addr:city": null, "operator": null, "name:zh": null, "name:en": null, "brand:zh": null, "brand:wikipedia": null, "brand:wikidata": null, "brand:en": null, "brand": null, "type": null, "name": "長安加油站" }, "geometry": { "type": "MultiPolygon", "coordinates": [ [ [ [ 121.5312327, 25.0483804 ], [ 121.5312291, 25.0481823 ], [ 121.5313655, 25.0481802 ], [ 121.5313691, 25.0483783 ], [ 121.5312327, 25.0483804 ] ] ] ] } },
{ "type": "Feature", "properties": { "full_id": "w308417770", "osm_id": "308417770", "osm_type": "way", "amenity": "fuel", "fuel:lpg": null, "network": null, "short_name:en": null, "short_name": null, "addr:floor": null, "wheelchair:description": "0", "fuel:gasoline": null, "fuel:diesel": null, "description": null, "addr:full": null, "toilets:wheelchair": "yes", "alt_name": null, "wheelchair": "yes", "building": null, "website": null, "phone": null, "opening_hours": null, "fuel:octane_98": null, "fuel:octane_95": null, "fuel:octane_92": null, "fuel:e3": null, "fuel:biodiesel": null, "branch": null, "addr:street": "文林路", "addr:postcode": "111", "addr:housenumber": "86", "addr:district": "士林區", "addr:country": "TW", "addr:city": "臺北市", "operator": null, "name:zh": "台灣中油", "name:en": "CPC Corporation, Taiwan", "brand:zh": "台灣中油", "brand:wikipedia": "en:CPC Corporation, Taiwan", "brand:wikidata": "Q21527177", "brand:en": "CPC Corporation, Taiwan", "brand": "台灣中油", "type": null, "name": "台灣中油" }, "geometry": { "type": "MultiPolygon", "coordinates": [ [ [ [ 121.526158, 25.0877211 ], [ 121.5259732, 25.0873479 ], [ 121.52626, 25.0872399 ], [ 121.5263913, 25.087431 ], [ 121.5263231, 25.0874636 ], [ 121.5264017, 25.0876386 ], [ 121.526158, 25.0877211 ] ] ] ] } },
{ "type": "Feature", "properties": { "full_id": "w310105892", "osm_id": "310105892", "osm_type": "way", "amenity": "fuel", "fuel:lpg": null, "network": null, "short_name:en": null, "short_name": null, "addr:floor": null, "wheelchair:description": null, "fuel:gasoline": null, "fuel:diesel": null, "description": null, "addr:full": null, "toilets:wheelchair": null, "alt_name": null, "wheelchair": null, "building": null, "website": null, "phone": null, "opening_hours": null, "fuel:octane_98": null, "fuel:octane_95": null, "fuel:octane_92": null, "fuel:e3": null, "fuel:biodiesel": null, "branch": "世新站", "addr:street": "景興路", "addr:postcode": "116", "addr:housenumber": "293", "addr:district": "文山區", "addr:country": null, "addr:city": "台北市", "operator": null, "name:zh": "台灣中油", "name:en": "CPC Corporation, Taiwan", "brand:zh": "台灣中油", "brand:wikipedia": "en:CPC Corporation, Taiwan", "brand:wikidata": "Q21527177", "brand:en": "CPC Corporation, Taiwan", "brand": "台灣中油", "type": null, "name": "台灣中油" }, "geometry": { "type": "MultiPolygon", "coordinates": [ [ [ [ 121.5424365, 24.9894146 ], [ 121.5425902, 24.9893485 ], [ 121.5424737, 24.9891593 ], [ 121.542436, 24.9891544 ], [ 121.5423793, 24.9891747 ], [ 121.5423153, 24.9892018 ], [ 121.5423552, 24.9892753 ], [ 121.5424365, 24.9894146 ] ] ] ] } },
{ "type": "Feature", "properties": { "full_id": "w314360382", "osm_id": "314360382", "osm_type": "way", "amenity": "fuel", "fuel:lpg": null, "network": null, "short_name:en": null, "short_name": null, "addr:floor": "1", "wheelchair:description": null, "fuel:gasoline": null, "fuel:diesel": null, "description": null, "addr:full": "台北市大安區和平東路二段2號", "toilets:wheelchair": null, "alt_name": null, "wheelchair": null, "building": null, "website": null, "phone": null, "opening_hours": null, "fuel:octane_98": null, "fuel:octane_95": null, "fuel:octane_92": null, "fuel:e3": null, "fuel:biodiesel": null, "branch": "龍安加油站", "addr:street": "和平東路二段", "addr:postcode": "106", "addr:housenumber": "2", "addr:district": "大安區", "addr:country": "TW", "addr:city": "台北市", "operator": "台灣中油", "name:zh": "台灣中油", "name:en": "CPC Corporation, Taiwan", "brand:zh": "台灣中油", "brand:wikipedia": "en:CPC Corporation", "brand:wikidata": "Q698024", "brand:en": "CPC Corporation, Taiwan", "brand": "台灣中油", "type": null, "name": "台灣中油" }, "geometry": { "type": "MultiPolygon", "coordinates": [ [ [ [ 121.5351321, 25.0258163 ], [ 121.5350482, 25.0257735 ], [ 121.5350333, 25.0255963 ], [ 121.535182, 25.0255871 ], [ 121.5355967, 25.0255481 ], [ 121.5355977, 25.0255519 ], [ 121.5356498, 25.0255407 ], [ 121.5356695, 25.025636 ], [ 121.5356837, 25.0257366 ], [ 121.5351321, 25.0258163 ] ] ] ] } },
{ "type": "Feature", "properties": { "full_id": "w333290651", "osm_id": "333290651", "osm_type": "way", "amenity": "fuel", "fuel:lpg": null, "network": null, "short_name:en": null, "short_name": null, "addr:floor": null, "wheelchair:description": null, "fuel:gasoline": null, "fuel:diesel": null, "description": null, "addr:full": null, "toilets:wheelchair": null, "alt_name": null, "wheelchair": null, "building": null, "website": "http://new.cpc.com.tw/", "phone": "+886 2 2891 3744", "opening_hours": null, "fuel:octane_98": null, "fuel:octane_95": null, "fuel:octane_92": null, "fuel:e3": null, "fuel:biodiesel": null, "branch": null, "addr:street": null, "addr:postcode": null, "addr:housenumber": null, "addr:district": null, "addr:country": null, "addr:city": null, "operator": null, "name:zh": null, "name:en": null, "brand:zh": null, "brand:wikipedia": null, "brand:wikidata": null, "brand:en": null, "brand": null, "type": null, "name": "中油北投中央北路加油站" }, "geometry": { "type": "MultiPolygon", "coordinates": [ [ [ [ 121.4663957, 25.1270819 ], [ 121.4663531, 25.127108 ], [ 121.4662983, 25.1271707 ], [ 121.4663156, 25.1272113 ], [ 121.4662333, 25.1273106 ], [ 121.466076, 25.1271969 ], [ 121.4659519, 25.1270884 ], [ 121.4659808, 25.1270479 ], [ 121.4659153, 25.1269069 ], [ 121.4660092, 25.126766 ], [ 121.4663957, 25.1270819 ] ] ] ] } },
{ "type": "Feature", "properties": { "full_id": "w333818092", "osm_id": "333818092", "osm_type": "way", "amenity": "fuel", "fuel:lpg": null, "network": null, "short_name:en": null, "short_name": null, "addr:floor": null, "wheelchair:description": null, "fuel:gasoline": null, "fuel:diesel": null, "description": null, "addr:full": null, "toilets:wheelchair": null, "alt_name": null, "wheelchair": null, "building": null, "website": null, "phone": null, "opening_hours": null, "fuel:octane_98": null, "fuel:octane_95": null, "fuel:octane_92": null, "fuel:e3": null, "fuel:biodiesel": null, "branch": null, "addr:street": null, "addr:postcode": null, "addr:housenumber": null, "addr:district": null, "addr:country": null, "addr:city": null, "operator": "中國石油", "name:zh": "台灣中油", "name:en": "CPC Corporation, Taiwan", "brand:zh": "台灣中油", "brand:wikipedia": "en:CPC Corporation", "brand:wikidata": "Q698024", "brand:en": "CPC Corporation, Taiwan", "brand": "台灣中油", "type": null, "name": "台灣中油" }, "geometry": { "type": "MultiPolygon", "coordinates": [ [ [ [ 121.5669627, 25.0412624 ], [ 121.5668042, 25.0412723 ], [ 121.5668155, 25.041597 ], [ 121.5671553, 25.0415873 ], [ 121.5671491, 25.0414594 ], [ 121.56717, 25.0414379 ], [ 121.5672635, 25.0414333 ], [ 121.5672606, 25.0413082 ], [ 121.5669981, 25.0413125 ], [ 121.5669627, 25.0412624 ] ] ] ] } },
{ "type": "Feature", "properties": { "full_id": "w352194350", "osm_id": "352194350", "osm_type": "way", "amenity": "fuel", "fuel:lpg": null, "network": null, "short_name:en": null, "short_name": null, "addr:floor": null, "wheelchair:description": null, "fuel:gasoline": null, "fuel:diesel": null, "description": null, "addr:full": null, "toilets:wheelchair": null, "alt_name": null, "wheelchair": null, "building": null, "website": null, "phone": null, "opening_hours": null, "fuel:octane_98": null, "fuel:octane_95": null, "fuel:octane_92": null, "fuel:e3": null, "fuel:biodiesel": null, "branch": null, "addr:street": null, "addr:postcode": null, "addr:housenumber": null, "addr:district": null, "addr:country": null, "addr:city": null, "operator": null, "name:zh": "台灣中油", "name:en": "CPC Corporation, Taiwan", "brand:zh": "台灣中油", "brand:wikipedia": "en:CPC Corporation", "brand:wikidata": "Q698024", "brand:en": "CPC Corporation, Taiwan", "brand": "台灣中油", "type": null, "name": "台灣中油" }, "geometry": { "type": "MultiPolygon", "coordinates": [ [ [ [ 121.583252, 25.0683216 ], [ 121.5842832, 25.0685983 ], [ 121.5843653, 25.0685493 ], [ 121.5846669, 25.068226 ], [ 121.5842832, 25.0679756 ], [ 121.5842063, 25.067839 ], [ 121.5833084, 25.0682557 ], [ 121.583252, 25.0683216 ] ] ] ] } },
{ "type": "Feature", "properties": { "full_id": "w358494654", "osm_id": "358494654", "osm_type": "way", "amenity": "fuel", "fuel:lpg": null, "network": null, "short_name:en": null, "short_name": null, "addr:floor": null, "wheelchair:description": null, "fuel:gasoline": null, "fuel:diesel": null, "description": null, "addr:full": null, "toilets:wheelchair": null, "alt_name": null, "wheelchair": null, "building": "yes", "website": null, "phone": null, "opening_hours": null, "fuel:octane_98": null, "fuel:octane_95": null, "fuel:octane_92": null, "fuel:e3": null, "fuel:biodiesel": null, "branch": "金山南路站", "addr:street": null, "addr:postcode": null, "addr:housenumber": null, "addr:district": null, "addr:country": null, "addr:city": null, "operator": null, "name:zh": "台灣中油", "name:en": "CPC Corporation, Taiwan", "brand:zh": "台灣中油", "brand:wikipedia": "en:CPC Corporation, Taiwan", "brand:wikidata": "Q21527177", "brand:en": "CPC Corporation, Taiwan", "brand": "台灣中油", "type": null, "name": "台灣中油" }, "geometry": { "type": "MultiPolygon", "coordinates": [ [ [ [ 121.5271807, 25.0314234 ], [ 121.5273163, 25.031406 ], [ 121.5273329, 25.031512 ], [ 121.5271973, 25.0315295 ], [ 121.5271807, 25.0314234 ] ] ] ] } },
{ "type": "Feature", "properties": { "full_id": "w361260916", "osm_id": "361260916", "osm_type": "way", "amenity": "fuel", "fuel:lpg": null, "network": null, "short_name:en": null, "short_name": null, "addr:floor": null, "wheelchair:description": null, "fuel:gasoline": null, "fuel:diesel": null, "description": "管線汱換工程", "addr:full": "台北市文山區興隆路一段13號", "toilets:wheelchair": "yes", "alt_name": null, "wheelchair": "yes", "building": null, "website": null, "phone": "+886 2 2931 2829", "opening_hours": "24/7", "fuel:octane_98": null, "fuel:octane_95": null, "fuel:octane_92": null, "fuel:e3": null, "fuel:biodiesel": null, "branch": "萬隆站", "addr:street": "興隆路一段", "addr:postcode": "116", "addr:housenumber": "13", "addr:district": "文山區", "addr:country": "TW", "addr:city": "台北市", "operator": "台灣中油", "name:zh": "台灣中油", "name:en": "CPC Corporation, Taiwan", "brand:zh": "台灣中油", "brand:wikipedia": "en:CPC Corporation, Taiwan", "brand:wikidata": "Q21527177", "brand:en": "CPC Corporation, Taiwan", "brand": "台灣中油", "type": null, "name": "台灣中油" }, "geometry": { "type": "MultiPolygon", "coordinates": [ [ [ [ 121.5391464, 25.0044269 ], [ 121.5391737, 25.0046203 ], [ 121.5391889, 25.0046309 ], [ 121.5391977, 25.0046567 ], [ 121.5394835, 25.0048485 ], [ 121.5396831, 25.0045616 ], [ 121.5396448, 25.00436 ], [ 121.5391464, 25.0044269 ] ] ] ] } },
{ "type": "Feature", "properties": { "full_id": "w362384505", "osm_id": "362384505", "osm_type": "way", "amenity": "fuel", "fuel:lpg": null, "network": null, "short_name:en": null, "short_name": null, "addr:floor": null, "wheelchair:description": null, "fuel:gasoline": null, "fuel:diesel": null, "description": null, "addr:full": null, "toilets:wheelchair": null, "alt_name": null, "wheelchair": null, "building": "yes", "website": null, "phone": null, "opening_hours": null, "fuel:octane_98": null, "fuel:octane_95": null, "fuel:octane_92": null, "fuel:e3": null, "fuel:biodiesel": null, "branch": null, "addr:street": "承德路七段", "addr:postcode": "112", "addr:housenumber": "303", "addr:district": "北投區", "addr:country": "TW", "addr:city": "台北市", "operator": "台亞石油", "name:zh": null, "name:en": null, "brand:zh": null, "brand:wikipedia": null, "brand:wikidata": null, "brand:en": null, "brand": null, "type": null, "name": "台塑台亞承德路加油站" }, "geometry": { "type": "MultiPolygon", "coordinates": [ [ [ [ 121.5039431, 25.116924 ], [ 121.5041953, 25.1166999 ], [ 121.5042373, 25.1164568 ], [ 121.5039151, 25.1163617 ], [ 121.5038777, 25.1164208 ], [ 121.5034995, 25.1167528 ], [ 121.5035672, 25.1167591 ], [ 121.5035952, 25.1168078 ], [ 121.5037376, 25.1168479 ], [ 121.503796, 25.1168416 ], [ 121.5039431, 25.116924 ] ] ] ] } },
{ "type": "Feature", "properties": { "full_id": "w362384506", "osm_id": "362384506", "osm_type": "way", "amenity": "fuel", "fuel:lpg": null, "network": null, "short_name:en": null, "short_name": null, "addr:floor": null, "wheelchair:description": null, "fuel:gasoline": null, "fuel:diesel": null, "description": null, "addr:full": null, "toilets:wheelchair": null, "alt_name": null, "wheelchair": null, "building": null, "website": null, "phone": null, "opening_hours": "24/7", "fuel:octane_98": null, "fuel:octane_95": null, "fuel:octane_92": null, "fuel:e3": null, "fuel:biodiesel": null, "branch": "陽明山站", "addr:street": "格致路", "addr:postcode": "111", "addr:housenumber": "3", "addr:district": "士林區", "addr:country": "TW", "addr:city": "臺北市", "operator": "台灣中油", "name:zh": "台灣中油", "name:en": "CPC Corporation, Taiwan", "brand:zh": "台灣中油", "brand:wikipedia": "en:CPC Corporation, Taiwan", "brand:wikidata": "Q21527177", "brand:en": "CPC Corporation, Taiwan", "brand": "台灣中油", "type": null, "name": "台灣中油" }, "geometry": { "type": "MultiPolygon", "coordinates": [ [ [ [ 121.5460371, 25.1356734 ], [ 121.5459291, 25.135204 ], [ 121.5457292, 25.1352232 ], [ 121.5456407, 25.1355997 ], [ 121.5460371, 25.1356734 ] ] ] ] } },
{ "type": "Feature", "properties": { "full_id": "w366333615", "osm_id": "366333615", "osm_type": "way", "amenity": "fuel", "fuel:lpg": null, "network": null, "short_name:en": null, "short_name": null, "addr:floor": null, "wheelchair:description": null, "fuel:gasoline": null, "fuel:diesel": null, "description": null, "addr:full": null, "toilets:wheelchair": null, "alt_name": null, "wheelchair": null, "building": null, "website": null, "phone": null, "opening_hours": null, "fuel:octane_98": null, "fuel:octane_95": null, "fuel:octane_92": null, "fuel:e3": null, "fuel:biodiesel": null, "branch": null, "addr:street": null, "addr:postcode": null, "addr:housenumber": null, "addr:district": null, "addr:country": null, "addr:city": null, "operator": "台塑石油", "name:zh": null, "name:en": null, "brand:zh": null, "brand:wikipedia": null, "brand:wikidata": null, "brand:en": null, "brand": "台塑石油", "type": null, "name": "台塑政大加油站" }, "geometry": { "type": "MultiPolygon", "coordinates": [ [ [ [ 121.5707397, 24.9879708 ], [ 121.5709001, 24.9879774 ], [ 121.5710283, 24.9880064 ], [ 121.5710254, 24.9883063 ], [ 121.5709817, 24.9883697 ], [ 121.5708184, 24.9883578 ], [ 121.5708024, 24.9883103 ], [ 121.5707485, 24.9883103 ], [ 121.5707397, 24.9879708 ] ] ] ] } },
{ "type": "Feature", "properties": { "full_id": "w366693813", "osm_id": "366693813", "osm_type": "way", "amenity": "fuel", "fuel:lpg": null, "network": null, "short_name:en": null, "short_name": null, "addr:floor": null, "wheelchair:description": null, "fuel:gasoline": null, "fuel:diesel": null, "description": null, "addr:full": null, "toilets:wheelchair": "yes", "alt_name": null, "wheelchair": "limited", "building": null, "website": null, "phone": null, "opening_hours": null, "fuel:octane_98": null, "fuel:octane_95": null, "fuel:octane_92": null, "fuel:e3": null, "fuel:biodiesel": null, "branch": null, "addr:street": null, "addr:postcode": null, "addr:housenumber": null, "addr:district": null, "addr:country": null, "addr:city": null, "operator": null, "name:zh": null, "name:en": null, "brand:zh": null, "brand:wikipedia": null, "brand:wikidata": null, "brand:en": null, "brand": null, "type": null, "name": null }, "geometry": { "type": "MultiPolygon", "coordinates": [ [ [ [ 121.5598731, 25.0850311 ], [ 121.5601224, 25.085381 ], [ 121.5603303, 25.0852903 ], [ 121.5601324, 25.0849518 ], [ 121.5598731, 25.0850311 ] ] ] ] } },
{ "type": "Feature", "properties": { "full_id": "w370741914", "osm_id": "370741914", "osm_type": "way", "amenity": "fuel", "fuel:lpg": null, "network": null, "short_name:en": null, "short_name": null, "addr:floor": null, "wheelchair:description": null, "fuel:gasoline": null, "fuel:diesel": "yes", "description": null, "addr:full": null, "toilets:wheelchair": null, "alt_name": null, "wheelchair": null, "building": null, "website": null, "phone": null, "opening_hours": null, "fuel:octane_98": "yes", "fuel:octane_95": "yes", "fuel:octane_92": "yes", "fuel:e3": null, "fuel:biodiesel": null, "branch": null, "addr:street": null, "addr:postcode": null, "addr:housenumber": null, "addr:district": null, "addr:country": null, "addr:city": null, "operator": null, "name:zh": "台灣中油", "name:en": "CPC Corporation, Taiwan", "brand:zh": "台灣中油", "brand:wikipedia": "en:CPC Corporation, Taiwan", "brand:wikidata": "Q21527177", "brand:en": "CPC Corporation, Taiwan", "brand": "台灣中油", "type": null, "name": "台灣中油" }, "geometry": { "type": "MultiPolygon", "coordinates": [ [ [ [ 121.5557498, 25.0329369 ], [ 121.5557428, 25.0326344 ], [ 121.5554931, 25.0326573 ], [ 121.5554213, 25.0327175 ], [ 121.5553244, 25.0327227 ], [ 121.5552054, 25.0328287 ], [ 121.555128, 25.0329482 ], [ 121.5557498, 25.0329369 ] ] ] ] } },
{ "type": "Feature", "properties": { "full_id": "w419000204", "osm_id": "419000204", "osm_type": "way", "amenity": "fuel", "fuel:lpg": null, "network": null, "short_name:en": null, "short_name": null, "addr:floor": null, "wheelchair:description": null, "fuel:gasoline": null, "fuel:diesel": null, "description": null, "addr:full": null, "toilets:wheelchair": null, "alt_name": null, "wheelchair": null, "building": null, "website": null, "phone": null, "opening_hours": null, "fuel:octane_98": null, "fuel:octane_95": null, "fuel:octane_92": null, "fuel:e3": null, "fuel:biodiesel": null, "branch": null, "addr:street": "建國南路二段", "addr:postcode": "106", "addr:housenumber": "75之1", "addr:district": "大安區", "addr:country": "TW", "addr:city": "臺北市", "operator": null, "name:zh": null, "name:en": null, "brand:zh": null, "brand:wikipedia": null, "brand:wikidata": null, "brand:en": null, "brand": null, "type": null, "name": "中油加盟勝利加油站" }, "geometry": { "type": "MultiPolygon", "coordinates": [ [ [ [ 121.5377438, 25.0309416 ], [ 121.5378906, 25.0309402 ], [ 121.5378921, 25.0310705 ], [ 121.5377453, 25.0310719 ], [ 121.5377438, 25.0309416 ] ] ] ] } },
{ "type": "Feature", "properties": { "full_id": "w419000208", "osm_id": "419000208", "osm_type": "way", "amenity": "fuel", "fuel:lpg": null, "network": null, "short_name:en": null, "short_name": null, "addr:floor": null, "wheelchair:description": null, "fuel:gasoline": null, "fuel:diesel": null, "description": null, "addr:full": null, "toilets:wheelchair": null, "alt_name": null, "wheelchair": null, "building": null, "website": null, "phone": null, "opening_hours": null, "fuel:octane_98": null, "fuel:octane_95": null, "fuel:octane_92": null, "fuel:e3": null, "fuel:biodiesel": null, "branch": null, "addr:street": null, "addr:postcode": null, "addr:housenumber": null, "addr:district": null, "addr:country": null, "addr:city": null, "operator": null, "name:zh": "全國加油站", "name:en": "NPC", "brand:zh": "全國加油站", "brand:wikipedia": "zh:全國加油站", "brand:wikidata": "Q20410455", "brand:en": "NPC", "brand": "全國加油站", "type": null, "name": "全國加油站" }, "geometry": { "type": "MultiPolygon", "coordinates": [ [ [ [ 121.5781803, 25.0664093 ], [ 121.578276, 25.0661733 ], [ 121.5782331, 25.0661223 ], [ 121.5783243, 25.0659012 ], [ 121.5786086, 25.06603 ], [ 121.5786757, 25.0660907 ], [ 121.5786636, 25.0661928 ], [ 121.5785308, 25.0664953 ], [ 121.5784625, 25.0665074 ], [ 121.5781803, 25.0664093 ] ] ] ] } },
{ "type": "Feature", "properties": { "full_id": "w419823265", "osm_id": "419823265", "osm_type": "way", "amenity": "fuel", "fuel:lpg": null, "network": null, "short_name:en": null, "short_name": null, "addr:floor": null, "wheelchair:description": null, "fuel:gasoline": null, "fuel:diesel": null, "description": null, "addr:full": null, "toilets:wheelchair": null, "alt_name": null, "wheelchair": null, "building": null, "website": null, "phone": null, "opening_hours": null, "fuel:octane_98": null, "fuel:octane_95": null, "fuel:octane_92": null, "fuel:e3": null, "fuel:biodiesel": null, "branch": null, "addr:street": null, "addr:postcode": null, "addr:housenumber": null, "addr:district": null, "addr:country": null, "addr:city": null, "operator": null, "name:zh": null, "name:en": null, "brand:zh": null, "brand:wikipedia": null, "brand:wikidata": null, "brand:en": null, "brand": null, "type": null, "name": null }, "geometry": { "type": "MultiPolygon", "coordinates": [ [ [ [ 121.530312, 25.0508315 ], [ 121.5302018, 25.0508331 ], [ 121.5302041, 25.0509638 ], [ 121.5303143, 25.0509622 ], [ 121.530312, 25.0508315 ] ] ] ] } },
{ "type": "Feature", "properties": { "full_id": "w442098677", "osm_id": "442098677", "osm_type": "way", "amenity": "fuel", "fuel:lpg": null, "network": null, "short_name:en": null, "short_name": null, "addr:floor": null, "wheelchair:description": null, "fuel:gasoline": null, "fuel:diesel": null, "description": null, "addr:full": null, "toilets:wheelchair": null, "alt_name": null, "wheelchair": "yes", "building": null, "website": null, "phone": null, "opening_hours": null, "fuel:octane_98": null, "fuel:octane_95": null, "fuel:octane_92": null, "fuel:e3": null, "fuel:biodiesel": null, "branch": "辛亥加油站", "addr:street": null, "addr:postcode": null, "addr:housenumber": null, "addr:district": null, "addr:country": null, "addr:city": null, "operator": null, "name:zh": "台灣中油", "name:en": "CPC Corporation, Taiwan", "brand:zh": "台灣中油", "brand:wikipedia": "en:CPC Corporation", "brand:wikidata": "Q698024", "brand:en": "CPC Corporation, Taiwan", "brand": "台灣中油", "type": null, "name": "台灣中油" }, "geometry": { "type": "MultiPolygon", "coordinates": [ [ [ [ 121.5580609, 25.0062214 ], [ 121.5579387, 25.0062636 ], [ 121.5578595, 25.0062984 ], [ 121.5575882, 25.0061244 ], [ 121.5577418, 25.0059699 ], [ 121.5580609, 25.0062214 ] ] ] ] } },
{ "type": "Feature", "properties": { "full_id": "w458958320", "osm_id": "458958320", "osm_type": "way", "amenity": "fuel", "fuel:lpg": null, "network": null, "short_name:en": "CPC", "short_name": "中油", "addr:floor": null, "wheelchair:description": null, "fuel:gasoline": null, "fuel:diesel": null, "description": null, "addr:full": null, "toilets:wheelchair": null, "alt_name": null, "wheelchair": null, "building": null, "website": null, "phone": null, "opening_hours": null, "fuel:octane_98": null, "fuel:octane_95": null, "fuel:octane_92": null, "fuel:e3": null, "fuel:biodiesel": null, "branch": null, "addr:street": null, "addr:postcode": null, "addr:housenumber": null, "addr:district": null, "addr:country": null, "addr:city": null, "operator": null, "name:zh": "台灣中油", "name:en": "CPC Corporation, Taiwan", "brand:zh": "台灣中油", "brand:wikipedia": null, "brand:wikidata": "Q698024", "brand:en": "CPC Corporation, Taiwan", "brand": "台灣中油", "type": null, "name": "台灣中油" }, "geometry": { "type": "MultiPolygon", "coordinates": [ [ [ [ 121.5503515, 25.0839716 ], [ 121.5506463, 25.083917 ], [ 121.5506751, 25.0840865 ], [ 121.5507217, 25.0842237 ], [ 121.5504361, 25.0843082 ], [ 121.5503515, 25.0839716 ] ] ] ] } },
{ "type": "Feature", "properties": { "full_id": "w474138014", "osm_id": "474138014", "osm_type": "way", "amenity": "fuel", "fuel:lpg": null, "network": "中國石油", "short_name:en": null, "short_name": null, "addr:floor": null, "wheelchair:description": null, "fuel:gasoline": null, "fuel:diesel": null, "description": null, "addr:full": null, "toilets:wheelchair": null, "alt_name": null, "wheelchair": "yes", "building": null, "website": null, "phone": null, "opening_hours": null, "fuel:octane_98": null, "fuel:octane_95": null, "fuel:octane_92": null, "fuel:e3": null, "fuel:biodiesel": null, "branch": null, "addr:street": null, "addr:postcode": null, "addr:housenumber": null, "addr:district": null, "addr:country": null, "addr:city": null, "operator": null, "name:zh": null, "name:en": null, "brand:zh": null, "brand:wikipedia": null, "brand:wikidata": null, "brand:en": null, "brand": null, "type": null, "name": "松山路加油站" }, "geometry": { "type": "MultiPolygon", "coordinates": [ [ [ [ 121.5776796, 25.0397004 ], [ 121.5777102, 25.0397381 ], [ 121.5777088, 25.0398183 ], [ 121.577556, 25.0398025 ], [ 121.5776796, 25.0397004 ] ] ] ] } },
{ "type": "Feature", "properties": { "full_id": "w490908734", "osm_id": "490908734", "osm_type": "way", "amenity": "fuel", "fuel:lpg": null, "network": null, "short_name:en": null, "short_name": null, "addr:floor": null, "wheelchair:description": null, "fuel:gasoline": null, "fuel:diesel": null, "description": null, "addr:full": null, "toilets:wheelchair": null, "alt_name": null, "wheelchair": null, "building": "yes", "website": null, "phone": null, "opening_hours": "24/7", "fuel:octane_98": null, "fuel:octane_95": null, "fuel:octane_92": null, "fuel:e3": null, "fuel:biodiesel": null, "branch": null, "addr:street": null, "addr:postcode": null, "addr:housenumber": null, "addr:district": null, "addr:country": null, "addr:city": null, "operator": "中國石油", "name:zh": null, "name:en": null, "brand:zh": null, "brand:wikipedia": null, "brand:wikidata": null, "brand:en": null, "brand": null, "type": null, "name": "新生北路加油站" }, "geometry": { "type": "MultiPolygon", "coordinates": [ [ [ [ 121.528253, 25.0564796 ], [ 121.5281539, 25.0564598 ], [ 121.5281711, 25.0563798 ], [ 121.5281051, 25.056359 ], [ 121.5280843, 25.0564428 ], [ 121.5278987, 25.056403 ], [ 121.5278742, 25.056486 ], [ 121.5280731, 25.0565267 ], [ 121.5280544, 25.0565983 ], [ 121.5281318, 25.0566104 ], [ 121.5281262, 25.0566354 ], [ 121.52821, 25.0566493 ], [ 121.528253, 25.0564796 ] ] ] ] } },
{ "type": "Feature", "properties": { "full_id": "w493694568", "osm_id": "493694568", "osm_type": "way", "amenity": "fuel", "fuel:lpg": null, "network": null, "short_name:en": null, "short_name": null, "addr:floor": null, "wheelchair:description": null, "fuel:gasoline": null, "fuel:diesel": null, "description": null, "addr:full": null, "toilets:wheelchair": null, "alt_name": null, "wheelchair": null, "building": null, "website": null, "phone": null, "opening_hours": null, "fuel:octane_98": null, "fuel:octane_95": null, "fuel:octane_92": null, "fuel:e3": null, "fuel:biodiesel": null, "branch": null, "addr:street": null, "addr:postcode": null, "addr:housenumber": null, "addr:district": null, "addr:country": null, "addr:city": null, "operator": null, "name:zh": "台灣中油", "name:en": "CPC Corporation, Taiwan", "brand:zh": "台灣中油", "brand:wikipedia": "en:CPC Corporation", "brand:wikidata": "Q698024", "brand:en": "CPC Corporation, Taiwan", "brand": "台灣中油", "type": null, "name": "台灣中油" }, "geometry": { "type": "MultiPolygon", "coordinates": [ [ [ [ 121.5139815, 25.0628193 ], [ 121.5139662, 25.0627467 ], [ 121.5140707, 25.0627315 ], [ 121.5140676, 25.0627188 ], [ 121.5141687, 25.0627002 ], [ 121.5141691, 25.0626904 ], [ 121.5145283, 25.0626234 ], [ 121.5146128, 25.0628102 ], [ 121.5145558, 25.0628054 ], [ 121.5139815, 25.0628193 ] ] ] ] } },
{ "type": "Feature", "properties": { "full_id": "w503005921", "osm_id": "503005921", "osm_type": "way", "amenity": "fuel", "fuel:lpg": "yes", "network": null, "short_name:en": null, "short_name": null, "addr:floor": null, "wheelchair:description": null, "fuel:gasoline": null, "fuel:diesel": "yes", "description": null, "addr:full": null, "toilets:wheelchair": null, "alt_name": null, "wheelchair": null, "building": null, "website": null, "phone": null, "opening_hours": "Mo-Su 07:00-22:00", "fuel:octane_98": null, "fuel:octane_95": "yes", "fuel:octane_92": "yes", "fuel:e3": null, "fuel:biodiesel": null, "branch": null, "addr:street": "安康路", "addr:postcode": "114", "addr:housenumber": "284", "addr:district": "內湖區", "addr:country": "TW", "addr:city": "臺北市", "operator": "中油", "name:zh": null, "name:en": null, "brand:zh": null, "brand:wikipedia": null, "brand:wikidata": null, "brand:en": null, "brand": null, "type": null, "name": "中油 安康加油加氣站" }, "geometry": { "type": "MultiPolygon", "coordinates": [ [ [ [ 121.6063096, 25.0642252 ], [ 121.6064543, 25.0642441 ], [ 121.6064771, 25.0641005 ], [ 121.6063324, 25.0640817 ], [ 121.6063096, 25.0642252 ] ] ] ] } },
{ "type": "Feature", "properties": { "full_id": "w503832005", "osm_id": "503832005", "osm_type": "way", "amenity": "fuel", "fuel:lpg": null, "network": null, "short_name:en": null, "short_name": null, "addr:floor": null, "wheelchair:description": null, "fuel:gasoline": null, "fuel:diesel": null, "description": null, "addr:full": null, "toilets:wheelchair": null, "alt_name": null, "wheelchair": null, "building": null, "website": null, "phone": null, "opening_hours": null, "fuel:octane_98": null, "fuel:octane_95": null, "fuel:octane_92": null, "fuel:e3": null, "fuel:biodiesel": null, "branch": "基隆路站", "addr:street": null, "addr:postcode": null, "addr:housenumber": null, "addr:district": null, "addr:country": null, "addr:city": null, "operator": "中油", "name:zh": "台灣中油", "name:en": "CPC Corporation, Taiwan", "brand:zh": "台灣中油", "brand:wikipedia": null, "brand:wikidata": "Q698024", "brand:en": "CPC Corporation, Taiwan", "brand": "台灣中油", "type": null, "name": "台灣中油" }, "geometry": { "type": "MultiPolygon", "coordinates": [ [ [ [ 121.5559264, 25.0274895 ], [ 121.5557848, 25.027594 ], [ 121.5558103, 25.0277155 ], [ 121.5558921, 25.0277009 ], [ 121.5560249, 25.0276 ], [ 121.5559264, 25.0274895 ] ] ] ] } },
{ "type": "Feature", "properties": { "full_id": "w523383650", "osm_id": "523383650", "osm_type": "way", "amenity": "fuel", "fuel:lpg": null, "network": null, "short_name:en": null, "short_name": null, "addr:floor": null, "wheelchair:description": null, "fuel:gasoline": null, "fuel:diesel": null, "description": null, "addr:full": null, "toilets:wheelchair": "yes", "alt_name": null, "wheelchair": "yes", "building": null, "website": null, "phone": null, "opening_hours": null, "fuel:octane_98": null, "fuel:octane_95": null, "fuel:octane_92": null, "fuel:e3": null, "fuel:biodiesel": null, "branch": null, "addr:street": null, "addr:postcode": null, "addr:housenumber": null, "addr:district": null, "addr:country": null, "addr:city": null, "operator": null, "name:zh": "台灣中油", "name:en": "CPC Corporation, Taiwan", "brand:zh": "台灣中油", "brand:wikipedia": "en:CPC Corporation", "brand:wikidata": "Q698024", "brand:en": "CPC Corporation, Taiwan", "brand": "台灣中油", "type": null, "name": "台灣中油" }, "geometry": { "type": "MultiPolygon", "coordinates": [ [ [ [ 121.5034098, 25.0382212 ], [ 121.5031898, 25.0382565 ], [ 121.5032471, 25.0385492 ], [ 121.5034671, 25.0385138 ], [ 121.5034098, 25.0382212 ] ] ] ] } },
{ "type": "Feature", "properties": { "full_id": "w527537000", "osm_id": "527537000", "osm_type": "way", "amenity": "fuel", "fuel:lpg": null, "network": null, "short_name:en": null, "short_name": null, "addr:floor": null, "wheelchair:description": null, "fuel:gasoline": null, "fuel:diesel": null, "description": null, "addr:full": null, "toilets:wheelchair": null, "alt_name": null, "wheelchair": null, "building": null, "website": null, "phone": null, "opening_hours": null, "fuel:octane_98": null, "fuel:octane_95": null, "fuel:octane_92": null, "fuel:e3": null, "fuel:biodiesel": null, "branch": null, "addr:street": null, "addr:postcode": null, "addr:housenumber": null, "addr:district": null, "addr:country": null, "addr:city": null, "operator": null, "name:zh": null, "name:en": null, "brand:zh": null, "brand:wikipedia": null, "brand:wikidata": null, "brand:en": null, "brand": null, "type": null, "name": "台亞 加油站" }, "geometry": { "type": "MultiPolygon", "coordinates": [ [ [ [ 121.5507064, 25.0628853 ], [ 121.5503479, 25.0628756 ], [ 121.5503506, 25.0628268 ], [ 121.5505284, 25.0626202 ], [ 121.5507246, 25.0625516 ], [ 121.5507064, 25.0628853 ] ] ] ] } },
{ "type": "Feature", "properties": { "full_id": "w547170578", "osm_id": "547170578", "osm_type": "way", "amenity": "fuel", "fuel:lpg": null, "network": null, "short_name:en": null, "short_name": null, "addr:floor": null, "wheelchair:description": null, "fuel:gasoline": null, "fuel:diesel": null, "description": null, "addr:full": null, "toilets:wheelchair": null, "alt_name": null, "wheelchair": null, "building": null, "website": null, "phone": null, "opening_hours": null, "fuel:octane_98": null, "fuel:octane_95": null, "fuel:octane_92": null, "fuel:e3": null, "fuel:biodiesel": null, "branch": "福華站", "addr:street": null, "addr:postcode": null, "addr:housenumber": null, "addr:district": null, "addr:country": null, "addr:city": null, "operator": null, "name:zh": "台塑石油", "name:en": "Formosa Petrochemical Corporation", "brand:zh": "台塑石油", "brand:wikipedia": "zh:台塑石化", "brand:wikidata": "Q1437742", "brand:en": "Formosa Petrochemical Corporation", "brand": "台塑石油", "type": null, "name": "台塑石油" }, "geometry": { "type": "MultiPolygon", "coordinates": [ [ [ [ 121.5541623, 25.0008862 ], [ 121.5540527, 25.0006125 ], [ 121.5537685, 25.0007139 ], [ 121.5538838, 25.0009825 ], [ 121.5541623, 25.0008862 ] ] ] ] } },
{ "type": "Feature", "properties": { "full_id": "w613034540", "osm_id": "613034540", "osm_type": "way", "amenity": "fuel", "fuel:lpg": null, "network": null, "short_name:en": null, "short_name": null, "addr:floor": null, "wheelchair:description": null, "fuel:gasoline": null, "fuel:diesel": null, "description": null, "addr:full": null, "toilets:wheelchair": null, "alt_name": null, "wheelchair": null, "building": null, "website": null, "phone": null, "opening_hours": null, "fuel:octane_98": null, "fuel:octane_95": null, "fuel:octane_92": null, "fuel:e3": null, "fuel:biodiesel": null, "branch": null, "addr:street": null, "addr:postcode": null, "addr:housenumber": null, "addr:district": null, "addr:country": null, "addr:city": null, "operator": null, "name:zh": null, "name:en": null, "brand:zh": null, "brand:wikipedia": null, "brand:wikidata": null, "brand:en": null, "brand": null, "type": null, "name": "山隆華中站" }, "geometry": { "type": "MultiPolygon", "coordinates": [ [ [ [ 121.4985528, 25.0219493 ], [ 121.4985458, 25.0219623 ], [ 121.4985446, 25.0219645 ], [ 121.498575, 25.0220122 ], [ 121.4986833, 25.0220294 ], [ 121.4987569, 25.021991 ], [ 121.4986491, 25.0218224 ], [ 121.4986317, 25.0218314 ], [ 121.4986128, 25.0218412 ], [ 121.498599, 25.0218761 ], [ 121.4986032, 25.0218819 ], [ 121.4985909, 25.0218885 ], [ 121.4985848, 25.0218918 ], [ 121.4985592, 25.0219397 ], [ 121.4985496, 25.0219453 ], [ 121.4985528, 25.0219493 ] ] ] ] } },
{ "type": "Feature", "properties": { "full_id": "w674931329", "osm_id": "674931329", "osm_type": "way", "amenity": "fuel", "fuel:lpg": null, "network": null, "short_name:en": null, "short_name": null, "addr:floor": null, "wheelchair:description": null, "fuel:gasoline": null, "fuel:diesel": null, "description": null, "addr:full": null, "toilets:wheelchair": null, "alt_name": null, "wheelchair": null, "building": null, "website": null, "phone": null, "opening_hours": null, "fuel:octane_98": null, "fuel:octane_95": null, "fuel:octane_92": null, "fuel:e3": null, "fuel:biodiesel": null, "branch": null, "addr:street": null, "addr:postcode": null, "addr:housenumber": null, "addr:district": null, "addr:country": null, "addr:city": null, "operator": null, "name:zh": null, "name:en": null, "brand:zh": null, "brand:wikipedia": null, "brand:wikidata": null, "brand:en": null, "brand": null, "type": null, "name": "中油建國北路站" }, "geometry": { "type": "MultiPolygon", "coordinates": [ [ [ [ 121.5365187, 25.0656192 ], [ 121.5366663, 25.0654491 ], [ 121.536784, 25.065253 ], [ 121.5368379, 25.0651648 ], [ 121.5366073, 25.0650531 ], [ 121.5364624, 25.0652985 ], [ 121.5363095, 25.0654515 ], [ 121.5365187, 25.0656192 ] ] ] ] } },
{ "type": "Feature", "properties": { "full_id": "w746296432", "osm_id": "746296432", "osm_type": "way", "amenity": "fuel", "fuel:lpg": null, "network": null, "short_name:en": null, "short_name": null, "addr:floor": null, "wheelchair:description": null, "fuel:gasoline": null, "fuel:diesel": null, "description": null, "addr:full": null, "toilets:wheelchair": null, "alt_name": null, "wheelchair": null, "building": null, "website": null, "phone": null, "opening_hours": null, "fuel:octane_98": null, "fuel:octane_95": null, "fuel:octane_92": null, "fuel:e3": null, "fuel:biodiesel": null, "branch": "光復北路站", "addr:street": null, "addr:postcode": null, "addr:housenumber": null, "addr:district": null, "addr:country": null, "addr:city": null, "operator": null, "name:zh": "台灣中油", "name:en": "CPC Corporation, Taiwan", "brand:zh": "台灣中油", "brand:wikipedia": "en:CPC Corporation, Taiwan", "brand:wikidata": "Q21527177", "brand:en": "CPC Corporation, Taiwan", "brand": "台灣中油", "type": null, "name": "台灣中油" }, "geometry": { "type": "MultiPolygon", "coordinates": [ [ [ [ 121.5580044, 25.0492772 ], [ 121.5584072, 25.0494056 ], [ 121.5584072, 25.0495842 ], [ 121.558013, 25.0495866 ], [ 121.5580044, 25.0492772 ] ] ] ] } },
{ "type": "Feature", "properties": { "full_id": "w812596121", "osm_id": "812596121", "osm_type": "way", "amenity": "fuel", "fuel:lpg": null, "network": null, "short_name:en": null, "short_name": null, "addr:floor": null, "wheelchair:description": null, "fuel:gasoline": null, "fuel:diesel": null, "description": null, "addr:full": null, "toilets:wheelchair": null, "alt_name": "濱江大直加油加氣站", "wheelchair": null, "building": null, "website": null, "phone": null, "opening_hours": null, "fuel:octane_98": null, "fuel:octane_95": null, "fuel:octane_92": null, "fuel:e3": null, "fuel:biodiesel": null, "branch": null, "addr:street": null, "addr:postcode": null, "addr:housenumber": null, "addr:district": null, "addr:country": null, "addr:city": null, "operator": "台灣中油", "name:zh": "台灣中油", "name:en": "CPC Corporation, Taiwan", "brand:zh": "台灣中油", "brand:wikipedia": "en:CPC Corporation, Taiwan", "brand:wikidata": "Q21527177", "brand:en": "CPC Corporation, Taiwan", "brand": "台灣中油", "type": null, "name": "台灣中油" }, "geometry": { "type": "MultiPolygon", "coordinates": [ [ [ [ 121.5522462, 25.072529 ], [ 121.5523884, 25.0727234 ], [ 121.5518922, 25.0727161 ], [ 121.5516883, 25.0725509 ], [ 121.5522462, 25.072529 ] ] ] ] } }
]
}
