{
"type": "FeatureCollection",
"name": "fuel_p_KEL",
"crs": { "type": "name", "properties": { "name": "urn:ogc:def:crs:OGC:1.3:CRS84" } },
"features": [
{ "type": "Feature", "properties": { "full_id": "n1937263845", "osm_id": "1937263845", "osm_type": "node", "amenity": "fuel", "branch": null, "building": null, "disused:name": null, "brand:wikipedia": null, "operator": "泉益加油站", "name:zh": "台灣中油", "name:en": "CPC Corporation, Taiwan", "name": "台灣中油", "brand:zh": "台灣中油", "brand:wikidata": "Q698024", "brand:en": "CPC Corporation, Taiwan", "brand": "台灣中油", "addr:street": "武訓街", "addr:postcode": "204", "addr:housenumber": "72", "addr:district": "安樂區", "addr:city": "基隆市" }, "geometry": { "type": "Point", "coordinates": [ 121.6997081, 25.1485095 ] } },
{ "type": "Feature", "properties": { "full_id": "n2375445916", "osm_id": "2375445916", "osm_type": "node", "amenity": "fuel", "branch": null, "building": null, "disused:name": null, "brand:wikipedia": null, "operator": null, "name:zh": null, "name:en": null, "name": null, "brand:zh": null, "brand:wikidata": null, "brand:en": null, "brand": null, "addr:street": null, "addr:postcode": null, "addr:housenumber": null, "addr:district": null, "addr:city": null }, "geometry": { "type": "Point", "coordinates": [ 121.7592054, 25.1280339 ] } },
{ "type": "Feature", "properties": { "full_id": "n2375445917", "osm_id": "2375445917", "osm_type": "node", "amenity": "fuel", "branch": null, "building": null, "disused:name": null, "brand:wikipedia": "en:CPC Corporation, Taiwan", "operator": null, "name:zh": "台灣中油", "name:en": "CPC Corporation, Taiwan", "name": "台灣中油", "brand:zh": "台灣中油", "brand:wikidata": "Q21527177", "brand:en": "CPC Corporation, Taiwan", "brand": "台灣中油", "addr:street": null, "addr:postcode": null, "addr:housenumber": null, "addr:district": null, "addr:city": null }, "geometry": { "type": "Point", "coordinates": [ 121.7792436, 25.1286375 ] } },
{ "type": "Feature", "properties": { "full_id": "n2375445918", "osm_id": "2375445918", "osm_type": "node", "amenity": "fuel", "branch": null, "building": null, "disused:name": "台灣中油", "brand:wikipedia": null, "operator": null, "name:zh": null, "name:en": null, "name": "台塑石油", "brand:zh": null, "brand:wikidata": null, "brand:en": null, "brand": null, "addr:street": null, "addr:postcode": null, "addr:housenumber": null, "addr:district": null, "addr:city": null }, "geometry": { "type": "Point", "coordinates": [ 121.7811962, 25.1279819 ] } },
{ "type": "Feature", "properties": { "full_id": "n2375445920", "osm_id": "2375445920", "osm_type": "node", "amenity": "fuel", "branch": null, "building": "yes", "disused:name": null, "brand:wikipedia": null, "operator": null, "name:zh": null, "name:en": null, "name": "中油八堵站", "brand:zh": null, "brand:wikidata": null, "brand:en": null, "brand": null, "addr:street": null, "addr:postcode": null, "addr:housenumber": null, "addr:district": null, "addr:city": null }, "geometry": { "type": "Point", "coordinates": [ 121.7260427, 25.1043886 ] } },
{ "type": "Feature", "properties": { "full_id": "n4524864097", "osm_id": "4524864097", "osm_type": "node", "amenity": "fuel", "branch": "台亞石油武嶺站", "building": null, "disused:name": null, "brand:wikipedia": "zh:台塑石化", "operator": null, "name:zh": "台塑石油", "name:en": "Formosa Petrochemical Corporation", "name": "台塑石油", "brand:zh": "台塑石油", "brand:wikidata": "Q1437742", "brand:en": "Formosa Petrochemical Corporation", "brand": "台塑石油", "addr:street": null, "addr:postcode": null, "addr:housenumber": null, "addr:district": null, "addr:city": null }, "geometry": { "type": "Point", "coordinates": [ 121.7053999, 25.141508 ] } },
{ "type": "Feature", "properties": { "full_id": "n4524864099", "osm_id": "4524864099", "osm_type": "node", "amenity": "fuel", "branch": "大武崙站", "building": null, "disused:name": null, "brand:wikipedia": null, "operator": null, "name:zh": "台灣中油", "name:en": "CPC Corporation, Taiwan", "name": "台灣中油", "brand:zh": "台灣中油", "brand:wikidata": "Q698024", "brand:en": "CPC Corporation, Taiwan", "brand": "台灣中油", "addr:street": null, "addr:postcode": null, "addr:housenumber": null, "addr:district": null, "addr:city": null }, "geometry": { "type": "Point", "coordinates": [ 121.7005401, 25.148148 ] } }
]
}
