{
"type": "FeatureCollection",
"name": "library_a_KEL",
"crs": { "type": "name", "properties": { "name": "urn:ogc:def:crs:OGC:1.3:CRS84" } },
"features": [
{ "type": "Feature", "properties": { "full_id": "w196801376", "osm_id": "196801376", "osm_type": "way", "amenity": "library", "phone": null, "addr:street": null, "addr:postcode": null, "addr:housenumber": null, "addr:district": null, "addr:city": null, "name": "圖書館", "building": "yes" }, "geometry": { "type": "MultiPolygon", "coordinates": [ [ [ [ 121.7329384, 25.1068799 ], [ 121.7331668, 25.1066761 ], [ 121.7333092, 25.106807 ], [ 121.7330808, 25.1070108 ], [ 121.7329384, 25.1068799 ] ] ] ] } },
{ "type": "Feature", "properties": { "full_id": "w257380855", "osm_id": "257380855", "osm_type": "way", "amenity": "library", "phone": null, "addr:street": null, "addr:postcode": null, "addr:housenumber": null, "addr:district": null, "addr:city": null, "name": "蓮社圖書館", "building": "yes" }, "geometry": { "type": "MultiPolygon", "coordinates": [ [ [ [ 121.7632037, 25.1306581 ], [ 121.7630571, 25.1306039 ], [ 121.7629659, 25.1306767 ], [ 121.7629235, 25.130685 ], [ 121.762902, 25.1307335 ], [ 121.7629337, 25.1308151 ], [ 121.7632421, 25.130905 ], [ 121.7633843, 25.1308953 ], [ 121.7634117, 25.130838 ], [ 121.7634358, 25.130753 ], [ 121.7632037, 25.1306581 ] ] ] ] } },
{ "type": "Feature", "properties": { "full_id": "w257380859", "osm_id": "257380859", "osm_type": "way", "amenity": "library", "phone": "+886 2 2465 2228", "addr:street": "正信路", "addr:postcode": "20146", "addr:housenumber": "207", "addr:district": "信義區", "addr:city": "基隆市", "name": "周氏圖書館", "building": "yes" }, "geometry": { "type": "MultiPolygon", "coordinates": [ [ [ [ 121.7599447, 25.134126 ], [ 121.7599615, 25.1341567 ], [ 121.7600317, 25.1341768 ], [ 121.7600891, 25.1341733 ], [ 121.7600783, 25.1340604 ], [ 121.7599926, 25.1340675 ], [ 121.7599447, 25.134126 ] ] ] ] } },
{ "type": "Feature", "properties": { "full_id": "w367200485", "osm_id": "367200485", "osm_type": "way", "amenity": "library", "phone": null, "addr:street": "文化路", "addr:postcode": "203", "addr:housenumber": "162", "addr:district": "中山區", "addr:city": "基隆市", "name": "圖書館", "building": "school" }, "geometry": { "type": "MultiPolygon", "coordinates": [ [ [ [ 121.7306918, 25.1547599 ], [ 121.73037, 25.1545636 ], [ 121.7304375, 25.154473 ], [ 121.730485, 25.1545019 ], [ 121.7305459, 25.1545391 ], [ 121.7306268, 25.1545039 ], [ 121.7306898, 25.1545445 ], [ 121.7306898, 25.1545717 ], [ 121.7306898, 25.1546096 ], [ 121.7307681, 25.1546574 ], [ 121.7306918, 25.1547599 ] ] ] ] } },
{ "type": "Feature", "properties": { "full_id": "w367681558", "osm_id": "367681558", "osm_type": "way", "amenity": "library", "phone": null, "addr:street": null, "addr:postcode": null, "addr:housenumber": null, "addr:district": null, "addr:city": null, "name": "圖書館", "building": "yes" }, "geometry": { "type": "MultiPolygon", "coordinates": [ [ [ [ 121.7753051, 25.1505384 ], [ 121.7750941, 25.150268 ], [ 121.7753544, 25.150104 ], [ 121.7754221, 25.1500614 ], [ 121.775628, 25.150341 ], [ 121.7755701, 25.1503765 ], [ 121.7753815, 25.1504917 ], [ 121.7753051, 25.1505384 ] ] ] ] } },
{ "type": "Feature", "properties": { "full_id": "w368847713", "osm_id": "368847713", "osm_type": "way", "amenity": "library", "phone": null, "addr:street": null, "addr:postcode": null, "addr:housenumber": null, "addr:district": null, "addr:city": null, "name": "七堵區圖書館百福館", "building": "yes" }, "geometry": { "type": "MultiPolygon", "coordinates": [ [ [ [ 121.697995, 25.0839193 ], [ 121.6979696, 25.0840588 ], [ 121.6975664, 25.0839985 ], [ 121.6975918, 25.083859 ], [ 121.697995, 25.0839193 ] ] ] ] } },
{ "type": "Feature", "properties": { "full_id": "w542911253", "osm_id": "542911253", "osm_type": "way", "amenity": "library", "phone": null, "addr:street": null, "addr:postcode": null, "addr:housenumber": null, "addr:district": null, "addr:city": null, "name": "圖資大樓", "building": "university" }, "geometry": { "type": "MultiPolygon", "coordinates": [ [ [ [ 121.7550018, 25.1322522 ], [ 121.754964, 25.1324133 ], [ 121.7545494, 25.1323337 ], [ 121.7545872, 25.1321725 ], [ 121.7550018, 25.1322522 ] ] ] ] } },
{ "type": "Feature", "properties": { "full_id": "w679137004", "osm_id": "679137004", "osm_type": "way", "amenity": "library", "phone": null, "addr:street": null, "addr:postcode": null, "addr:housenumber": null, "addr:district": null, "addr:city": null, "name": "圖書館", "building": "school" }, "geometry": { "type": "MultiPolygon", "coordinates": [ [ [ [ 121.7602441, 25.1289497 ], [ 121.7602105, 25.1288781 ], [ 121.7600979, 25.1289254 ], [ 121.7600764, 25.1290881 ], [ 121.7600509, 25.1290833 ], [ 121.7599839, 25.1291258 ], [ 121.7599799, 25.1291464 ], [ 121.7599487, 25.1291441 ], [ 121.7599369, 25.1292338 ], [ 121.7601529, 25.1292545 ], [ 121.7601716, 25.1289776 ], [ 121.7602441, 25.1289497 ] ] ] ] } },
{ "type": "Feature", "properties": { "full_id": "w679172747", "osm_id": "679172747", "osm_type": "way", "amenity": "library", "phone": null, "addr:street": null, "addr:postcode": null, "addr:housenumber": null, "addr:district": null, "addr:city": null, "name": "志學樓", "building": "school" }, "geometry": { "type": "MultiPolygon", "coordinates": [ [ [ [ 121.7724228, 25.1478664 ], [ 121.7721927, 25.1481201 ], [ 121.7721133, 25.1480635 ], [ 121.7721403, 25.1480298 ], [ 121.772115, 25.1480115 ], [ 121.7723248, 25.1477893 ], [ 121.7724228, 25.1478664 ] ] ] ] } },
{ "type": "Feature", "properties": { "full_id": "w763290678", "osm_id": "763290678", "osm_type": "way", "amenity": "library", "phone": null, "addr:street": null, "addr:postcode": null, "addr:housenumber": null, "addr:district": null, "addr:city": null, "name": "圖書資源中心", "building": "yes" }, "geometry": { "type": "MultiPolygon", "coordinates": [ [ [ [ 121.7985934, 25.1404022 ], [ 121.7985972, 25.1403226 ], [ 121.7987197, 25.1403273 ], [ 121.798716, 25.1404069 ], [ 121.7985934, 25.1404022 ] ] ] ] } }
]
}
