{
"type": "FeatureCollection",
"name": "school_KEL",
"crs": { "type": "name", "properties": { "name": "urn:ogc:def:crs:OGC:1.3:CRS84" } },
"features": [
{ "type": "Feature", "properties": { "full_id": "r3423395", "osm_id": "3423395", "osm_type": "relation", "amenity": "school", "building": null, "leisure": null, "operator:type": null, "addr:province": null, "start_date": null, "適合避難弱者安置": null, "災民收容所編號": null, "服務里別": null, "容納面積(室內)": null, "capacity": null, "addr:village": null, "denomination": null, "addr:full:en": null, "religion": null, "old_name:zh": null, "old_name:en": null, "official_ref": null, "email": null, "name:nan-TL": null, "name:nan-POJ": null, "name:nan-HJ": null, "name:nan": null, "full_name": null, "alt_name": null, "wikipedia": null, "old_name": null, "evacuation_center": null, "emergency:social_facility:source": null, "emergency:social_facility:id": null, "emergency:social_facility:for": null, "emergency:social_facility:association_villages": null, "emergency:social_facility": null, "emergency:shelter_type": null, "emergency:amenity": null, "emergency": null, "official_name": null, "fee": null, "fax": null, "short_name": null, "barrier": null, "addr:full": null, "wikidata": "Q76099333", "wheelchair": "yes", "website": "http://210.240.1.27/", "type": "multipolygon", "phone": "+886 2 2421-3960", "operator": "基隆市政府教育處", "name:zh": "信義國小", "name:en": "Shin-yi Elementary School", "name": "信義國小", "grades": "1-6", "addr:street": "仁二路", "addr:postcode": "20048", "addr:place": "智仁里", "addr:housenumber": "135", "addr:district": "仁愛區", "addr:country": "TW", "addr:city": "基隆市" }, "geometry": { "type": "MultiPolygon", "coordinates": [ [ [ [ 121.7466102, 25.1276789 ], [ 121.7466586, 25.1261556 ], [ 121.7466681, 25.1259958 ], [ 121.7466973, 25.1258544 ], [ 121.7468859, 25.1258604 ], [ 121.7469945, 25.1258786 ], [ 121.7472904, 25.1258959 ], [ 121.7471208, 25.1273439 ], [ 121.746963, 25.1274992 ], [ 121.7466102, 25.1276789 ] ] ] ] } },
{ "type": "Feature", "properties": { "full_id": "r3423396", "osm_id": "3423396", "osm_type": "relation", "amenity": "school", "building": null, "leisure": null, "operator:type": null, "addr:province": null, "start_date": null, "適合避難弱者安置": null, "災民收容所編號": null, "服務里別": null, "容納面積(室內)": null, "capacity": null, "addr:village": null, "denomination": null, "addr:full:en": null, "religion": null, "old_name:zh": null, "old_name:en": null, "official_ref": null, "email": null, "name:nan-TL": null, "name:nan-POJ": null, "name:nan-HJ": null, "name:nan": null, "full_name": null, "alt_name": null, "wikipedia": null, "old_name": null, "evacuation_center": null, "emergency:social_facility:source": null, "emergency:social_facility:id": null, "emergency:social_facility:for": null, "emergency:social_facility:association_villages": null, "emergency:social_facility": null, "emergency:shelter_type": null, "emergency:amenity": null, "emergency": null, "official_name": null, "fee": null, "fax": null, "short_name": null, "barrier": null, "addr:full": null, "wikidata": "Q75927372", "wheelchair": "no", "website": "https://raps.kl.edu.tw/", "type": "multipolygon", "phone": "+886 2 2428-9131", "operator": "基隆市政府教育處", "name:zh": "仁愛國小", "name:en": "Ren-ai Elementary School", "name": "仁愛國小", "grades": "1-6", "addr:street": "仁二路", "addr:postcode": "20048", "addr:place": "和明里", "addr:housenumber": "139", "addr:district": "仁愛區", "addr:country": "TW", "addr:city": "基隆市" }, "geometry": { "type": "MultiPolygon", "coordinates": [ [ [ [ 121.7465331, 25.1277286 ], [ 121.746146, 25.1279796 ], [ 121.7459643, 25.1280556 ], [ 121.7459245, 25.1280007 ], [ 121.7457569, 25.1279857 ], [ 121.7457385, 25.1274846 ], [ 121.7456761, 25.1274827 ], [ 121.7456794, 25.1272747 ], [ 121.7457652, 25.1271797 ], [ 121.74584, 25.1264028 ], [ 121.7458802, 25.1263725 ], [ 121.7458906, 25.1262133 ], [ 121.7459191, 25.1261746 ], [ 121.7465778, 25.1261753 ], [ 121.7465331, 25.1277286 ] ] ] ] } },
{ "type": "Feature", "properties": { "full_id": "r5120072", "osm_id": "5120072", "osm_type": "relation", "amenity": "school", "building": null, "leisure": null, "operator:type": null, "addr:province": null, "start_date": null, "適合避難弱者安置": null, "災民收容所編號": null, "服務里別": null, "容納面積(室內)": null, "capacity": null, "addr:village": null, "denomination": null, "addr:full:en": null, "religion": null, "old_name:zh": null, "old_name:en": null, "official_ref": null, "email": null, "name:nan-TL": null, "name:nan-POJ": null, "name:nan-HJ": null, "name:nan": null, "full_name": null, "alt_name": null, "wikipedia": null, "old_name": null, "evacuation_center": null, "emergency:social_facility:source": null, "emergency:social_facility:id": null, "emergency:social_facility:for": null, "emergency:social_facility:association_villages": null, "emergency:social_facility": null, "emergency:shelter_type": null, "emergency:amenity": null, "emergency": null, "official_name": null, "fee": null, "fax": null, "short_name": "培德工家", "barrier": "wall", "addr:full": "基隆市信義區培德路71號", "wikidata": null, "wheelchair": null, "website": null, "type": "multipolygon", "phone": null, "operator": null, "name:zh": null, "name:en": null, "name": "培德工家", "grades": null, "addr:street": "培德路", "addr:postcode": "20144", "addr:place": null, "addr:housenumber": "71", "addr:district": "信義區", "addr:country": null, "addr:city": "基隆市" }, "geometry": { "type": "MultiPolygon", "coordinates": [ [ [ [ 121.770802, 25.1293794 ], [ 121.772183, 25.1294595 ], [ 121.7722603, 25.1294462 ], [ 121.7727419, 25.1292419 ], [ 121.7728602, 25.129249 ], [ 121.7725089, 25.1294648 ], [ 121.7725437, 25.1295123 ], [ 121.7720583, 25.1297916 ], [ 121.7720066, 25.1299695 ], [ 121.77217, 25.1303233 ], [ 121.772394, 25.1305421 ], [ 121.7723913, 25.1305879 ], [ 121.772537, 25.1307174 ], [ 121.7722272, 25.1307845 ], [ 121.772117, 25.1306958 ], [ 121.7719928, 25.1303007 ], [ 121.7714052, 25.1302722 ], [ 121.7711601, 25.130742 ], [ 121.7712772, 25.1308049 ], [ 121.7710986, 25.1311224 ], [ 121.7711159, 25.1312619 ], [ 121.7707389, 25.1311577 ], [ 121.770686, 25.1312419 ], [ 121.7703098, 25.1311106 ], [ 121.7697754, 25.1307156 ], [ 121.7699878, 25.1303654 ], [ 121.7701104, 25.1301619 ], [ 121.7705464, 25.1300103 ], [ 121.7707725, 25.1300477 ], [ 121.7707835, 25.1298184 ], [ 121.7707839, 25.1298091 ], [ 121.770802, 25.1293794 ] ] ] ] } },
{ "type": "Feature", "properties": { "full_id": "r5248441", "osm_id": "5248441", "osm_type": "relation", "amenity": "school", "building": null, "leisure": null, "operator:type": null, "addr:province": null, "start_date": null, "適合避難弱者安置": null, "災民收容所編號": null, "服務里別": null, "容納面積(室內)": null, "capacity": null, "addr:village": null, "denomination": null, "addr:full:en": null, "religion": null, "old_name:zh": null, "old_name:en": null, "official_ref": null, "email": null, "name:nan-TL": null, "name:nan-POJ": null, "name:nan-HJ": null, "name:nan": null, "full_name": null, "alt_name": null, "wikipedia": null, "old_name": null, "evacuation_center": null, "emergency:social_facility:source": null, "emergency:social_facility:id": null, "emergency:social_facility:for": null, "emergency:social_facility:association_villages": null, "emergency:social_facility": null, "emergency:shelter_type": null, "emergency:amenity": null, "emergency": null, "official_name": null, "fee": "yes", "fax": "+886 2 2457 1337", "short_name": null, "barrier": null, "addr:full": "20544基隆市暖暖區暖暖街121號", "wikidata": "Q75927487", "wheelchair": "limited", "website": "https://nnps.kl.edu.tw/", "type": "multipolygon", "phone": "+886 2 2458 3795", "operator": null, "name:zh": "暖暖國小", "name:en": "Nuannuan Elementary School", "name": "暖暖國小", "grades": "1-6", "addr:street": "暖暖街", "addr:postcode": "20544", "addr:place": null, "addr:housenumber": "121", "addr:district": "暖暖區", "addr:country": "TW", "addr:city": "基隆市" }, "geometry": { "type": "MultiPolygon", "coordinates": [ [ [ [ 121.7368954, 25.1003531 ], [ 121.7373475, 25.1008584 ], [ 121.7375536, 25.1009682 ], [ 121.7378907, 25.1007602 ], [ 121.7377565, 25.1005522 ], [ 121.7379671, 25.1003917 ], [ 121.7374194, 25.0998768 ], [ 121.7371432, 25.1000733 ], [ 121.7369293, 25.1001715 ], [ 121.7368954, 25.1003531 ] ] ] ] } },
{ "type": "Feature", "properties": { "full_id": "r5473581", "osm_id": "5473581", "osm_type": "relation", "amenity": "school", "building": null, "leisure": null, "operator:type": null, "addr:province": null, "start_date": null, "適合避難弱者安置": null, "災民收容所編號": null, "服務里別": null, "容納面積(室內)": null, "capacity": null, "addr:village": null, "denomination": null, "addr:full:en": null, "religion": null, "old_name:zh": null, "old_name:en": null, "official_ref": null, "email": null, "name:nan-TL": null, "name:nan-POJ": null, "name:nan-HJ": null, "name:nan": null, "full_name": null, "alt_name": null, "wikipedia": null, "old_name": null, "evacuation_center": null, "emergency:social_facility:source": null, "emergency:social_facility:id": null, "emergency:social_facility:for": null, "emergency:social_facility:association_villages": null, "emergency:social_facility": null, "emergency:shelter_type": null, "emergency:amenity": null, "emergency": null, "official_name": "基隆市中正區和平國民小學", "fee": null, "fax": null, "short_name": null, "barrier": null, "addr:full": null, "wikidata": "Q76099321", "wheelchair": null, "website": "http://210.240.17.131/hopin/", "type": "multipolygon", "phone": "+886 2 2462 1477", "operator": "基隆市政府教育處", "name:zh": null, "name:en": null, "name": "和平國小", "grades": "1-6", "addr:street": "和一路84巷", "addr:postcode": null, "addr:place": null, "addr:housenumber": "26", "addr:district": "中正區", "addr:country": null, "addr:city": "基隆市" }, "geometry": { "type": "MultiPolygon", "coordinates": [ [ [ [ 121.7661304, 25.1562894 ], [ 121.7660459, 25.1562497 ], [ 121.7656698, 25.1560729 ], [ 121.7657429, 25.1559512 ], [ 121.7660265, 25.1556915 ], [ 121.7660315, 25.1555892 ], [ 121.7662736, 25.1555982 ], [ 121.7663037, 25.155629 ], [ 121.7663339, 25.1556597 ], [ 121.7664256, 25.1558042 ], [ 121.7663956, 25.1558255 ], [ 121.766475, 25.1559249 ], [ 121.7661304, 25.1562894 ] ] ] ] } },
{ "type": "Feature", "properties": { "full_id": "r7661381", "osm_id": "7661381", "osm_type": "relation", "amenity": "school", "building": null, "leisure": null, "operator:type": null, "addr:province": null, "start_date": null, "適合避難弱者安置": null, "災民收容所編號": null, "服務里別": null, "容納面積(室內)": null, "capacity": null, "addr:village": null, "denomination": null, "addr:full:en": null, "religion": null, "old_name:zh": null, "old_name:en": null, "official_ref": null, "email": null, "name:nan-TL": null, "name:nan-POJ": null, "name:nan-HJ": null, "name:nan": null, "full_name": null, "alt_name": null, "wikipedia": null, "old_name": null, "evacuation_center": null, "emergency:social_facility:source": null, "emergency:social_facility:id": null, "emergency:social_facility:for": null, "emergency:social_facility:association_villages": null, "emergency:social_facility": null, "emergency:shelter_type": null, "emergency:amenity": null, "emergency": null, "official_name": null, "fee": null, "fax": null, "short_name": null, "barrier": null, "addr:full": null, "wikidata": null, "wheelchair": "limited", "website": "https://www.ccjh.kl.edu.tw/", "type": "multipolygon", "phone": null, "operator": "基隆市政府教育處", "name:zh": "基隆市立中正國民中學", "name:en": "Chung Cheng Junior High School", "name": "中正國中", "grades": "7-9", "addr:street": "中船路36巷", "addr:postcode": "20242", "addr:place": "中船里", "addr:housenumber": "59", "addr:district": "中正區", "addr:country": null, "addr:city": "基隆市" }, "geometry": { "type": "MultiPolygon", "coordinates": [ [ [ [ 121.7533893, 25.1365492 ], [ 121.7534126, 25.1365096 ], [ 121.7531066, 25.1360716 ], [ 121.7540918, 25.1354884 ], [ 121.7541938, 25.1353591 ], [ 121.7542236, 25.1350097 ], [ 121.7542637, 25.1347649 ], [ 121.7540459, 25.1345566 ], [ 121.7533359, 25.134315 ], [ 121.7530926, 25.1340484 ], [ 121.7530817, 25.1339064 ], [ 121.7530497, 25.1339052 ], [ 121.7530151, 25.1339039 ], [ 121.7529168, 25.1338233 ], [ 121.7524083, 25.1337732 ], [ 121.7523727, 25.1340111 ], [ 121.7528858, 25.1340607 ], [ 121.7532898, 25.1344361 ], [ 121.7534115, 25.1344587 ], [ 121.7534097, 25.1346387 ], [ 121.7532814, 25.1346968 ], [ 121.7531299, 25.1346545 ], [ 121.7531036, 25.134863 ], [ 121.7530527, 25.1348999 ], [ 121.7527218, 25.1351401 ], [ 121.7524303, 25.1355306 ], [ 121.7522, 25.135842 ], [ 121.7526169, 25.136383 ], [ 121.7530016, 25.1363012 ], [ 121.7531649, 25.1363091 ], [ 121.7533893, 25.1365492 ] ], [ [ 121.7524574, 25.1338072 ], [ 121.7526921, 25.133822 ], [ 121.7526757, 25.1340048 ], [ 121.7524399, 25.1339858 ], [ 121.7524574, 25.1338072 ] ] ] ] } },
{ "type": "Feature", "properties": { "full_id": "r9383793", "osm_id": "9383793", "osm_type": "relation", "amenity": "school", "building": null, "leisure": null, "operator:type": null, "addr:province": null, "start_date": null, "適合避難弱者安置": null, "災民收容所編號": null, "服務里別": null, "容納面積(室內)": null, "capacity": null, "addr:village": null, "denomination": null, "addr:full:en": null, "religion": null, "old_name:zh": null, "old_name:en": null, "official_ref": null, "email": null, "name:nan-TL": null, "name:nan-POJ": null, "name:nan-HJ": null, "name:nan": null, "full_name": null, "alt_name": null, "wikipedia": "zh:基隆商工", "old_name": "臺灣省立基隆高級商工職業學校", "evacuation_center": "yes", "emergency:social_facility:source": "內政部消防署", "emergency:social_facility:id": "2825", "emergency:social_facility:for": "displaced_people", "emergency:social_facility:association_villages": "長興里", "emergency:social_facility": "shelter", "emergency:shelter_type": "水災,震災,土石流,海嘯", "emergency:amenity": "social_facility", "emergency": "assembly_point", "official_name": "基隆高級商工職業學校", "fee": null, "fax": null, "short_name": null, "barrier": null, "addr:full": "基隆市七堵區東新街22號", "wikidata": "Q1848631", "wheelchair": "yes", "website": null, "type": "multipolygon", "phone": null, "operator": "中華民國教育部", "name:zh": "基隆商工", "name:en": "National Keelung Commercial & Industrial Vocational Senior High School", "name": "基隆商工", "grades": null, "addr:street": "東新街", "addr:postcode": "20646", "addr:place": null, "addr:housenumber": "22", "addr:district": "七堵區", "addr:country": "TW", "addr:city": "基隆市" }, "geometry": { "type": "MultiPolygon", "coordinates": [ [ [ [ 121.7169759, 25.0932233 ], [ 121.7170019, 25.093367 ], [ 121.717429, 25.0936462 ], [ 121.7177109, 25.0937154 ], [ 121.7177887, 25.09371 ], [ 121.7178976, 25.0935693 ], [ 121.7180537, 25.0933649 ], [ 121.7181955, 25.093249 ], [ 121.7183588, 25.0932705 ], [ 121.718839, 25.0940401 ], [ 121.7187955, 25.0942663 ], [ 121.7187252, 25.0944688 ], [ 121.7188798, 25.0945642 ], [ 121.7188313, 25.0946827 ], [ 121.7185695, 25.0947425 ], [ 121.7179739, 25.0947338 ], [ 121.7178408, 25.0947627 ], [ 121.7177023, 25.0948395 ], [ 121.7175537, 25.0949589 ], [ 121.7174789, 25.0950609 ], [ 121.7174217, 25.0950502 ], [ 121.7169991, 25.0948016 ], [ 121.7168919, 25.0947341 ], [ 121.7168217, 25.0946898 ], [ 121.7161555, 25.09427 ], [ 121.7169759, 25.0932233 ] ] ] ] } },
{ "type": "Feature", "properties": { "full_id": "r9383794", "osm_id": "9383794", "osm_type": "relation", "amenity": "school", "building": null, "leisure": null, "operator:type": null, "addr:province": null, "start_date": null, "適合避難弱者安置": null, "災民收容所編號": null, "服務里別": null, "容納面積(室內)": null, "capacity": null, "addr:village": null, "denomination": null, "addr:full:en": null, "religion": null, "old_name:zh": null, "old_name:en": null, "official_ref": null, "email": null, "name:nan-TL": null, "name:nan-POJ": null, "name:nan-HJ": null, "name:nan": null, "full_name": null, "alt_name": null, "wikipedia": null, "old_name": null, "evacuation_center": null, "emergency:social_facility:source": null, "emergency:social_facility:id": null, "emergency:social_facility:for": null, "emergency:social_facility:association_villages": null, "emergency:social_facility": null, "emergency:shelter_type": null, "emergency:amenity": null, "emergency": null, "official_name": null, "fee": null, "fax": "+886 2 2455 2125", "short_name": null, "barrier": null, "addr:full": "基隆市七堵區東新街20號", "wikidata": "Q75691694", "wheelchair": null, "website": "http://school.mdjh.kl.edu.tw/school/web/", "type": "multipolygon", "phone": "+886 2 2456 1274", "operator": null, "name:zh": null, "name:en": null, "name": "明德國中", "grades": "7-9", "addr:street": "東新街", "addr:postcode": null, "addr:place": null, "addr:housenumber": "20", "addr:district": "七堵區", "addr:country": "TW", "addr:city": "基隆市" }, "geometry": { "type": "MultiPolygon", "coordinates": [ [ [ [ 121.7161555, 25.09427 ], [ 121.7156158, 25.0938688 ], [ 121.7155448, 25.0937677 ], [ 121.7155002, 25.093632 ], [ 121.7154479, 25.0935276 ], [ 121.7153118, 25.0934305 ], [ 121.7151147, 25.0932833 ], [ 121.7153528, 25.0929482 ], [ 121.715446, 25.0929199 ], [ 121.7158868, 25.0929477 ], [ 121.7159907, 25.0929336 ], [ 121.7161419, 25.0929018 ], [ 121.7163099, 25.0928475 ], [ 121.7169759, 25.0932233 ], [ 121.7161555, 25.09427 ] ] ] ] } },
{ "type": "Feature", "properties": { "full_id": "r10180347", "osm_id": "10180347", "osm_type": "relation", "amenity": "school", "building": null, "leisure": null, "operator:type": null, "addr:province": null, "start_date": null, "適合避難弱者安置": null, "災民收容所編號": null, "服務里別": null, "容納面積(室內)": null, "capacity": null, "addr:village": null, "denomination": null, "addr:full:en": null, "religion": null, "old_name:zh": null, "old_name:en": null, "official_ref": null, "email": null, "name:nan-TL": null, "name:nan-POJ": null, "name:nan-HJ": null, "name:nan": null, "full_name": null, "alt_name": null, "wikipedia": null, "old_name": null, "evacuation_center": "yes", "emergency:social_facility:source": "內政部消防署", "emergency:social_facility:id": "2823", "emergency:social_facility:for": "displaced_people", "emergency:social_facility:association_villages": "碇內里 碇何里 碇安里 碇祥里", "emergency:social_facility": "shelter", "emergency:shelter_type": "水災,震災,土石流,海嘯", "emergency:amenity": "social_facility", "emergency": "assembly_point", "official_name": null, "fee": null, "fax": null, "short_name": null, "barrier": null, "addr:full": "基隆市暖暖區源遠路152巷75號", "wikidata": "Q75693264", "wheelchair": null, "website": "http://www.dnjh.kl.edu.tw/", "type": "multipolygon", "phone": null, "operator": null, "name:zh": "碇內國中", "name:en": "Keelung Municipal Ding-nei Junior High School", "name": "碇內國中", "grades": "7-9", "addr:street": "源遠路152巷", "addr:postcode": "205", "addr:place": null, "addr:housenumber": "75", "addr:district": "暖暖區", "addr:country": "TW", "addr:city": "基隆市" }, "geometry": { "type": "MultiPolygon", "coordinates": [ [ [ [ 121.7488526, 25.0972465 ], [ 121.7488282, 25.0961276 ], [ 121.7487988, 25.0953883 ], [ 121.7494331, 25.0952988 ], [ 121.7498953, 25.0953094 ], [ 121.750235, 25.0953887 ], [ 121.7502624, 25.0953969 ], [ 121.7502784, 25.0954064 ], [ 121.7502924, 25.0954193 ], [ 121.7502979, 25.0954354 ], [ 121.7503004, 25.0954544 ], [ 121.7502969, 25.0954763 ], [ 121.7498933, 25.0968676 ], [ 121.7498236, 25.0971105 ], [ 121.7497216, 25.0971882 ], [ 121.7495124, 25.0972696 ], [ 121.7492817, 25.0972684 ], [ 121.7488526, 25.0972465 ] ] ] ] } },
{ "type": "Feature", "properties": { "full_id": "r10180354", "osm_id": "10180354", "osm_type": "relation", "amenity": "school", "building": null, "leisure": null, "operator:type": null, "addr:province": null, "start_date": null, "適合避難弱者安置": null, "災民收容所編號": null, "服務里別": null, "容納面積(室內)": null, "capacity": null, "addr:village": null, "denomination": null, "addr:full:en": null, "religion": null, "old_name:zh": null, "old_name:en": null, "official_ref": null, "email": null, "name:nan-TL": null, "name:nan-POJ": null, "name:nan-HJ": null, "name:nan": null, "full_name": null, "alt_name": "博愛家園", "wikipedia": null, "old_name": null, "evacuation_center": null, "emergency:social_facility:source": null, "emergency:social_facility:id": null, "emergency:social_facility:for": null, "emergency:social_facility:association_villages": null, "emergency:social_facility": null, "emergency:shelter_type": null, "emergency:amenity": null, "emergency": null, "official_name": null, "fee": null, "fax": null, "short_name": null, "barrier": null, "addr:full": null, "wikidata": "Q75927496", "wheelchair": "yes", "website": "http://www.bor-ay.com.tw/", "type": "multipolygon", "phone": null, "operator": null, "name:zh": null, "name:en": null, "name": "碇內國小", "grades": "1-6", "addr:street": "源遠路", "addr:postcode": "20545", "addr:place": null, "addr:housenumber": "254", "addr:district": "暖暖區", "addr:country": "TW", "addr:city": "基隆市" }, "geometry": { "type": "MultiPolygon", "coordinates": [ [ [ [ 121.7526407, 25.0983059 ], [ 121.7527428, 25.0979138 ], [ 121.7533571, 25.0974709 ], [ 121.7535315, 25.0974974 ], [ 121.7536756, 25.097406 ], [ 121.7538223, 25.0972989 ], [ 121.7544521, 25.0974092 ], [ 121.7543371, 25.0979376 ], [ 121.7541765, 25.0985242 ], [ 121.7537358, 25.0984437 ], [ 121.7535609, 25.0984112 ], [ 121.7526407, 25.0983059 ] ] ] ] } },
{ "type": "Feature", "properties": { "full_id": "r10339895", "osm_id": "10339895", "osm_type": "relation", "amenity": "school", "building": null, "leisure": null, "operator:type": null, "addr:province": null, "start_date": null, "適合避難弱者安置": null, "災民收容所編號": null, "服務里別": null, "容納面積(室內)": null, "capacity": null, "addr:village": null, "denomination": null, "addr:full:en": null, "religion": null, "old_name:zh": null, "old_name:en": null, "official_ref": null, "email": null, "name:nan-TL": null, "name:nan-POJ": null, "name:nan-HJ": null, "name:nan": null, "full_name": null, "alt_name": null, "wikipedia": "zh:基隆市立暖暖高級中學", "old_name": "基隆市立暖暖國民中學", "evacuation_center": null, "emergency:social_facility:source": null, "emergency:social_facility:id": null, "emergency:social_facility:for": null, "emergency:social_facility:association_villages": null, "emergency:social_facility": null, "emergency:shelter_type": null, "emergency:amenity": null, "emergency": null, "official_name": "基隆市立暖暖高級中學", "fee": null, "fax": null, "short_name": "暖暖高中;暖中", "barrier": null, "addr:full": null, "wikidata": "Q10930442", "wheelchair": null, "website": "http://www.nnjh.kl.edu.tw/", "type": "multipolygon", "phone": null, "operator": "基隆市政府教育處", "name:zh": "暖暖高中", "name:en": "Nuannuan Senior High School", "name": "暖暖高中", "grades": "10-12", "addr:street": "暖中路", "addr:postcode": "20542", "addr:place": null, "addr:housenumber": "112", "addr:district": "暖暖區", "addr:country": "TW", "addr:city": "基隆市" }, "geometry": { "type": "MultiPolygon", "coordinates": [ [ [ [ 121.7376967, 25.107437 ], [ 121.7377708, 25.1074656 ], [ 121.737885, 25.1075031 ], [ 121.7379975, 25.1076555 ], [ 121.738011, 25.107538 ], [ 121.7382078, 25.1072721 ], [ 121.7385006, 25.1069564 ], [ 121.7389637, 25.1072825 ], [ 121.7391559, 25.1074234 ], [ 121.7392696, 25.1075504 ], [ 121.73902, 25.1077653 ], [ 121.7389918, 25.1078392 ], [ 121.7388268, 25.1079262 ], [ 121.7385929, 25.108127 ], [ 121.7384947, 25.108167 ], [ 121.7384548, 25.1082647 ], [ 121.7382906, 25.1082655 ], [ 121.7383024, 25.1083801 ], [ 121.7379851, 25.1086218 ], [ 121.7375336, 25.1089014 ], [ 121.7373528, 25.1091237 ], [ 121.7371334, 25.1089822 ], [ 121.7367437, 25.1091927 ], [ 121.7365513, 25.1090587 ], [ 121.7363752, 25.1088378 ], [ 121.7363489, 25.1087794 ], [ 121.7368176, 25.1084226 ], [ 121.7367802, 25.1080548 ], [ 121.7376067, 25.1075345 ], [ 121.7376967, 25.107437 ] ] ] ] } },
{ "type": "Feature", "properties": { "full_id": "r11265606", "osm_id": "11265606", "osm_type": "relation", "amenity": "school", "building": null, "leisure": null, "operator:type": null, "addr:province": null, "start_date": null, "適合避難弱者安置": null, "災民收容所編號": null, "服務里別": null, "容納面積(室內)": null, "capacity": null, "addr:village": null, "denomination": null, "addr:full:en": null, "religion": null, "old_name:zh": null, "old_name:en": null, "official_ref": null, "email": null, "name:nan-TL": "Ke-lâng Ko-tiong", "name:nan-POJ": "Ke-lâng Ko-tiong", "name:nan-HJ": "基隆高中", "name:nan": "Ke-lâng Ko-tiong", "full_name": "國立基隆高級中學", "alt_name": "翠崗", "wikipedia": "zh:國立基隆高級中學", "old_name": "臺灣省立基隆高級中學", "evacuation_center": "yes", "emergency:social_facility:source": "內政部消防署", "emergency:social_facility:id": "2822", "emergency:social_facility:for": "displaced_people", "emergency:social_facility:association_villages": "暖西里 暖東里 暖暖里 暖同里 八堵里 八中里 八西里 八南里", "emergency:social_facility": "shelter", "emergency:shelter_type": "水災,震災,土石流,海嘯", "emergency:amenity": "social_facility", "emergency": "assembly_point", "official_name": null, "fee": null, "fax": null, "short_name": "基隆高中;基中", "barrier": null, "addr:full": "基隆市暖暖區源遠路20號", "wikidata": "Q10927031", "wheelchair": "limited", "website": "http://www.klsh.kl.edu.tw/", "type": "multipolygon", "phone": "+886 2 2458-2052", "operator": "中華民國教育部", "name:zh": "基隆高中", "name:en": "National Keelung Senior High School", "name": "基隆高中", "grades": "10-12", "addr:street": "源遠路", "addr:postcode": "20543", "addr:place": null, "addr:housenumber": "20", "addr:district": "暖暖區", "addr:country": "TW", "addr:city": "基隆市" }, "geometry": { "type": "MultiPolygon", "coordinates": [ [ [ [ 121.7321009, 25.1084645 ], [ 121.7325137, 25.1081703 ], [ 121.7328245, 25.1078941 ], [ 121.733031, 25.1077106 ], [ 121.7336134, 25.1071929 ], [ 121.7338552, 25.1068093 ], [ 121.7337286, 25.1067377 ], [ 121.7339441, 25.1065067 ], [ 121.7338552, 25.1064011 ], [ 121.7338907, 25.1063527 ], [ 121.7338156, 25.106299 ], [ 121.7340074, 25.1061433 ], [ 121.7337604, 25.1059105 ], [ 121.7334854, 25.1060913 ], [ 121.7331374, 25.1057386 ], [ 121.7327578, 25.1059392 ], [ 121.7326584, 25.1058472 ], [ 121.7323333, 25.1060406 ], [ 121.7319711, 25.1062784 ], [ 121.7314911, 25.1067391 ], [ 121.7313596, 25.1068863 ], [ 121.7314783, 25.1073491 ], [ 121.7318065, 25.1073246 ], [ 121.7318239, 25.1073814 ], [ 121.7318505, 25.1074686 ], [ 121.7320002, 25.107606 ], [ 121.7320359, 25.1076371 ], [ 121.7319046, 25.107772 ], [ 121.7319723, 25.1078363 ], [ 121.7316779, 25.1080937 ], [ 121.7321009, 25.1084645 ] ] ] ] } },
{ "type": "Feature", "properties": { "full_id": "r12801631", "osm_id": "12801631", "osm_type": "relation", "amenity": "school", "building": null, "leisure": null, "operator:type": null, "addr:province": null, "start_date": null, "適合避難弱者安置": null, "災民收容所編號": null, "服務里別": null, "容納面積(室內)": null, "capacity": null, "addr:village": null, "denomination": null, "addr:full:en": null, "religion": null, "old_name:zh": null, "old_name:en": null, "official_ref": null, "email": null, "name:nan-TL": null, "name:nan-POJ": null, "name:nan-HJ": null, "name:nan": null, "full_name": null, "alt_name": null, "wikipedia": null, "old_name": null, "evacuation_center": null, "emergency:social_facility:source": null, "emergency:social_facility:id": null, "emergency:social_facility:for": null, "emergency:social_facility:association_villages": null, "emergency:social_facility": null, "emergency:shelter_type": null, "emergency:amenity": null, "emergency": null, "official_name": null, "fee": null, "fax": "+886 2 2455 2095", "short_name": null, "barrier": null, "addr:full": "基隆市七堵區東新街3號", "wikidata": "Q75927503", "wheelchair": null, "website": "https://cses.kl.edu.tw/", "type": "multipolygon", "phone": "+886 2 2455 2096", "operator": null, "name:zh": null, "name:en": null, "name": "長興國小", "grades": "1-6", "addr:street": "東新街", "addr:postcode": null, "addr:place": null, "addr:housenumber": "3", "addr:district": "七堵區", "addr:country": "TW", "addr:city": "基隆市" }, "geometry": { "type": "MultiPolygon", "coordinates": [ [ [ [ 121.7119047, 25.0912497 ], [ 121.7118171, 25.0910073 ], [ 121.7133382, 25.0913441 ], [ 121.7137202, 25.0914676 ], [ 121.7141028, 25.0914597 ], [ 121.7141561, 25.0926985 ], [ 121.7141696, 25.0927913 ], [ 121.7140996, 25.0927777 ], [ 121.7140354, 25.0927435 ], [ 121.7126594, 25.09179 ], [ 121.7120374, 25.091472 ], [ 121.7119047, 25.0912497 ] ] ] ] } },
{ "type": "Feature", "properties": { "full_id": "w158081015", "osm_id": "158081015", "osm_type": "way", "amenity": "school", "building": null, "leisure": null, "operator:type": null, "addr:province": null, "start_date": null, "適合避難弱者安置": null, "災民收容所編號": null, "服務里別": null, "容納面積(室內)": null, "capacity": null, "addr:village": null, "denomination": null, "addr:full:en": null, "religion": null, "old_name:zh": null, "old_name:en": null, "official_ref": null, "email": "klsch343@kl.edu.tw", "name:nan-TL": null, "name:nan-POJ": null, "name:nan-HJ": null, "name:nan": null, "full_name": null, "alt_name": null, "wikipedia": "zh:基隆市暖暖區暖西國民小學", "old_name": null, "evacuation_center": null, "emergency:social_facility:source": null, "emergency:social_facility:id": null, "emergency:social_facility:for": null, "emergency:social_facility:association_villages": null, "emergency:social_facility": null, "emergency:shelter_type": null, "emergency:amenity": null, "emergency": null, "official_name": null, "fee": "yes", "fax": null, "short_name": null, "barrier": null, "addr:full": "20544基隆市暖暖區暖暖街350號", "wikidata": "Q10930433", "wheelchair": "limited", "website": "http://210.240.16.3/xoops/", "type": null, "phone": null, "operator": null, "name:zh": null, "name:en": null, "name": "暖西國小", "grades": "1-6", "addr:street": "暖暖街", "addr:postcode": "20544", "addr:place": null, "addr:housenumber": "350", "addr:district": "暖暖區", "addr:country": null, "addr:city": "基隆市" }, "geometry": { "type": "MultiPolygon", "coordinates": [ [ [ [ 121.7353388, 25.0935697 ], [ 121.7347226, 25.0934154 ], [ 121.7344892, 25.0929751 ], [ 121.7345965, 25.0925008 ], [ 121.7348603, 25.0923419 ], [ 121.7352308, 25.0923476 ], [ 121.7353992, 25.0923834 ], [ 121.7353776, 25.0925861 ], [ 121.7356093, 25.092602 ], [ 121.7353388, 25.0935697 ] ] ] ] } },
{ "type": "Feature", "properties": { "full_id": "w161621150", "osm_id": "161621150", "osm_type": "way", "amenity": "school", "building": null, "leisure": null, "operator:type": null, "addr:province": null, "start_date": null, "適合避難弱者安置": null, "災民收容所編號": null, "服務里別": null, "容納面積(室內)": null, "capacity": null, "addr:village": null, "denomination": null, "addr:full:en": null, "religion": null, "old_name:zh": null, "old_name:en": null, "official_ref": null, "email": null, "name:nan-TL": null, "name:nan-POJ": null, "name:nan-HJ": null, "name:nan": null, "full_name": null, "alt_name": null, "wikipedia": null, "old_name": null, "evacuation_center": null, "emergency:social_facility:source": null, "emergency:social_facility:id": null, "emergency:social_facility:for": null, "emergency:social_facility:association_villages": null, "emergency:social_facility": null, "emergency:shelter_type": null, "emergency:amenity": null, "emergency": null, "official_name": null, "fee": null, "fax": null, "short_name": null, "barrier": "wall", "addr:full": null, "wikidata": "Q75927483", "wheelchair": "limited", "website": "http://ms1.badps.kl.edu.tw/xoops/html/", "type": null, "phone": null, "operator": null, "name:zh": null, "name:en": null, "name": "八堵國小", "grades": "1-6", "addr:street": "源遠路", "addr:postcode": "20543", "addr:place": null, "addr:housenumber": "27", "addr:district": "暖暖區", "addr:country": "TW", "addr:city": "基隆市" }, "geometry": { "type": "MultiPolygon", "coordinates": [ [ [ [ 121.7322347, 25.1086665 ], [ 121.7323461, 25.1085682 ], [ 121.7322795, 25.1084973 ], [ 121.7322597, 25.1084777 ], [ 121.7327222, 25.1080839 ], [ 121.7330684, 25.1084173 ], [ 121.733104, 25.1083892 ], [ 121.7331691, 25.1084482 ], [ 121.7330624, 25.1085395 ], [ 121.7330854, 25.1085562 ], [ 121.7330047, 25.108633 ], [ 121.7324886, 25.108942 ], [ 121.7323841, 25.1088215 ], [ 121.7322347, 25.1086665 ] ] ] ] } },
{ "type": "Feature", "properties": { "full_id": "w185567762", "osm_id": "185567762", "osm_type": "way", "amenity": "school", "building": null, "leisure": null, "operator:type": null, "addr:province": null, "start_date": null, "適合避難弱者安置": null, "災民收容所編號": null, "服務里別": null, "容納面積(室內)": null, "capacity": null, "addr:village": null, "denomination": null, "addr:full:en": null, "religion": null, "old_name:zh": null, "old_name:en": null, "official_ref": null, "email": null, "name:nan-TL": null, "name:nan-POJ": null, "name:nan-HJ": null, "name:nan": null, "full_name": null, "alt_name": null, "wikipedia": null, "old_name": null, "evacuation_center": null, "emergency:social_facility:source": null, "emergency:social_facility:id": null, "emergency:social_facility:for": null, "emergency:social_facility:association_villages": null, "emergency:social_facility": null, "emergency:shelter_type": null, "emergency:amenity": null, "emergency": null, "official_name": null, "fee": null, "fax": null, "short_name": null, "barrier": null, "addr:full": null, "wikidata": null, "wheelchair": null, "website": "https://www.szps.kl.edu.tw/", "type": null, "phone": "+886 2 2422-3362", "operator": "基隆市政府教育處", "name:zh": "尚智國小", "name:en": "Shang Zhi Elementary School", "name": "尚智國小", "grades": "1-6", "addr:street": "龍安街", "addr:postcode": "20045", "addr:place": "德厚里", "addr:housenumber": "326", "addr:district": "仁愛區", "addr:country": "TW", "addr:city": "基隆市" }, "geometry": { "type": "MultiPolygon", "coordinates": [ [ [ [ 121.7420888, 25.1207961 ], [ 121.7414654, 25.1207259 ], [ 121.7415464, 25.1200069 ], [ 121.7417454, 25.1200356 ], [ 121.7418775, 25.1201631 ], [ 121.7419285, 25.120305 ], [ 121.742036, 25.1204565 ], [ 121.7421152, 25.1205649 ], [ 121.7420888, 25.1207961 ] ] ] ] } },
{ "type": "Feature", "properties": { "full_id": "w220816430", "osm_id": "220816430", "osm_type": "way", "amenity": "school", "building": null, "leisure": null, "operator:type": null, "addr:province": null, "start_date": null, "適合避難弱者安置": null, "災民收容所編號": null, "服務里別": null, "容納面積(室內)": null, "capacity": null, "addr:village": null, "denomination": null, "addr:full:en": null, "religion": null, "old_name:zh": null, "old_name:en": null, "official_ref": null, "email": null, "name:nan-TL": null, "name:nan-POJ": null, "name:nan-HJ": null, "name:nan": null, "full_name": null, "alt_name": null, "wikipedia": null, "old_name": null, "evacuation_center": null, "emergency:social_facility:source": null, "emergency:social_facility:id": null, "emergency:social_facility:for": null, "emergency:social_facility:association_villages": null, "emergency:social_facility": null, "emergency:shelter_type": null, "emergency:amenity": null, "emergency": null, "official_name": null, "fee": null, "fax": "+886 2 2465 4891", "short_name": "信義國中", "barrier": null, "addr:full": "基隆市信義區東信路4號", "wikidata": null, "wheelchair": null, "website": "https://syjh.kl.edu.tw/", "type": null, "phone": "+886 2 2465 2199", "operator": null, "name:zh": null, "name:en": null, "name": "信義國中", "grades": "7-9", "addr:street": "東信路", "addr:postcode": null, "addr:place": null, "addr:housenumber": "4", "addr:district": "信義區", "addr:country": null, "addr:city": "基隆市" }, "geometry": { "type": "MultiPolygon", "coordinates": [ [ [ [ 121.7683793, 25.1286754 ], [ 121.7684804, 25.1286236 ], [ 121.7685001, 25.1286515 ], [ 121.7685116, 25.1286766 ], [ 121.768514, 25.1287032 ], [ 121.7685144, 25.1287259 ], [ 121.7685123, 25.1287527 ], [ 121.768507, 25.128777 ], [ 121.7685008, 25.1288041 ], [ 121.7685021, 25.1288295 ], [ 121.768514, 25.1288483 ], [ 121.7685311, 25.128866 ], [ 121.7685556, 25.1288789 ], [ 121.7685784, 25.1288933 ], [ 121.7685918, 25.128904 ], [ 121.7686006, 25.1289223 ], [ 121.7686076, 25.1289375 ], [ 121.7686323, 25.1289318 ], [ 121.7686544, 25.1289253 ], [ 121.7686738, 25.128913 ], [ 121.7686915, 25.1288959 ], [ 121.7694822, 25.1293955 ], [ 121.7694834, 25.1297469 ], [ 121.7697551, 25.1301352 ], [ 121.7695253, 25.1305003 ], [ 121.7690529, 25.1302872 ], [ 121.7689725, 25.1302778 ], [ 121.7687824, 25.1301896 ], [ 121.7686523, 25.1301969 ], [ 121.7677403, 25.1295521 ], [ 121.7676595, 25.1294427 ], [ 121.7683793, 25.1286754 ] ] ] ] } },
{ "type": "Feature", "properties": { "full_id": "w220816828", "osm_id": "220816828", "osm_type": "way", "amenity": "school", "building": null, "leisure": null, "operator:type": null, "addr:province": null, "start_date": null, "適合避難弱者安置": null, "災民收容所編號": null, "服務里別": null, "容納面積(室內)": null, "capacity": null, "addr:village": null, "denomination": null, "addr:full:en": null, "religion": null, "old_name:zh": null, "old_name:en": null, "official_ref": null, "email": null, "name:nan-TL": null, "name:nan-POJ": null, "name:nan-HJ": null, "name:nan": null, "full_name": null, "alt_name": "基隆女中", "wikipedia": null, "old_name": null, "evacuation_center": null, "emergency:social_facility:source": null, "emergency:social_facility:id": null, "emergency:social_facility:for": null, "emergency:social_facility:association_villages": null, "emergency:social_facility": null, "emergency:shelter_type": null, "emergency:amenity": null, "emergency": null, "official_name": null, "fee": null, "fax": null, "short_name": "基隆女中;基女", "barrier": "wall", "addr:full": null, "wikidata": "Q10927030", "wheelchair": "limited", "website": "http://www.klgsh.kl.edu.tw/", "type": null, "phone": "+886 2 2427-8274", "operator": "中華民國教育部", "name:zh": "基隆女中", "name:en": "National Keelung Girls' Senior High School", "name": "基隆女中", "grades": null, "addr:street": "東信路", "addr:postcode": "20145", "addr:place": null, "addr:housenumber": "324", "addr:district": "信義區", "addr:country": null, "addr:city": "基隆市" }, "geometry": { "type": "MultiPolygon", "coordinates": [ [ [ [ 121.7587312, 25.1286169 ], [ 121.7600352, 25.1286838 ], [ 121.7600864, 25.1287049 ], [ 121.7601331, 25.1287369 ], [ 121.7602468, 25.1289497 ], [ 121.7601753, 25.1289791 ], [ 121.7601477, 25.1295261 ], [ 121.7604256, 25.1303421 ], [ 121.7600463, 25.13081 ], [ 121.7598309, 25.1308445 ], [ 121.7596838, 25.1309805 ], [ 121.7590965, 25.1306225 ], [ 121.7590213, 25.1304672 ], [ 121.7589767, 25.1301107 ], [ 121.7586868, 25.1296059 ], [ 121.7584369, 25.1295418 ], [ 121.7583765, 25.1294382 ], [ 121.7583492, 25.1292851 ], [ 121.7584019, 25.1292061 ], [ 121.7586233, 25.1291495 ], [ 121.7586845, 25.1286342 ], [ 121.7587312, 25.1286169 ] ] ] ] } },
{ "type": "Feature", "properties": { "full_id": "w220816877", "osm_id": "220816877", "osm_type": "way", "amenity": "school", "building": null, "leisure": null, "operator:type": null, "addr:province": null, "start_date": null, "適合避難弱者安置": null, "災民收容所編號": null, "服務里別": null, "容納面積(室內)": null, "capacity": null, "addr:village": null, "denomination": null, "addr:full:en": null, "religion": null, "old_name:zh": null, "old_name:en": null, "official_ref": null, "email": null, "name:nan-TL": null, "name:nan-POJ": null, "name:nan-HJ": null, "name:nan": null, "full_name": null, "alt_name": null, "wikipedia": null, "old_name": null, "evacuation_center": null, "emergency:social_facility:source": null, "emergency:social_facility:id": null, "emergency:social_facility:for": null, "emergency:social_facility:association_villages": null, "emergency:social_facility": null, "emergency:shelter_type": null, "emergency:amenity": null, "emergency": null, "official_name": null, "fee": null, "fax": null, "short_name": null, "barrier": null, "addr:full": null, "wikidata": null, "wheelchair": null, "website": null, "type": null, "phone": null, "operator": "基隆市政府教育處", "name:zh": "中興國小", "name:en": "Jhong-sing Elementary School", "name": "中興國小", "grades": "1-6", "addr:street": "信二路", "addr:postcode": "20147", "addr:place": null, "addr:housenumber": "40", "addr:district": "信義區", "addr:country": "TW", "addr:city": "基隆市" }, "geometry": { "type": "MultiPolygon", "coordinates": [ [ [ [ 121.7566814, 25.1299377 ], [ 121.7571369, 25.1298815 ], [ 121.7571477, 25.1298799 ], [ 121.7571639, 25.1298776 ], [ 121.7572265, 25.1302829 ], [ 121.7572438, 25.1302992 ], [ 121.7572337, 25.1303521 ], [ 121.7571848, 25.1304558 ], [ 121.7571631, 25.1307987 ], [ 121.7571954, 25.1309902 ], [ 121.7572002, 25.1311965 ], [ 121.757229, 25.131263 ], [ 121.7572293, 25.131457 ], [ 121.7571729, 25.1314731 ], [ 121.7571743, 25.1314951 ], [ 121.7570913, 25.1315114 ], [ 121.756951, 25.1314617 ], [ 121.7567941, 25.1311593 ], [ 121.7567533, 25.1307762 ], [ 121.7566058, 25.1306476 ], [ 121.7565205, 25.1299571 ], [ 121.7566814, 25.1299377 ] ] ] ] } },
{ "type": "Feature", "properties": { "full_id": "w220817581", "osm_id": "220817581", "osm_type": "way", "amenity": "school", "building": null, "leisure": null, "operator:type": null, "addr:province": null, "start_date": null, "適合避難弱者安置": null, "災民收容所編號": null, "服務里別": null, "容納面積(室內)": null, "capacity": null, "addr:village": null, "denomination": null, "addr:full:en": null, "religion": null, "old_name:zh": null, "old_name:en": null, "official_ref": null, "email": null, "name:nan-TL": null, "name:nan-POJ": null, "name:nan-HJ": null, "name:nan": null, "full_name": null, "alt_name": null, "wikipedia": null, "old_name": null, "evacuation_center": null, "emergency:social_facility:source": null, "emergency:social_facility:id": null, "emergency:social_facility:for": null, "emergency:social_facility:association_villages": null, "emergency:social_facility": null, "emergency:shelter_type": null, "emergency:amenity": null, "emergency": null, "official_name": null, "fee": null, "fax": null, "short_name": null, "barrier": null, "addr:full": null, "wikidata": null, "wheelchair": "yes", "website": "http://www.ckjh.kl.edu.tw/", "type": null, "phone": null, "operator": "基隆市政府教育處", "name:zh": "成功國中", "name:en": "Cheng Kong Junior High School", "name": "成功國中", "grades": "7-9", "addr:street": "壽山路", "addr:postcode": "201", "addr:place": null, "addr:housenumber": "9", "addr:district": "信義區", "addr:country": null, "addr:city": "基隆市" }, "geometry": { "type": "MultiPolygon", "coordinates": [ [ [ [ 121.750309, 25.1324385 ], [ 121.7510801, 25.1327204 ], [ 121.7519386, 25.1327777 ], [ 121.7525207, 25.1331765 ], [ 121.7527967, 25.1328905 ], [ 121.7523919, 25.1319057 ], [ 121.7520262, 25.1319997 ], [ 121.7520535, 25.1320482 ], [ 121.7517971, 25.1321879 ], [ 121.7517666, 25.1321282 ], [ 121.7516147, 25.1321437 ], [ 121.7510616, 25.1322509 ], [ 121.7507321, 25.1322249 ], [ 121.7506604, 25.1322696 ], [ 121.7504185, 25.1322832 ], [ 121.750309, 25.1324385 ] ] ] ] } },
{ "type": "Feature", "properties": { "full_id": "w220817626", "osm_id": "220817626", "osm_type": "way", "amenity": "school", "building": null, "leisure": null, "operator:type": null, "addr:province": null, "start_date": null, "適合避難弱者安置": null, "災民收容所編號": null, "服務里別": null, "容納面積(室內)": null, "capacity": null, "addr:village": null, "denomination": null, "addr:full:en": null, "religion": null, "old_name:zh": null, "old_name:en": null, "official_ref": null, "email": null, "name:nan-TL": null, "name:nan-POJ": null, "name:nan-HJ": null, "name:nan": null, "full_name": null, "alt_name": null, "wikipedia": null, "old_name": null, "evacuation_center": null, "emergency:social_facility:source": null, "emergency:social_facility:id": null, "emergency:social_facility:for": null, "emergency:social_facility:association_villages": null, "emergency:social_facility": null, "emergency:shelter_type": null, "emergency:amenity": null, "emergency": null, "official_name": null, "fee": null, "fax": null, "short_name": "東光國小", "barrier": null, "addr:full": null, "wikidata": null, "wheelchair": null, "website": "http://www.dgps.kl.edu.tw/", "type": null, "phone": null, "operator": "基隆市政府教育處", "name:zh": "東光國小", "name:en": "Dong-guang Elementary School", "name": "東光國小", "grades": "1-6", "addr:street": "東信路236巷", "addr:postcode": "202", "addr:place": null, "addr:housenumber": "16", "addr:district": "信義區", "addr:country": "TW", "addr:city": "基隆市" }, "geometry": { "type": "MultiPolygon", "coordinates": [ [ [ [ 121.7625924, 25.1286942 ], [ 121.7627604, 25.1286319 ], [ 121.7631514, 25.1286856 ], [ 121.763341, 25.12933 ], [ 121.7633471, 25.1294244 ], [ 121.7633234, 25.1294986 ], [ 121.7632826, 25.1295606 ], [ 121.7629549, 25.1298435 ], [ 121.7628062, 25.1292943 ], [ 121.7625924, 25.1286942 ] ] ] ] } },
{ "type": "Feature", "properties": { "full_id": "w220817634", "osm_id": "220817634", "osm_type": "way", "amenity": "school", "building": null, "leisure": null, "operator:type": null, "addr:province": null, "start_date": null, "適合避難弱者安置": null, "災民收容所編號": null, "服務里別": null, "容納面積(室內)": null, "capacity": null, "addr:village": null, "denomination": null, "addr:full:en": null, "religion": null, "old_name:zh": null, "old_name:en": null, "official_ref": null, "email": null, "name:nan-TL": null, "name:nan-POJ": null, "name:nan-HJ": null, "name:nan": null, "full_name": null, "alt_name": null, "wikipedia": null, "old_name": null, "evacuation_center": null, "emergency:social_facility:source": null, "emergency:social_facility:id": null, "emergency:social_facility:for": null, "emergency:social_facility:association_villages": null, "emergency:social_facility": null, "emergency:shelter_type": null, "emergency:amenity": null, "emergency": null, "official_name": null, "fee": null, "fax": null, "short_name": "東信國小", "barrier": null, "addr:full": null, "wikidata": null, "wheelchair": null, "website": "https://dsps.kl.edu.tw/", "type": null, "phone": null, "operator": "基隆市政府教育處", "name:zh": "東信國小", "name:en": "Dong-sin Elementary School", "name": "東信國小", "grades": "1-6", "addr:street": "正信路", "addr:postcode": "20146", "addr:place": null, "addr:housenumber": "26", "addr:district": "信義區", "addr:country": "TW", "addr:city": "基隆市" }, "geometry": { "type": "MultiPolygon", "coordinates": [ [ [ [ 121.7608812, 25.1316256 ], [ 121.7612406, 25.1315245 ], [ 121.7613222, 25.131733 ], [ 121.7613689, 25.1321658 ], [ 121.7610628, 25.1323479 ], [ 121.7609118, 25.1324517 ], [ 121.7605131, 25.1320597 ], [ 121.7604797, 25.1319501 ], [ 121.7603973, 25.1318145 ], [ 121.7598502, 25.1314269 ], [ 121.7597307, 25.1312712 ], [ 121.7597803, 25.1310469 ], [ 121.7599843, 25.1309281 ], [ 121.7605467, 25.1309108 ], [ 121.7608812, 25.1316256 ] ] ] ] } },
{ "type": "Feature", "properties": { "full_id": "w220820921", "osm_id": "220820921", "osm_type": "way", "amenity": "school", "building": null, "leisure": null, "operator:type": null, "addr:province": null, "start_date": null, "適合避難弱者安置": null, "災民收容所編號": null, "服務里別": null, "容納面積(室內)": null, "capacity": null, "addr:village": null, "denomination": null, "addr:full:en": null, "religion": null, "old_name:zh": null, "old_name:en": null, "official_ref": "376579524U", "email": null, "name:nan-TL": null, "name:nan-POJ": null, "name:nan-HJ": null, "name:nan": null, "full_name": null, "alt_name": null, "wikipedia": "zh:基隆市立八斗高級中學", "old_name": "基隆市立八斗國民中學", "evacuation_center": null, "emergency:social_facility:source": null, "emergency:social_facility:id": null, "emergency:social_facility:for": null, "emergency:social_facility:association_villages": null, "emergency:social_facility": null, "emergency:shelter_type": null, "emergency:amenity": null, "emergency": null, "official_name": "基隆市立八斗高級中學", "fee": null, "fax": "+886-2-2469-1344", "short_name": null, "barrier": "wall", "addr:full": "20251基隆市中正區新豐街100號", "wikidata": null, "wheelchair": null, "website": "http://www.bdjh.kl.edu.tw:8080/SchoolWeb/", "type": null, "phone": "+886-2-2469-2366", "operator": "基隆市政府教育處", "name:zh": "八斗高中", "name:en": "Badou Senior High School", "name": "八斗高中", "grades": "10-12", "addr:street": "新豐街", "addr:postcode": "20251", "addr:place": null, "addr:housenumber": "100", "addr:district": "中正區", "addr:country": "TW", "addr:city": "基隆市" }, "geometry": { "type": "MultiPolygon", "coordinates": [ [ [ [ 121.7868705, 25.1408827 ], [ 121.788627, 25.1407573 ], [ 121.7886007, 25.1402039 ], [ 121.7885874, 25.1400399 ], [ 121.788304, 25.140032 ], [ 121.7882508, 25.1397162 ], [ 121.7881108, 25.1390551 ], [ 121.7878271, 25.1391111 ], [ 121.7879189, 25.1394737 ], [ 121.7874385, 25.1395957 ], [ 121.7870088, 25.1395968 ], [ 121.7867829, 25.1397669 ], [ 121.7868705, 25.1408827 ] ] ] ] } },
{ "type": "Feature", "properties": { "full_id": "w220821069", "osm_id": "220821069", "osm_type": "way", "amenity": "school", "building": null, "leisure": null, "operator:type": null, "addr:province": null, "start_date": null, "適合避難弱者安置": null, "災民收容所編號": null, "服務里別": null, "容納面積(室內)": null, "capacity": null, "addr:village": null, "denomination": null, "addr:full:en": null, "religion": null, "old_name:zh": null, "old_name:en": null, "official_ref": null, "email": null, "name:nan-TL": null, "name:nan-POJ": null, "name:nan-HJ": null, "name:nan": null, "full_name": null, "alt_name": null, "wikipedia": "zh:基隆市中正區八斗國民小學", "old_name": null, "evacuation_center": null, "emergency:social_facility:source": null, "emergency:social_facility:id": null, "emergency:social_facility:for": null, "emergency:social_facility:association_villages": null, "emergency:social_facility": null, "emergency:shelter_type": null, "emergency:amenity": null, "emergency": null, "official_name": null, "fee": null, "fax": null, "short_name": null, "barrier": null, "addr:full": "202基隆市中正區北寧路396巷52號", "wikidata": "Q10930421", "wheelchair": null, "website": "https://www.bdps.kl.edu.tw/BDPS_Web/main.php", "type": null, "phone": null, "operator": null, "name:zh": null, "name:en": null, "name": "八斗國小", "grades": "1-6", "addr:street": "北寧路396巷", "addr:postcode": "202", "addr:place": null, "addr:housenumber": "52", "addr:district": "中正區", "addr:country": null, "addr:city": "基隆市" }, "geometry": { "type": "MultiPolygon", "coordinates": [ [ [ [ 121.7977412, 25.1388708 ], [ 121.7976012, 25.1387152 ], [ 121.7973646, 25.1388801 ], [ 121.7970813, 25.1386301 ], [ 121.796768, 25.1388561 ], [ 121.7965809, 25.1386437 ], [ 121.79669, 25.1383796 ], [ 121.7968321, 25.1382406 ], [ 121.7969115, 25.1381383 ], [ 121.7974166, 25.1378175 ], [ 121.7974573, 25.1378019 ], [ 121.7974979, 25.1378095 ], [ 121.7978502, 25.1379565 ], [ 121.7982845, 25.138054 ], [ 121.7987503, 25.1380329 ], [ 121.798798, 25.1382638 ], [ 121.7983872, 25.1384232 ], [ 121.7977412, 25.1388708 ] ] ] ] } },
{ "type": "Feature", "properties": { "full_id": "w220821418", "osm_id": "220821418", "osm_type": "way", "amenity": "school", "building": null, "leisure": null, "operator:type": null, "addr:province": null, "start_date": null, "適合避難弱者安置": null, "災民收容所編號": null, "服務里別": null, "容納面積(室內)": null, "capacity": null, "addr:village": null, "denomination": null, "addr:full:en": null, "religion": null, "old_name:zh": null, "old_name:en": null, "official_ref": null, "email": "taksito@hotmail.com", "name:nan-TL": null, "name:nan-POJ": null, "name:nan-HJ": null, "name:nan": null, "full_name": "基隆市立正濱國民中學", "alt_name": null, "wikipedia": null, "old_name": null, "evacuation_center": null, "emergency:social_facility:source": null, "emergency:social_facility:id": null, "emergency:social_facility:for": null, "emergency:social_facility:association_villages": null, "emergency:social_facility": null, "emergency:shelter_type": null, "emergency:amenity": null, "emergency": null, "official_name": null, "fee": null, "fax": "+886 2 2462 3587", "short_name": null, "barrier": null, "addr:full": "202基隆市中正區正榮街88號", "wikidata": null, "wheelchair": "limited", "website": "https://cbjh.kl.edu.tw/", "type": null, "phone": "+886 2 2463 1490", "operator": "基隆市政府教育處", "name:zh": null, "name:en": null, "name": "正濱國中", "grades": "7-9", "addr:street": "正榮街", "addr:postcode": "202", "addr:place": null, "addr:housenumber": "88", "addr:district": "中正區", "addr:country": null, "addr:city": "基隆市" }, "geometry": { "type": "MultiPolygon", "coordinates": [ [ [ [ 121.7629235, 25.1464954 ], [ 121.7634384, 25.1463675 ], [ 121.7640363, 25.1461352 ], [ 121.7644975, 25.1458832 ], [ 121.7652612, 25.1460046 ], [ 121.7655119, 25.146469 ], [ 121.7655061, 25.1467803 ], [ 121.7654318, 25.1468103 ], [ 121.7650222, 25.1469756 ], [ 121.7647599, 25.1469756 ], [ 121.7646199, 25.1467539 ], [ 121.7641885, 25.146907 ], [ 121.7641885, 25.1471867 ], [ 121.7631509, 25.1471656 ], [ 121.7630513, 25.147133 ], [ 121.7629235, 25.1464954 ] ] ] ] } },
{ "type": "Feature", "properties": { "full_id": "w220821517", "osm_id": "220821517", "osm_type": "way", "amenity": "school", "building": null, "leisure": null, "operator:type": null, "addr:province": null, "start_date": null, "適合避難弱者安置": null, "災民收容所編號": null, "服務里別": null, "容納面積(室內)": null, "capacity": null, "addr:village": null, "denomination": null, "addr:full:en": null, "religion": null, "old_name:zh": "國立基隆高級海事職業學校", "old_name:en": "National Keelung Maritime Vocational High School", "official_ref": null, "email": null, "name:nan-TL": null, "name:nan-POJ": null, "name:nan-HJ": null, "name:nan": null, "full_name": null, "alt_name": null, "wikipedia": "zh:國立臺灣海洋大學附屬基隆海事高級中等學校", "old_name": "基隆海事", "evacuation_center": null, "emergency:social_facility:source": null, "emergency:social_facility:id": null, "emergency:social_facility:for": null, "emergency:social_facility:association_villages": null, "emergency:social_facility": null, "emergency:shelter_type": null, "emergency:amenity": null, "emergency": null, "official_name": "國立臺灣海洋大學附屬基隆海事高級中等學校", "fee": null, "fax": null, "short_name": null, "barrier": "wall", "addr:full": null, "wikidata": "Q97654521", "wheelchair": "yes", "website": "https://www.klms.ntou.edu.tw", "type": null, "phone": "+886 2 2463-3655", "operator": "中華民國教育部", "name:zh": "海大附中", "name:en": "The Affiliated Keelung Maritime Senior High School of National Taiwan Ocean Univrsity", "name": "海大附中", "grades": "15-18", "addr:street": "祥豐街", "addr:postcode": "20243", "addr:place": null, "addr:housenumber": "246", "addr:district": "中正區", "addr:country": "TW", "addr:city": "基隆市" }, "geometry": { "type": "MultiPolygon", "coordinates": [ [ [ [ 121.7709024, 25.1473204 ], [ 121.7720299, 25.1460328 ], [ 121.7725088, 25.1463591 ], [ 121.7726597, 25.1463796 ], [ 121.7728381, 25.1469784 ], [ 121.7733012, 25.1472931 ], [ 121.7736387, 25.1473075 ], [ 121.7736338, 25.1476107 ], [ 121.7732615, 25.147595 ], [ 121.7730037, 25.1480987 ], [ 121.7722994, 25.1487816 ], [ 121.7719732, 25.1484909 ], [ 121.7718222, 25.1485574 ], [ 121.771941, 25.14905 ], [ 121.7718204, 25.1490958 ], [ 121.7717465, 25.1491239 ], [ 121.7713948, 25.1482407 ], [ 121.7709024, 25.1473204 ] ] ] ] } },
{ "type": "Feature", "properties": { "full_id": "w220821540", "osm_id": "220821540", "osm_type": "way", "amenity": "school", "building": null, "leisure": null, "operator:type": null, "addr:province": null, "start_date": null, "適合避難弱者安置": null, "災民收容所編號": null, "服務里別": null, "容納面積(室內)": null, "capacity": null, "addr:village": null, "denomination": null, "addr:full:en": null, "religion": null, "old_name:zh": null, "old_name:en": null, "official_ref": null, "email": null, "name:nan-TL": null, "name:nan-POJ": null, "name:nan-HJ": null, "name:nan": null, "full_name": null, "alt_name": null, "wikipedia": null, "old_name": null, "evacuation_center": null, "emergency:social_facility:source": null, "emergency:social_facility:id": null, "emergency:social_facility:for": null, "emergency:social_facility:association_villages": null, "emergency:social_facility": null, "emergency:shelter_type": null, "emergency:amenity": null, "emergency": null, "official_name": null, "fee": null, "fax": null, "short_name": null, "barrier": null, "addr:full": null, "wikidata": null, "wheelchair": "limited", "website": "https://cbps.kl.edu.tw/", "type": null, "phone": "+886 2 2463 5551", "operator": "基隆市政府教育處", "name:zh": null, "name:en": null, "name": "正濱國小", "grades": "1-6", "addr:street": "祥豐街", "addr:postcode": null, "addr:place": null, "addr:housenumber": "216", "addr:district": "中正區", "addr:country": null, "addr:city": "基隆市" }, "geometry": { "type": "MultiPolygon", "coordinates": [ [ [ [ 121.7700166, 25.1462643 ], [ 121.7703954, 25.1465644 ], [ 121.7706696, 25.1467815 ], [ 121.7708678, 25.1471087 ], [ 121.7711709, 25.1469345 ], [ 121.7711651, 25.1467498 ], [ 121.7715615, 25.1464543 ], [ 121.771783, 25.1460849 ], [ 121.7715499, 25.1457524 ], [ 121.7713808, 25.1456785 ], [ 121.771305, 25.1458369 ], [ 121.7709785, 25.1457419 ], [ 121.7706579, 25.1459846 ], [ 121.7704131, 25.1457946 ], [ 121.7700166, 25.1462643 ] ] ] ] } },
{ "type": "Feature", "properties": { "full_id": "w220821577", "osm_id": "220821577", "osm_type": "way", "amenity": "school", "building": null, "leisure": null, "operator:type": null, "addr:province": null, "start_date": null, "適合避難弱者安置": null, "災民收容所編號": null, "服務里別": null, "容納面積(室內)": null, "capacity": null, "addr:village": null, "denomination": null, "addr:full:en": null, "religion": null, "old_name:zh": null, "old_name:en": null, "official_ref": null, "email": null, "name:nan-TL": null, "name:nan-POJ": null, "name:nan-HJ": null, "name:nan": null, "full_name": "二信學校財團法人基隆市二信高級中學", "alt_name": null, "wikipedia": null, "old_name": null, "evacuation_center": null, "emergency:social_facility:source": null, "emergency:social_facility:id": null, "emergency:social_facility:for": null, "emergency:social_facility:association_villages": null, "emergency:social_facility": null, "emergency:shelter_type": null, "emergency:amenity": null, "emergency": null, "official_name": null, "fee": null, "fax": null, "short_name": null, "barrier": "wall", "addr:full": null, "wikidata": null, "wheelchair": "no", "website": "http://www.essh.kl.edu.tw/", "type": null, "phone": "+886 2 2462-3131", "operator": "二信學校財團法人", "name:zh": "二信高級中學", "name:en": "Er-xin High School", "name": "二信高中", "grades": "10-12", "addr:street": "立德路", "addr:postcode": "202", "addr:place": null, "addr:housenumber": "243", "addr:district": "中正區", "addr:country": null, "addr:city": "基隆市" }, "geometry": { "type": "MultiPolygon", "coordinates": [ [ [ [ 121.7715379, 25.1433494 ], [ 121.7709534, 25.1436426 ], [ 121.7707403, 25.1437703 ], [ 121.7700114, 25.1437805 ], [ 121.7698886, 25.1437831 ], [ 121.7698984, 25.1440035 ], [ 121.770112, 25.1441978 ], [ 121.7704989, 25.1450117 ], [ 121.7709075, 25.1449451 ], [ 121.7712626, 25.1449256 ], [ 121.771794, 25.1448812 ], [ 121.7724978, 25.1448069 ], [ 121.7725792, 25.1442527 ], [ 121.7727069, 25.1438632 ], [ 121.772468, 25.1437281 ], [ 121.7724212, 25.1437682 ], [ 121.7721595, 25.1433709 ], [ 121.7720401, 25.143402 ], [ 121.7717518, 25.1433684 ], [ 121.7715379, 25.1433494 ] ] ] ] } },
{ "type": "Feature", "properties": { "full_id": "w220821846", "osm_id": "220821846", "osm_type": "way", "amenity": "school", "building": null, "leisure": null, "operator:type": null, "addr:province": null, "start_date": null, "適合避難弱者安置": null, "災民收容所編號": null, "服務里別": null, "容納面積(室內)": null, "capacity": null, "addr:village": null, "denomination": null, "addr:full:en": null, "religion": null, "old_name:zh": null, "old_name:en": null, "official_ref": null, "email": "ymps24653493@gmail.com", "name:nan-TL": null, "name:nan-POJ": null, "name:nan-HJ": null, "name:nan": null, "full_name": null, "alt_name": null, "wikipedia": null, "old_name": null, "evacuation_center": null, "emergency:social_facility:source": null, "emergency:social_facility:id": null, "emergency:social_facility:for": null, "emergency:social_facility:association_villages": null, "emergency:social_facility": null, "emergency:shelter_type": null, "emergency:amenity": null, "emergency": null, "official_name": null, "fee": null, "fax": "+886 2 2466 3810", "short_name": null, "barrier": null, "addr:full": "基隆市月眉路250巷22號", "wikidata": null, "wheelchair": null, "website": "https://www.ymps.kl.edu.tw/", "type": null, "phone": "+886 2 2465 3493", "operator": null, "name:zh": null, "name:en": null, "name": "月眉國小", "grades": "1-6", "addr:street": "月眉路250巷", "addr:postcode": null, "addr:place": null, "addr:housenumber": "22", "addr:district": null, "addr:country": null, "addr:city": "基隆市" }, "geometry": { "type": "MultiPolygon", "coordinates": [ [ [ [ 121.7563338, 25.1255778 ], [ 121.7566453, 25.1255329 ], [ 121.7566771, 25.1256483 ], [ 121.7568222, 25.1256675 ], [ 121.756939, 25.1256323 ], [ 121.7569178, 25.1254785 ], [ 121.7570133, 25.1254112 ], [ 121.7568647, 25.1252317 ], [ 121.7568364, 25.1250555 ], [ 121.7569107, 25.1248408 ], [ 121.7567833, 25.1248024 ], [ 121.7567762, 25.1247447 ], [ 121.7564364, 25.1247543 ], [ 121.7563798, 25.1247607 ], [ 121.7561816, 25.1249594 ], [ 121.7563338, 25.1255778 ] ] ] ] } },
{ "type": "Feature", "properties": { "full_id": "w221194814", "osm_id": "221194814", "osm_type": "way", "amenity": "school", "building": null, "leisure": null, "operator:type": null, "addr:province": null, "start_date": null, "適合避難弱者安置": null, "災民收容所編號": null, "服務里別": null, "容納面積(室內)": null, "capacity": null, "addr:village": null, "denomination": null, "addr:full:en": null, "religion": null, "old_name:zh": null, "old_name:en": null, "official_ref": null, "email": null, "name:nan-TL": null, "name:nan-POJ": null, "name:nan-HJ": null, "name:nan": null, "full_name": null, "alt_name": null, "wikipedia": "zh:基隆市私立光隆高級家事商業職業學校", "old_name": null, "evacuation_center": null, "emergency:social_facility:source": null, "emergency:social_facility:id": null, "emergency:social_facility:for": null, "emergency:social_facility:association_villages": null, "emergency:social_facility": null, "emergency:shelter_type": null, "emergency:amenity": null, "emergency": null, "official_name": null, "fee": null, "fax": null, "short_name": null, "barrier": "wall", "addr:full": null, "wikidata": "Q10930436", "wheelchair": null, "website": "http://www.klhcvs.kl.edu.tw/", "type": null, "phone": null, "operator": null, "name:zh": "光隆家商", "name:en": "Kuang Lung Vocational High School of Home Economics and Commerce", "name": "光隆家商", "grades": null, "addr:street": "信二路", "addr:postcode": "20147", "addr:place": null, "addr:housenumber": "264", "addr:district": "信義區", "addr:country": "TW", "addr:city": "基隆市" }, "geometry": { "type": "MultiPolygon", "coordinates": [ [ [ [ 121.7500369, 25.1297832 ], [ 121.7501488, 25.130715 ], [ 121.7501826, 25.130986 ], [ 121.749732, 25.1310274 ], [ 121.7497077, 25.1308627 ], [ 121.7496197, 25.1307688 ], [ 121.7495699, 25.1307352 ], [ 121.7494981, 25.1306804 ], [ 121.7494274, 25.1306349 ], [ 121.7494457, 25.1304917 ], [ 121.7494666, 25.1303734 ], [ 121.7494264, 25.1298433 ], [ 121.7500369, 25.1297832 ] ] ] ] } },
{ "type": "Feature", "properties": { "full_id": "w221639169", "osm_id": "221639169", "osm_type": "way", "amenity": "school", "building": null, "leisure": null, "operator:type": null, "addr:province": null, "start_date": null, "適合避難弱者安置": null, "災民收容所編號": null, "服務里別": null, "容納面積(室內)": null, "capacity": null, "addr:village": null, "denomination": null, "addr:full:en": null, "religion": null, "old_name:zh": null, "old_name:en": null, "official_ref": null, "email": null, "name:nan-TL": null, "name:nan-POJ": null, "name:nan-HJ": null, "name:nan": null, "full_name": "基隆市信義區深美國民小學", "alt_name": null, "wikipedia": null, "old_name": null, "evacuation_center": null, "emergency:social_facility:source": null, "emergency:social_facility:id": null, "emergency:social_facility:for": null, "emergency:social_facility:association_villages": null, "emergency:social_facility": null, "emergency:shelter_type": null, "emergency:amenity": null, "emergency": null, "official_name": null, "fee": null, "fax": null, "short_name": null, "barrier": null, "addr:full": null, "wikidata": null, "wheelchair": "limited", "website": "https://smps.kl.edu.tw/", "type": null, "phone": null, "operator": "基隆市政府教育處", "name:zh": "深美國小", "name:en": "Shen-mei Elementary School", "name": "深美國小", "grades": "1-6", "addr:street": "深美街", "addr:postcode": "20150", "addr:place": "孝忠里", "addr:housenumber": "198", "addr:district": "信義區", "addr:country": "TW", "addr:city": "基隆市" }, "geometry": { "type": "MultiPolygon", "coordinates": [ [ [ [ 121.7773779, 25.1383052 ], [ 121.7770923, 25.1371283 ], [ 121.7787861, 25.1368131 ], [ 121.7793946, 25.1379074 ], [ 121.7773779, 25.1383052 ] ] ] ] } },
{ "type": "Feature", "properties": { "full_id": "w221639523", "osm_id": "221639523", "osm_type": "way", "amenity": "school", "building": null, "leisure": null, "operator:type": null, "addr:province": null, "start_date": null, "適合避難弱者安置": null, "災民收容所編號": null, "服務里別": null, "容納面積(室內)": null, "capacity": null, "addr:village": null, "denomination": null, "addr:full:en": null, "religion": null, "old_name:zh": null, "old_name:en": null, "official_ref": null, "email": null, "name:nan-TL": null, "name:nan-POJ": null, "name:nan-HJ": null, "name:nan": null, "full_name": null, "alt_name": null, "wikipedia": "zh:基隆市立銘傳國民中學", "old_name": null, "evacuation_center": null, "emergency:social_facility:source": null, "emergency:social_facility:id": null, "emergency:social_facility:for": null, "emergency:social_facility:association_villages": null, "emergency:social_facility": null, "emergency:shelter_type": null, "emergency:amenity": null, "emergency": null, "official_name": null, "fee": null, "fax": null, "short_name": null, "barrier": null, "addr:full": null, "wikidata": "Q75692563", "wheelchair": "limited", "website": "http://www.mcjh.kl.edu.tw/", "type": null, "phone": null, "operator": null, "name:zh": "銘傳國中", "name:en": "Ming Chwan Junior High School", "name": "銘傳國中", "grades": "7-9", "addr:street": "劉銘傳路", "addr:postcode": "20050", "addr:place": null, "addr:housenumber": "132", "addr:district": "仁愛區", "addr:country": "TW", "addr:city": "基隆市" }, "geometry": { "type": "MultiPolygon", "coordinates": [ [ [ [ 121.7495147, 25.1239244 ], [ 121.750511, 25.1238515 ], [ 121.75101, 25.123822 ], [ 121.7509919, 25.1237195 ], [ 121.7509601, 25.1232773 ], [ 121.7508341, 25.1232738 ], [ 121.7506529, 25.1229047 ], [ 121.7505106, 25.1229327 ], [ 121.7503045, 25.1223595 ], [ 121.7497974, 25.1225784 ], [ 121.749994, 25.1229394 ], [ 121.7497808, 25.1230827 ], [ 121.7498057, 25.1232966 ], [ 121.749401, 25.1233722 ], [ 121.7495147, 25.1239244 ] ] ] ] } },
{ "type": "Feature", "properties": { "full_id": "w234949786", "osm_id": "234949786", "osm_type": "way", "amenity": "school", "building": null, "leisure": null, "operator:type": null, "addr:province": null, "start_date": null, "適合避難弱者安置": null, "災民收容所編號": null, "服務里別": null, "容納面積(室內)": null, "capacity": null, "addr:village": null, "denomination": null, "addr:full:en": null, "religion": "none", "old_name:zh": null, "old_name:en": null, "official_ref": null, "email": null, "name:nan-TL": null, "name:nan-POJ": null, "name:nan-HJ": null, "name:nan": null, "full_name": null, "alt_name": null, "wikipedia": "zh:基隆市信義區深澳國民小學", "old_name": null, "evacuation_center": null, "emergency:social_facility:source": null, "emergency:social_facility:id": null, "emergency:social_facility:for": null, "emergency:social_facility:association_villages": null, "emergency:social_facility": null, "emergency:shelter_type": null, "emergency:amenity": null, "emergency": null, "official_name": null, "fee": null, "fax": null, "short_name": null, "barrier": null, "addr:full": "201基隆市信義區深澳坑路55-1號", "wikidata": "Q18785859", "wheelchair": null, "website": "https://saps.kl.edu.tw/", "type": null, "phone": null, "operator": null, "name:zh": "深澳國小", "name:en": null, "name": "深澳國小", "grades": "1-6", "addr:street": "深澳坑路", "addr:postcode": "201", "addr:place": null, "addr:housenumber": "55-1", "addr:district": "信義區", "addr:country": "TW", "addr:city": "基隆市" }, "geometry": { "type": "MultiPolygon", "coordinates": [ [ [ [ 121.7821787, 25.1292386 ], [ 121.7822211, 25.1294709 ], [ 121.7840058, 25.129452 ], [ 121.784014, 25.1284576 ], [ 121.7832238, 25.1284573 ], [ 121.7831775, 25.128525 ], [ 121.7831366, 25.1285022 ], [ 121.7830688, 25.1285688 ], [ 121.7825125, 25.1285544 ], [ 121.7823882, 25.1285958 ], [ 121.7822601, 25.1287939 ], [ 121.7821882, 25.1290393 ], [ 121.7821787, 25.1292386 ] ] ] ] } },
{ "type": "Feature", "properties": { "full_id": "w281003084", "osm_id": "281003084", "osm_type": "way", "amenity": "school", "building": null, "leisure": null, "operator:type": null, "addr:province": null, "start_date": null, "適合避難弱者安置": null, "災民收容所編號": null, "服務里別": null, "容納面積(室內)": null, "capacity": null, "addr:village": null, "denomination": null, "addr:full:en": "No.184, Mingde 1st Rd., Cidu District Keelung City 206, Taiwan (R.O.C.)", "religion": null, "old_name:zh": null, "old_name:en": null, "official_ref": null, "email": "kls327@kl.edu.tw", "name:nan-TL": null, "name:nan-POJ": null, "name:nan-HJ": null, "name:nan": null, "full_name": null, "alt_name": null, "wikipedia": null, "old_name": null, "evacuation_center": null, "emergency:social_facility:source": null, "emergency:social_facility:id": null, "emergency:social_facility:for": null, "emergency:social_facility:association_villages": null, "emergency:social_facility": null, "emergency:shelter_type": null, "emergency:amenity": null, "emergency": null, "official_name": null, "fee": null, "fax": "+886 2 2455 1726", "short_name": null, "barrier": null, "addr:full": "基隆市七堵區明德一路184號", "wikidata": "Q75927429", "wheelchair": null, "website": "https://cdps.kl.edu.tw/", "type": null, "phone": "+886 2 2456 7116", "operator": null, "name:zh": "七堵國小", "name:en": "Chi-du Elementary School", "name": "七堵國小", "grades": "1-6", "addr:street": "明德一路", "addr:postcode": null, "addr:place": null, "addr:housenumber": "184", "addr:district": "七堵區", "addr:country": "TW", "addr:city": "基隆市" }, "geometry": { "type": "MultiPolygon", "coordinates": [ [ [ [ 121.7127637, 25.0986891 ], [ 121.7137188, 25.0990406 ], [ 121.7141995, 25.0978799 ], [ 121.7132813, 25.097534 ], [ 121.7127637, 25.0986891 ] ] ] ] } },
{ "type": "Feature", "properties": { "full_id": "w302219472", "osm_id": "302219472", "osm_type": "way", "amenity": "school", "building": null, "leisure": null, "operator:type": null, "addr:province": null, "start_date": null, "適合避難弱者安置": null, "災民收容所編號": null, "服務里別": null, "容納面積(室內)": null, "capacity": null, "addr:village": null, "denomination": null, "addr:full:en": null, "religion": null, "old_name:zh": null, "old_name:en": null, "official_ref": null, "email": null, "name:nan-TL": null, "name:nan-POJ": null, "name:nan-HJ": null, "name:nan": null, "full_name": null, "alt_name": null, "wikipedia": null, "old_name": null, "evacuation_center": null, "emergency:social_facility:source": null, "emergency:social_facility:id": null, "emergency:social_facility:for": null, "emergency:social_facility:association_villages": null, "emergency:social_facility": null, "emergency:shelter_type": null, "emergency:amenity": null, "emergency": null, "official_name": null, "fee": null, "fax": "+886 2 2452 3614", "short_name": null, "barrier": null, "addr:full": "基隆市七堵區福五街1號", "wikidata": "Q75691696", "wheelchair": null, "website": "http://210.240.8.1/~school/web/index.php", "type": null, "phone": "+886 2 2451 1158", "operator": null, "name:zh": null, "name:en": null, "name": "百福國中", "grades": "7-9", "addr:street": "福五街", "addr:postcode": null, "addr:place": null, "addr:housenumber": "1", "addr:district": "七堵區", "addr:country": "TW", "addr:city": "基隆市" }, "geometry": { "type": "MultiPolygon", "coordinates": [ [ [ [ 121.6979696, 25.0840588 ], [ 121.6986268, 25.0841772 ], [ 121.6988813, 25.0833474 ], [ 121.6990451, 25.0827962 ], [ 121.6991004, 25.0825036 ], [ 121.6990451, 25.0822531 ], [ 121.6987906, 25.0820105 ], [ 121.6979607, 25.0819905 ], [ 121.6975918, 25.083859 ], [ 121.697995, 25.0839193 ], [ 121.6979696, 25.0840588 ] ] ] ] } },
{ "type": "Feature", "properties": { "full_id": "w351062748", "osm_id": "351062748", "osm_type": "way", "amenity": "school", "building": null, "leisure": null, "operator:type": null, "addr:province": null, "start_date": null, "適合避難弱者安置": null, "災民收容所編號": null, "服務里別": null, "容納面積(室內)": null, "capacity": null, "addr:village": null, "denomination": null, "addr:full:en": null, "religion": null, "old_name:zh": null, "old_name:en": null, "official_ref": null, "email": null, "name:nan-TL": null, "name:nan-POJ": null, "name:nan-HJ": null, "name:nan": null, "full_name": null, "alt_name": null, "wikipedia": null, "old_name": null, "evacuation_center": null, "emergency:social_facility:source": null, "emergency:social_facility:id": null, "emergency:social_facility:for": null, "emergency:social_facility:association_villages": null, "emergency:social_facility": null, "emergency:shelter_type": null, "emergency:amenity": null, "emergency": null, "official_name": null, "fee": null, "fax": null, "short_name": null, "barrier": null, "addr:full": "基隆市七堵區泰安路34號", "wikidata": "Q75927433", "wheelchair": null, "website": "https://jweb.kl.edu.tw/971", "type": null, "phone": "+886 2 2451 2022", "operator": null, "name:zh": null, "name:en": null, "name": "華興國小", "grades": "1-6", "addr:street": "泰安路", "addr:postcode": null, "addr:place": null, "addr:housenumber": "34", "addr:district": "七堵區", "addr:country": "TW", "addr:city": "基隆市" }, "geometry": { "type": "MultiPolygon", "coordinates": [ [ [ [ 121.7074643, 25.0878474 ], [ 121.7073817, 25.0876097 ], [ 121.7083393, 25.0873663 ], [ 121.7079859, 25.0868331 ], [ 121.7084397, 25.0866497 ], [ 121.7085679, 25.0868716 ], [ 121.7090851, 25.0869034 ], [ 121.7089863, 25.0872222 ], [ 121.7085156, 25.0876041 ], [ 121.7081567, 25.0878523 ], [ 121.7080011, 25.0877157 ], [ 121.7074643, 25.0878474 ] ] ] ] } },
{ "type": "Feature", "properties": { "full_id": "w355108526", "osm_id": "355108526", "osm_type": "way", "amenity": "school", "building": null, "leisure": null, "operator:type": null, "addr:province": null, "start_date": null, "適合避難弱者安置": null, "災民收容所編號": null, "服務里別": null, "容納面積(室內)": null, "capacity": null, "addr:village": null, "denomination": null, "addr:full:en": null, "religion": null, "old_name:zh": null, "old_name:en": null, "official_ref": null, "email": null, "name:nan-TL": null, "name:nan-POJ": null, "name:nan-HJ": null, "name:nan": null, "full_name": null, "alt_name": null, "wikipedia": null, "old_name": null, "evacuation_center": null, "emergency:social_facility:source": null, "emergency:social_facility:id": null, "emergency:social_facility:for": null, "emergency:social_facility:association_villages": null, "emergency:social_facility": null, "emergency:shelter_type": null, "emergency:amenity": null, "emergency": null, "official_name": null, "fee": null, "fax": "+886 2 2432 7719", "short_name": null, "barrier": null, "addr:full": "204基隆市安樂區樂利三街30巷123號", "wikidata": null, "wheelchair": null, "website": "https://clps.kl.edu.tw/", "type": null, "phone": "+886 2 2432 2765", "operator": null, "name:zh": null, "name:en": null, "name": "長樂國小", "grades": "1-6", "addr:street": "樂利三街30巷", "addr:postcode": "204基隆市", "addr:place": null, "addr:housenumber": "123", "addr:district": "安樂區", "addr:country": null, "addr:city": null }, "geometry": { "type": "MultiPolygon", "coordinates": [ [ [ [ 121.7103213, 25.1247657 ], [ 121.7106814, 25.1245877 ], [ 121.7107852, 25.1245797 ], [ 121.7111215, 25.1246988 ], [ 121.7117295, 25.1255698 ], [ 121.7118931, 25.1254933 ], [ 121.7120151, 25.1254799 ], [ 121.7120433, 25.1255285 ], [ 121.7120889, 25.1255067 ], [ 121.7121854, 25.1256451 ], [ 121.7121318, 25.1256754 ], [ 121.7121613, 25.1257191 ], [ 121.7121264, 25.1257386 ], [ 121.7121412, 25.1257612 ], [ 121.7117819, 25.1259519 ], [ 121.71177, 25.1261846 ], [ 121.7114932, 25.1263385 ], [ 121.7111017, 25.1261917 ], [ 121.710734, 25.1257585 ], [ 121.7104494, 25.1251857 ], [ 121.7103213, 25.1247657 ] ] ] ] } },
{ "type": "Feature", "properties": { "full_id": "w367563464", "osm_id": "367563464", "osm_type": "way", "amenity": "school", "building": null, "leisure": null, "operator:type": null, "addr:province": null, "start_date": null, "適合避難弱者安置": null, "災民收容所編號": null, "服務里別": null, "容納面積(室內)": null, "capacity": null, "addr:village": null, "denomination": "catholic", "addr:full:en": null, "religion": "christian", "old_name:zh": null, "old_name:en": null, "official_ref": null, "email": null, "name:nan-TL": null, "name:nan-POJ": null, "name:nan-HJ": null, "name:nan": null, "full_name": null, "alt_name": null, "wikipedia": "zh:基隆市輔大聖心高級中學附設國民小學", "old_name": null, "evacuation_center": null, "emergency:social_facility:source": null, "emergency:social_facility:id": null, "emergency:social_facility:for": null, "emergency:social_facility:association_villages": null, "emergency:social_facility": null, "emergency:shelter_type": null, "emergency:amenity": null, "emergency": null, "official_name": null, "fee": null, "fax": "+886 2 2422 8227", "short_name": null, "barrier": null, "addr:full": "203基隆市西定路166號", "wikidata": "Q15908348", "wheelchair": null, "website": "http://www.shes.kl.edu.tw/", "type": null, "phone": "+886 2 2428 2454", "operator": "輔仁大學學校財團法人", "name:zh": "基隆市輔大聖心國民小學", "name:en": "Keelung Fu Jen Sacred Heart Elementary School", "name": "輔大聖心小學", "grades": "1-6", "addr:street": "西定路", "addr:postcode": "20349", "addr:place": "西華里", "addr:housenumber": "166", "addr:district": "中山區", "addr:country": null, "addr:city": "基隆市" }, "geometry": { "type": "MultiPolygon", "coordinates": [ [ [ [ 121.7331392, 25.1358703 ], [ 121.7335955, 25.1354091 ], [ 121.733627, 25.1354366 ], [ 121.7336567, 25.1354074 ], [ 121.7337369, 25.1353285 ], [ 121.7337738, 25.135286 ], [ 121.7338124, 25.1352415 ], [ 121.7338668, 25.1351837 ], [ 121.7338863, 25.1351893 ], [ 121.7339805, 25.1352166 ], [ 121.7341938, 25.1352998 ], [ 121.7344638, 25.1354045 ], [ 121.7344832, 25.1353613 ], [ 121.7345149, 25.1353621 ], [ 121.7345224, 25.1353545 ], [ 121.7345052, 25.1353404 ], [ 121.734451, 25.13528 ], [ 121.7344335, 25.1352605 ], [ 121.7343898, 25.1351928 ], [ 121.7344364, 25.1351395 ], [ 121.734539, 25.1352361 ], [ 121.7345572, 25.1352177 ], [ 121.734686, 25.1353247 ], [ 121.7349843, 25.1355339 ], [ 121.7350263, 25.1355634 ], [ 121.7350931, 25.1356052 ], [ 121.7352749, 25.1356628 ], [ 121.7352968, 25.1358508 ], [ 121.7353213, 25.1369183 ], [ 121.735173, 25.1369233 ], [ 121.7350275, 25.1369282 ], [ 121.7349139, 25.137136 ], [ 121.7349407, 25.1372664 ], [ 121.7349848, 25.1373624 ], [ 121.7348567, 25.1375224 ], [ 121.7344547, 25.1376524 ], [ 121.7341366, 25.1376664 ], [ 121.7337814, 25.1372971 ], [ 121.7335941, 25.1371022 ], [ 121.7336573, 25.1366888 ], [ 121.7335964, 25.1365758 ], [ 121.7331379, 25.1359319 ], [ 121.7331132, 25.1358979 ], [ 121.7331392, 25.1358703 ] ] ] ] } },
{ "type": "Feature", "properties": { "full_id": "w367563465", "osm_id": "367563465", "osm_type": "way", "amenity": "school", "building": null, "leisure": null, "operator:type": null, "addr:province": null, "start_date": null, "適合避難弱者安置": null, "災民收容所編號": null, "服務里別": null, "容納面積(室內)": null, "capacity": null, "addr:village": null, "denomination": null, "addr:full:en": null, "religion": null, "old_name:zh": null, "old_name:en": null, "official_ref": null, "email": null, "name:nan-TL": null, "name:nan-POJ": null, "name:nan-HJ": null, "name:nan": null, "full_name": "基隆市安樂區西定國民小學", "alt_name": null, "wikipedia": null, "old_name": null, "evacuation_center": null, "emergency:social_facility:source": null, "emergency:social_facility:id": null, "emergency:social_facility:for": null, "emergency:social_facility:association_villages": null, "emergency:social_facility": null, "emergency:shelter_type": null, "emergency:amenity": null, "emergency": null, "official_name": null, "fee": null, "fax": null, "short_name": null, "barrier": null, "addr:full": null, "wikidata": "Q75927388", "wheelchair": null, "website": "http://210.240.21.251/", "type": null, "phone": "+886 2 2422-3856", "operator": "基隆市政府教育處", "name:zh": "西定國小", "name:en": "Si Ding Elementary School", "name": "西定國小", "grades": "1-6", "addr:street": "新西街", "addr:postcode": "20441", "addr:place": "西川里", "addr:housenumber": "1", "addr:district": "安樂區", "addr:country": "TW", "addr:city": "基隆市" }, "geometry": { "type": "MultiPolygon", "coordinates": [ [ [ [ 121.7315704, 25.1372652 ], [ 121.7310884, 25.1369757 ], [ 121.7310442, 25.1369539 ], [ 121.7313071, 25.1366116 ], [ 121.7314112, 25.1366718 ], [ 121.7314796, 25.1366568 ], [ 121.7318972, 25.1360382 ], [ 121.7325048, 25.1363294 ], [ 121.7324806, 25.1363369 ], [ 121.7326121, 25.1364516 ], [ 121.7325904, 25.1364918 ], [ 121.7325448, 25.1366042 ], [ 121.7323803, 25.136513 ], [ 121.7323355, 25.1365347 ], [ 121.7322908, 25.1365703 ], [ 121.7315939, 25.1372785 ], [ 121.7315704, 25.1372652 ] ] ] ] } },
{ "type": "Feature", "properties": { "full_id": "w367568716", "osm_id": "367568716", "osm_type": "way", "amenity": "school", "building": null, "leisure": null, "operator:type": null, "addr:province": null, "start_date": null, "適合避難弱者安置": null, "災民收容所編號": null, "服務里別": null, "容納面積(室內)": null, "capacity": null, "addr:village": null, "denomination": null, "addr:full:en": null, "religion": null, "old_name:zh": null, "old_name:en": null, "official_ref": null, "email": null, "name:nan-TL": null, "name:nan-POJ": null, "name:nan-HJ": null, "name:nan": null, "full_name": null, "alt_name": null, "wikipedia": null, "old_name": null, "evacuation_center": null, "emergency:social_facility:source": null, "emergency:social_facility:id": null, "emergency:social_facility:for": null, "emergency:social_facility:association_villages": null, "emergency:social_facility": null, "emergency:shelter_type": null, "emergency:amenity": null, "emergency": null, "official_name": null, "fee": null, "fax": null, "short_name": null, "barrier": "wall", "addr:full": null, "wikidata": null, "wheelchair": null, "website": "http://210.240.24.129/~ddjh/metamorph_greenex/index.html", "type": null, "phone": "+886 2 2424 2802", "operator": "基隆市政府教育處", "name:zh": null, "name:en": null, "name": "中山高中國中部大德分校", "grades": "7-9", "addr:street": "中山二路105巷", "addr:postcode": "203", "addr:place": null, "addr:housenumber": "144", "addr:district": "中山區", "addr:country": null, "addr:city": "基隆市" }, "geometry": { "type": "MultiPolygon", "coordinates": [ [ [ [ 121.7357958, 25.1396994 ], [ 121.7359336, 25.1397384 ], [ 121.7360052, 25.1398161 ], [ 121.7359923, 25.1399499 ], [ 121.7355965, 25.1402848 ], [ 121.7354752, 25.1406401 ], [ 121.7353696, 25.1406427 ], [ 121.7352952, 25.1406445 ], [ 121.7344529, 25.1409728 ], [ 121.7342881, 25.1408816 ], [ 121.7341478, 25.1408054 ], [ 121.7338271, 25.140638 ], [ 121.7340504, 25.1404152 ], [ 121.7344723, 25.1402253 ], [ 121.7344852, 25.1402442 ], [ 121.7346986, 25.1401514 ], [ 121.7346905, 25.1401367 ], [ 121.7351413, 25.1399569 ], [ 121.7357958, 25.1396994 ] ] ] ] } },
{ "type": "Feature", "properties": { "full_id": "w367568719", "osm_id": "367568719", "osm_type": "way", "amenity": "school", "building": null, "leisure": null, "operator:type": null, "addr:province": null, "start_date": null, "適合避難弱者安置": null, "災民收容所編號": null, "服務里別": null, "容納面積(室內)": null, "capacity": null, "addr:village": null, "denomination": null, "addr:full:en": null, "religion": null, "old_name:zh": null, "old_name:en": null, "official_ref": null, "email": null, "name:nan-TL": null, "name:nan-POJ": null, "name:nan-HJ": null, "name:nan": null, "full_name": null, "alt_name": null, "wikipedia": null, "old_name": null, "evacuation_center": "yes", "emergency:social_facility:source": "內政部消防署", "emergency:social_facility:id": "7620", "emergency:social_facility:for": "displaced_people", "emergency:social_facility:association_villages": "仙洞里", "emergency:social_facility": "shelter", "emergency:shelter_type": "震災", "emergency:amenity": "social_facility", "emergency": "assembly_point", "official_name": "基隆市中山區仙洞國民小學", "fee": null, "fax": null, "short_name": null, "barrier": null, "addr:full": "基隆市中山區仁安街141號", "wikidata": "Q75927396", "wheelchair": null, "website": "http://210.240.1.27/~sdps/xoops2/", "type": null, "phone": "+886 2 2422-3031", "operator": "基隆市政府教育處", "name:zh": "仙洞國小", "name:en": "Sian-din Elementary School", "name": "仙洞國小", "grades": "1-6", "addr:street": "仁安街", "addr:postcode": "203", "addr:place": null, "addr:housenumber": "141", "addr:district": "中山區", "addr:country": "TW", "addr:city": "基隆市" }, "geometry": { "type": "MultiPolygon", "coordinates": [ [ [ [ 121.7462684, 25.1473652 ], [ 121.7463013, 25.1466689 ], [ 121.7471508, 25.1467019 ], [ 121.7471422, 25.1468845 ], [ 121.7471355, 25.1470262 ], [ 121.747032, 25.1470222 ], [ 121.7470268, 25.1471323 ], [ 121.7470144, 25.1473941 ], [ 121.7462684, 25.1473652 ] ] ] ] } },
{ "type": "Feature", "properties": { "full_id": "w367600038", "osm_id": "367600038", "osm_type": "way", "amenity": "school", "building": null, "leisure": null, "operator:type": null, "addr:province": null, "start_date": null, "適合避難弱者安置": null, "災民收容所編號": null, "服務里別": null, "容納面積(室內)": null, "capacity": null, "addr:village": null, "denomination": null, "addr:full:en": null, "religion": null, "old_name:zh": null, "old_name:en": null, "official_ref": null, "email": null, "name:nan-TL": null, "name:nan-POJ": null, "name:nan-HJ": null, "name:nan": null, "full_name": null, "alt_name": null, "wikipedia": "zh:基隆市立安樂高級中學", "old_name": null, "evacuation_center": null, "emergency:social_facility:source": null, "emergency:social_facility:id": null, "emergency:social_facility:for": null, "emergency:social_facility:association_villages": null, "emergency:social_facility": null, "emergency:shelter_type": null, "emergency:amenity": null, "emergency": null, "official_name": "基隆市立安樂高級中學", "fee": null, "fax": null, "short_name": null, "barrier": "wall", "addr:full": null, "wikidata": "Q10930441", "wheelchair": null, "website": "https://aljh.kl.edu.tw/", "type": null, "phone": "+886 2 2429-4283", "operator": "基隆市政府教育處", "name:zh": "安樂高中", "name:en": "Anle Senior High School", "name": "安樂高中", "grades": "10-12", "addr:street": "安一路", "addr:postcode": "20443", "addr:place": null, "addr:housenumber": "360", "addr:district": "安樂區", "addr:country": null, "addr:city": "基隆市" }, "geometry": { "type": "MultiPolygon", "coordinates": [ [ [ [ 121.7288301, 25.135666 ], [ 121.7290306, 25.1352807 ], [ 121.7294456, 25.1346453 ], [ 121.7294366, 25.1345872 ], [ 121.7294035, 25.134517 ], [ 121.7300248, 25.1346437 ], [ 121.7302217, 25.1344705 ], [ 121.7303875, 25.1341666 ], [ 121.7305133, 25.1342183 ], [ 121.7305693, 25.1341674 ], [ 121.7307052, 25.13413 ], [ 121.7310982, 25.134657 ], [ 121.7308835, 25.1350787 ], [ 121.7310764, 25.135194 ], [ 121.730887, 25.13548 ], [ 121.7310618, 25.1356255 ], [ 121.7307965, 25.1361054 ], [ 121.7303357, 25.135999 ], [ 121.7300283, 25.1360499 ], [ 121.7295789, 25.1358459 ], [ 121.7288301, 25.135666 ] ] ] ] } },
{ "type": "Feature", "properties": { "full_id": "w367600075", "osm_id": "367600075", "osm_type": "way", "amenity": "school", "building": null, "leisure": null, "operator:type": null, "addr:province": null, "start_date": null, "適合避難弱者安置": "Y", "災民收容所編號": "SC203-0022", "服務里別": "中和里", "容納面積(室內)": "250㎡", "capacity": "50", "addr:village": "中和里", "denomination": null, "addr:full:en": null, "religion": null, "old_name:zh": null, "old_name:en": null, "official_ref": null, "email": null, "name:nan-TL": null, "name:nan-POJ": null, "name:nan-HJ": null, "name:nan": null, "full_name": null, "alt_name": null, "wikipedia": null, "old_name": null, "evacuation_center": null, "emergency:social_facility:source": "縣市", "emergency:social_facility:id": null, "emergency:social_facility:for": null, "emergency:social_facility:association_villages": null, "emergency:social_facility": "shelter", "emergency:shelter_type": "floods earthquake debris flow tsunami", "emergency:amenity": "social_facility", "emergency": null, "official_name": null, "fee": null, "fax": null, "short_name": null, "barrier": null, "addr:full": "基隆市中山區中和里中和路64號", "wikidata": null, "wheelchair": null, "website": "https://chps.kl.edu.tw/", "type": null, "phone": "+886 2 2437 1751", "operator": "基隆市政府教育處", "name:zh": null, "name:en": null, "name": "中和國小", "grades": "1-6", "addr:street": "中和路", "addr:postcode": "203", "addr:place": null, "addr:housenumber": "64", "addr:district": "中山區", "addr:country": null, "addr:city": "基隆市" }, "geometry": { "type": "MultiPolygon", "coordinates": [ [ [ [ 121.7198424, 25.1468114 ], [ 121.720655, 25.1468173 ], [ 121.7206632, 25.146775 ], [ 121.7206857, 25.1467808 ], [ 121.7207674, 25.1465223 ], [ 121.7207867, 25.1464213 ], [ 121.7207867, 25.1462297 ], [ 121.7207085, 25.1462308 ], [ 121.7206121, 25.1461901 ], [ 121.7205492, 25.1464135 ], [ 121.7202199, 25.1463161 ], [ 121.7199644, 25.1465102 ], [ 121.7198424, 25.1468114 ] ] ] ] } },
{ "type": "Feature", "properties": { "full_id": "w367628727", "osm_id": "367628727", "osm_type": "way", "amenity": "school", "building": null, "leisure": null, "operator:type": null, "addr:province": null, "start_date": null, "適合避難弱者安置": null, "災民收容所編號": null, "服務里別": null, "容納面積(室內)": null, "capacity": null, "addr:village": null, "denomination": null, "addr:full:en": null, "religion": null, "old_name:zh": null, "old_name:en": null, "official_ref": null, "email": null, "name:nan-TL": null, "name:nan-POJ": null, "name:nan-HJ": null, "name:nan": null, "full_name": "基隆市仁愛區成功國民小學", "alt_name": null, "wikipedia": null, "old_name": null, "evacuation_center": null, "emergency:social_facility:source": null, "emergency:social_facility:id": null, "emergency:social_facility:for": null, "emergency:social_facility:association_villages": null, "emergency:social_facility": null, "emergency:shelter_type": null, "emergency:amenity": null, "emergency": null, "official_name": null, "fee": null, "fax": "+886 2 2432 6620", "short_name": null, "barrier": null, "addr:full": "200基隆市仁愛區獅球路6號", "wikidata": null, "wheelchair": null, "website": "https://ckps.kl.edu.tw/eweb/?home=ew00000000001", "type": null, "phone": "+886 2 2431 6924", "operator": null, "name:zh": null, "name:en": null, "name": "成功國小", "grades": "1-6", "addr:street": "獅球路", "addr:postcode": "200", "addr:place": null, "addr:housenumber": "6", "addr:district": "仁愛區", "addr:country": null, "addr:city": "基隆市" }, "geometry": { "type": "MultiPolygon", "coordinates": [ [ [ [ 121.7383905, 25.1267959 ], [ 121.7377395, 25.1258097 ], [ 121.7383766, 25.1251821 ], [ 121.7390706, 25.1258409 ], [ 121.7393067, 25.126203 ], [ 121.7392861, 25.1263063 ], [ 121.7383905, 25.1267959 ] ] ] ] } },
{ "type": "Feature", "properties": { "full_id": "w367875277", "osm_id": "367875277", "osm_type": "way", "amenity": "school", "building": null, "leisure": null, "operator:type": null, "addr:province": null, "start_date": null, "適合避難弱者安置": null, "災民收容所編號": null, "服務里別": null, "容納面積(室內)": null, "capacity": null, "addr:village": null, "denomination": null, "addr:full:en": null, "religion": null, "old_name:zh": null, "old_name:en": null, "official_ref": null, "email": null, "name:nan-TL": null, "name:nan-POJ": null, "name:nan-HJ": null, "name:nan": null, "full_name": null, "alt_name": null, "wikipedia": null, "old_name": null, "evacuation_center": null, "emergency:social_facility:source": null, "emergency:social_facility:id": null, "emergency:social_facility:for": null, "emergency:social_facility:association_villages": null, "emergency:social_facility": null, "emergency:shelter_type": null, "emergency:amenity": null, "emergency": null, "official_name": "基隆市中山區港西國民小學", "fee": null, "fax": null, "short_name": null, "barrier": null, "addr:full": "203基隆市中山區中山一路291巷45號", "wikidata": "Q75927399", "wheelchair": null, "website": "https://gsps.kl.edu.tw/School_Web/main.php", "type": null, "phone": null, "operator": null, "name:zh": null, "name:en": null, "name": "港西國小", "grades": "1-6", "addr:street": "中山一路291巷", "addr:postcode": "203", "addr:place": null, "addr:housenumber": "45", "addr:district": "中山區", "addr:country": null, "addr:city": "基隆市" }, "geometry": { "type": "MultiPolygon", "coordinates": [ [ [ [ 121.7391748, 25.1362776 ], [ 121.7391943, 25.1363194 ], [ 121.7391728, 25.1363289 ], [ 121.7395128, 25.1368397 ], [ 121.7397467, 25.1367642 ], [ 121.740051, 25.1367355 ], [ 121.7402156, 25.1367449 ], [ 121.740534, 25.1366519 ], [ 121.7404327, 25.1364681 ], [ 121.7403958, 25.1364287 ], [ 121.740308, 25.1364639 ], [ 121.7400762, 25.1361694 ], [ 121.7398915, 25.1362696 ], [ 121.7397246, 25.1362411 ], [ 121.7395824, 25.13604 ], [ 121.739175, 25.1361855 ], [ 121.7391318, 25.1362302 ], [ 121.7391748, 25.1362776 ] ] ] ] } },
{ "type": "Feature", "properties": { "full_id": "w367875291", "osm_id": "367875291", "osm_type": "way", "amenity": "school", "building": null, "leisure": null, "operator:type": null, "addr:province": null, "start_date": null, "適合避難弱者安置": null, "災民收容所編號": null, "服務里別": null, "容納面積(室內)": null, "capacity": null, "addr:village": null, "denomination": null, "addr:full:en": null, "religion": null, "old_name:zh": null, "old_name:en": null, "official_ref": null, "email": null, "name:nan-TL": null, "name:nan-POJ": null, "name:nan-HJ": null, "name:nan": null, "full_name": null, "alt_name": null, "wikipedia": null, "old_name": null, "evacuation_center": null, "emergency:social_facility:source": null, "emergency:social_facility:id": null, "emergency:social_facility:for": null, "emergency:social_facility:association_villages": null, "emergency:social_facility": null, "emergency:shelter_type": null, "emergency:amenity": null, "emergency": null, "official_name": null, "fee": null, "fax": "+886 2 2422 6900", "short_name": null, "barrier": null, "addr:full": "202基隆市中山區中華路46巷26號", "wikidata": "Q76099356", "wheelchair": null, "website": "https://www.ches.kl.edu.tw/", "type": null, "phone": "+886 2 2422 5530", "operator": null, "name:zh": null, "name:en": null, "name": "中華國小", "grades": "1-6", "addr:street": "中華路46巷", "addr:postcode": "202", "addr:place": null, "addr:housenumber": "26", "addr:district": "中山區", "addr:country": null, "addr:city": "基隆市" }, "geometry": { "type": "MultiPolygon", "coordinates": [ [ [ [ 121.7384238, 25.1497718 ], [ 121.7386192, 25.1497689 ], [ 121.7386615, 25.1497954 ], [ 121.7387462, 25.1498573 ], [ 121.7388732, 25.1497807 ], [ 121.7388439, 25.1496834 ], [ 121.7389025, 25.149595 ], [ 121.7390035, 25.1493267 ], [ 121.7390002, 25.1492559 ], [ 121.7389514, 25.1489611 ], [ 121.7387853, 25.1489906 ], [ 121.7387918, 25.1490673 ], [ 121.7384972, 25.1490857 ], [ 121.7383554, 25.1491616 ], [ 121.7383977, 25.149312 ], [ 121.7383196, 25.1493473 ], [ 121.7384238, 25.1497718 ] ] ] ] } },
{ "type": "Feature", "properties": { "full_id": "w367877079", "osm_id": "367877079", "osm_type": "way", "amenity": "school", "building": null, "leisure": null, "operator:type": null, "addr:province": null, "start_date": null, "適合避難弱者安置": null, "災民收容所編號": null, "服務里別": null, "容納面積(室內)": null, "capacity": null, "addr:village": null, "denomination": null, "addr:full:en": null, "religion": null, "old_name:zh": null, "old_name:en": null, "official_ref": null, "email": null, "name:nan-TL": null, "name:nan-POJ": null, "name:nan-HJ": null, "name:nan": null, "full_name": null, "alt_name": null, "wikipedia": null, "old_name": null, "evacuation_center": "yes", "emergency:social_facility:source": "內政部消防署", "emergency:social_facility:id": "7621", "emergency:social_facility:for": "displaced_people", "emergency:social_facility:association_villages": "居仁里", "emergency:social_facility": "shelter", "emergency:shelter_type": "水災,震災,土石流,海嘯", "emergency:amenity": "social_facility", "emergency": "assembly_point", "official_name": null, "fee": null, "fax": "+886 2 2422 8492", "short_name": null, "barrier": null, "addr:full": "基隆市中山區通仁街28號", "wikidata": "Q76099351", "wheelchair": null, "website": "https://cshps.kl.edu.tw/", "type": null, "phone": "+886 2 2422 3053", "operator": null, "name:zh": "中山國小", "name:en": null, "name": "中山國小", "grades": "1-6", "addr:street": "通仁街", "addr:postcode": null, "addr:place": null, "addr:housenumber": "28", "addr:district": "中山區", "addr:country": "TW", "addr:city": "基隆市" }, "geometry": { "type": "MultiPolygon", "coordinates": [ [ [ [ 121.7354975, 25.1465238 ], [ 121.7363661, 25.1467808 ], [ 121.7366192, 25.1462976 ], [ 121.7372203, 25.1464433 ], [ 121.7374205, 25.1461797 ], [ 121.7373626, 25.1460971 ], [ 121.7374021, 25.1459468 ], [ 121.7365817, 25.1457137 ], [ 121.7365054, 25.1458392 ], [ 121.7363423, 25.1457835 ], [ 121.7359076, 25.1456522 ], [ 121.7358283, 25.1456282 ], [ 121.7354975, 25.1465238 ] ] ] ] } },
{ "type": "Feature", "properties": { "full_id": "w367990889", "osm_id": "367990889", "osm_type": "way", "amenity": "school", "building": null, "leisure": null, "operator:type": null, "addr:province": null, "start_date": null, "適合避難弱者安置": null, "災民收容所編號": null, "服務里別": null, "容納面積(室內)": null, "capacity": null, "addr:village": null, "denomination": null, "addr:full:en": null, "religion": null, "old_name:zh": null, "old_name:en": null, "official_ref": null, "email": "aa9134@gm.kl.edu.tw", "name:nan-TL": null, "name:nan-POJ": null, "name:nan-HJ": null, "name:nan": null, "full_name": null, "alt_name": null, "wikipedia": null, "old_name": null, "evacuation_center": null, "emergency:social_facility:source": null, "emergency:social_facility:id": null, "emergency:social_facility:for": null, "emergency:social_facility:association_villages": null, "emergency:social_facility": null, "emergency:shelter_type": null, "emergency:amenity": null, "emergency": null, "official_name": null, "fee": null, "fax": null, "short_name": null, "barrier": null, "addr:full": "基隆市安樂區安和一街392號", "wikidata": "Q75927481", "wheelchair": null, "website": "https://jdps.kl.edu.tw/", "type": null, "phone": "+886 2 2433 4216", "operator": "基隆市政府教育處", "name:zh": null, "name:en": null, "name": "建德國小", "grades": "1-6", "addr:street": "安和一街", "addr:postcode": null, "addr:place": null, "addr:housenumber": "392", "addr:district": "安樂區", "addr:country": "TW", "addr:city": "基隆市" }, "geometry": { "type": "MultiPolygon", "coordinates": [ [ [ [ 121.7207553, 25.1254124 ], [ 121.7222257, 25.1253196 ], [ 121.7223553, 25.1250337 ], [ 121.7224334, 25.1248007 ], [ 121.7225006, 25.1247338 ], [ 121.7225637, 25.124671 ], [ 121.7227526, 25.1245707 ], [ 121.7226802, 25.1243147 ], [ 121.7223391, 25.124041 ], [ 121.7221863, 25.1238796 ], [ 121.7219556, 25.1236359 ], [ 121.7219296, 25.1236416 ], [ 121.7218762, 25.1236534 ], [ 121.7217694, 25.1238091 ], [ 121.7216745, 25.1239452 ], [ 121.7211268, 25.1241797 ], [ 121.7209113, 25.1242853 ], [ 121.7206899, 25.1247668 ], [ 121.7205452, 25.1250597 ], [ 121.7207553, 25.1254124 ] ] ] ] } },
{ "type": "Feature", "properties": { "full_id": "w367990890", "osm_id": "367990890", "osm_type": "way", "amenity": "school", "building": null, "leisure": null, "operator:type": null, "addr:province": null, "start_date": null, "適合避難弱者安置": null, "災民收容所編號": null, "服務里別": null, "容納面積(室內)": null, "capacity": null, "addr:village": null, "denomination": null, "addr:full:en": null, "religion": null, "old_name:zh": null, "old_name:en": null, "official_ref": null, "email": null, "name:nan-TL": null, "name:nan-POJ": null, "name:nan-HJ": null, "name:nan": null, "full_name": null, "alt_name": null, "wikipedia": null, "old_name": null, "evacuation_center": null, "emergency:social_facility:source": null, "emergency:social_facility:id": null, "emergency:social_facility:for": null, "emergency:social_facility:association_villages": null, "emergency:social_facility": null, "emergency:shelter_type": null, "emergency:amenity": null, "emergency": null, "official_name": null, "fee": null, "fax": "+886 2 2433 6447", "short_name": null, "barrier": null, "addr:full": "204基隆市安樂區安和一街29號", "wikidata": "Q75692741", "wheelchair": null, "website": "https://jdjh.kl.edu.tw/", "type": null, "phone": "+886 2 2432 1234;+886 2 5578 7451", "operator": null, "name:zh": null, "name:en": null, "name": "建德國中", "grades": "7-9", "addr:street": "安和一街", "addr:postcode": "204", "addr:place": null, "addr:housenumber": "29", "addr:district": "安樂區", "addr:country": "TW", "addr:city": "基隆市" }, "geometry": { "type": "MultiPolygon", "coordinates": [ [ [ [ 121.7207553, 25.1254124 ], [ 121.7222257, 25.1253196 ], [ 121.7221403, 25.125476 ], [ 121.722027, 25.1258543 ], [ 121.721984, 25.1260303 ], [ 121.7219938, 25.1264519 ], [ 121.7221664, 25.1276667 ], [ 121.7222771, 25.127994 ], [ 121.7223193, 25.1283449 ], [ 121.7221318, 25.1288409 ], [ 121.72196, 25.1291096 ], [ 121.7216583, 25.1286199 ], [ 121.7213618, 25.1276545 ], [ 121.7208885, 25.1270941 ], [ 121.7209301, 25.1265149 ], [ 121.7209717, 25.1257755 ], [ 121.7207553, 25.1254124 ] ] ] ] } },
{ "type": "Feature", "properties": { "full_id": "w368229001", "osm_id": "368229001", "osm_type": "way", "amenity": "school", "building": null, "leisure": null, "operator:type": null, "addr:province": null, "start_date": "1924", "適合避難弱者安置": null, "災民收容所編號": null, "服務里別": null, "容納面積(室內)": null, "capacity": null, "addr:village": null, "denomination": null, "addr:full:en": null, "religion": null, "old_name:zh": null, "old_name:en": null, "official_ref": null, "email": null, "name:nan-TL": null, "name:nan-POJ": null, "name:nan-HJ": null, "name:nan": null, "full_name": null, "alt_name": null, "wikipedia": null, "old_name": null, "evacuation_center": "yes", "emergency:social_facility:source": "內政部消防署", "emergency:social_facility:id": "2803", "emergency:social_facility:for": "displaced_people", "emergency:social_facility:association_villages": "安和里、慈仁里、樂一里", "emergency:social_facility": "shelter", "emergency:shelter_type": "水災,震災,土石流,海嘯", "emergency:amenity": "social_facility", "emergency": "assembly_point", "official_name": null, "fee": null, "fax": null, "short_name": null, "barrier": null, "addr:full": "基隆市安樂區安一路177巷23之1號", "wikidata": null, "wheelchair": null, "website": "https://jweb.kl.edu.tw/365", "type": null, "phone": "+886 2 2422-0814", "operator": "基隆市政府教育處", "name:zh": "安樂國小", "name:en": "Anle Elementary School", "name": "安樂國小", "grades": "1-6", "addr:street": "安一路177巷", "addr:postcode": "20443", "addr:place": null, "addr:housenumber": "23", "addr:district": "安樂區", "addr:country": "TW", "addr:city": "基隆市" }, "geometry": { "type": "MultiPolygon", "coordinates": [ [ [ [ 121.7300246, 25.1321659 ], [ 121.7302793, 25.1318113 ], [ 121.7303381, 25.1316206 ], [ 121.7303722, 25.1315102 ], [ 121.7303355, 25.1314789 ], [ 121.7305392, 25.1311639 ], [ 121.7306796, 25.1310869 ], [ 121.7310766, 25.1309805 ], [ 121.7312644, 25.1311076 ], [ 121.7313716, 25.1311925 ], [ 121.731504, 25.131282 ], [ 121.7317237, 25.1313012 ], [ 121.7318876, 25.131359 ], [ 121.7320319, 25.1313106 ], [ 121.7322969, 25.1312945 ], [ 121.7323977, 25.1312874 ], [ 121.7327556, 25.1312014 ], [ 121.7329948, 25.1315738 ], [ 121.7329519, 25.1315977 ], [ 121.7323764, 25.1318129 ], [ 121.7324813, 25.1320069 ], [ 121.7321036, 25.1321376 ], [ 121.7319955, 25.1319687 ], [ 121.7318353, 25.132037 ], [ 121.731671, 25.1321071 ], [ 121.7315003, 25.1321799 ], [ 121.7313261, 25.1322542 ], [ 121.7309655, 25.13241 ], [ 121.7308693, 25.1322358 ], [ 121.7308442, 25.1321904 ], [ 121.7307665, 25.1322148 ], [ 121.7302701, 25.1323711 ], [ 121.7300246, 25.1321659 ] ] ] ] } },
{ "type": "Feature", "properties": { "full_id": "w368487590", "osm_id": "368487590", "osm_type": "way", "amenity": "school", "building": null, "leisure": null, "operator:type": null, "addr:province": null, "start_date": null, "適合避難弱者安置": null, "災民收容所編號": null, "服務里別": null, "容納面積(室內)": null, "capacity": null, "addr:village": null, "denomination": null, "addr:full:en": null, "religion": null, "old_name:zh": null, "old_name:en": null, "official_ref": null, "email": null, "name:nan-TL": null, "name:nan-POJ": null, "name:nan-HJ": null, "name:nan": null, "full_name": "基隆市立中山高級中學", "alt_name": null, "wikipedia": "zh:基隆市立中山高級中學", "old_name": "中山國中", "evacuation_center": "yes", "emergency:social_facility:source": "內政部消防署", "emergency:social_facility:id": "2790", "emergency:social_facility:for": "displaced_people", "emergency:social_facility:association_villages": "協和里", "emergency:social_facility": "shelter", "emergency:shelter_type": "水災,震災,土石流,海嘯", "emergency:amenity": "social_facility", "emergency": "assembly_point", "official_name": null, "fee": null, "fax": null, "short_name": null, "barrier": null, "addr:full": "20345基隆市中山區文化路162號", "wikidata": "Q10930438", "wheelchair": null, "website": "http://nt.csjh.kl.edu.tw/", "type": null, "phone": null, "operator": "基隆市政府教育處", "name:zh": null, "name:en": null, "name": "中山高中", "grades": "10-12", "addr:street": "文化路", "addr:postcode": "20345", "addr:place": null, "addr:housenumber": "162", "addr:district": "中山區", "addr:country": "TW", "addr:city": "基隆市" }, "geometry": { "type": "MultiPolygon", "coordinates": [ [ [ [ 121.7315258, 25.1552853 ], [ 121.7301804, 25.154578 ], [ 121.7299214, 25.1544418 ], [ 121.7300817, 25.154204 ], [ 121.7306231, 25.1534461 ], [ 121.7309792, 25.153655 ], [ 121.7310222, 25.1536802 ], [ 121.7310587, 25.1537024 ], [ 121.7311009, 25.1537259 ], [ 121.7311576, 25.1537591 ], [ 121.7312852, 25.1538049 ], [ 121.7317479, 25.1540786 ], [ 121.7321102, 25.1543939 ], [ 121.7321824, 25.1544308 ], [ 121.7322581, 25.1544756 ], [ 121.7318203, 25.1551265 ], [ 121.7315974, 25.1552482 ], [ 121.7315258, 25.1552853 ] ] ] ] } },
{ "type": "Feature", "properties": { "full_id": "w368487591", "osm_id": "368487591", "osm_type": "way", "amenity": "school", "building": null, "leisure": null, "operator:type": null, "addr:province": null, "start_date": null, "適合避難弱者安置": null, "災民收容所編號": null, "服務里別": null, "容納面積(室內)": null, "capacity": null, "addr:village": null, "denomination": null, "addr:full:en": null, "religion": null, "old_name:zh": null, "old_name:en": null, "official_ref": null, "email": null, "name:nan-TL": null, "name:nan-POJ": null, "name:nan-HJ": null, "name:nan": null, "full_name": null, "alt_name": null, "wikipedia": null, "old_name": null, "evacuation_center": null, "emergency:social_facility:source": null, "emergency:social_facility:id": null, "emergency:social_facility:for": null, "emergency:social_facility:association_villages": null, "emergency:social_facility": null, "emergency:shelter_type": null, "emergency:amenity": null, "emergency": null, "official_name": null, "fee": null, "fax": "+886 2 2424 4051", "short_name": null, "barrier": null, "addr:full": "20345基隆市中山區文化路164號", "wikidata": null, "wheelchair": null, "website": "https://dhps.kl.edu.tw/", "type": null, "phone": "+886 2 2427 8095", "operator": null, "name:zh": null, "name:en": null, "name": "德和國小", "grades": "1-6", "addr:street": "文化路", "addr:postcode": "20345", "addr:place": null, "addr:housenumber": "164", "addr:district": "中山區", "addr:country": null, "addr:city": "基隆市" }, "geometry": { "type": "MultiPolygon", "coordinates": [ [ [ [ 121.7299214, 25.1544418 ], [ 121.7315258, 25.1552853 ], [ 121.7314466, 25.1553263 ], [ 121.7311294, 25.1554879 ], [ 121.7311173, 25.1555098 ], [ 121.7307477, 25.1553578 ], [ 121.7307217, 25.1553471 ], [ 121.7306803, 25.1553405 ], [ 121.7303801, 25.1552928 ], [ 121.7300474, 25.1553254 ], [ 121.7299055, 25.1553268 ], [ 121.7294142, 25.1553317 ], [ 121.7293125, 25.1553327 ], [ 121.7297689, 25.154554 ], [ 121.7298316, 25.1544562 ], [ 121.7298458, 25.1544341 ], [ 121.7299214, 25.1544418 ] ] ] ] } },
{ "type": "Feature", "properties": { "full_id": "w368847706", "osm_id": "368847706", "osm_type": "way", "amenity": "school", "building": null, "leisure": null, "operator:type": null, "addr:province": null, "start_date": null, "適合避難弱者安置": null, "災民收容所編號": null, "服務里別": null, "容納面積(室內)": null, "capacity": null, "addr:village": null, "denomination": null, "addr:full:en": null, "religion": null, "old_name:zh": null, "old_name:en": null, "official_ref": null, "email": null, "name:nan-TL": null, "name:nan-POJ": null, "name:nan-HJ": null, "name:nan": null, "full_name": null, "alt_name": null, "wikipedia": null, "old_name": null, "evacuation_center": null, "emergency:social_facility:source": null, "emergency:social_facility:id": null, "emergency:social_facility:for": null, "emergency:social_facility:association_villages": null, "emergency:social_facility": null, "emergency:shelter_type": null, "emergency:amenity": null, "emergency": null, "official_name": null, "fee": null, "fax": null, "short_name": null, "barrier": null, "addr:full": "206基隆市七堵區百一街25號", "wikidata": "Q75927436", "wheelchair": null, "website": "https://wdps.kl.edu.tw/", "type": null, "phone": null, "operator": null, "name:zh": null, "name:en": null, "name": "五堵國小", "grades": "1-6", "addr:street": "百一街", "addr:postcode": "206", "addr:place": null, "addr:housenumber": "25", "addr:district": "七堵區", "addr:country": "TW", "addr:city": "基隆市" }, "geometry": { "type": "MultiPolygon", "coordinates": [ [ [ [ 121.6937377, 25.0805981 ], [ 121.694411, 25.0805426 ], [ 121.6943994, 25.080606 ], [ 121.6951077, 25.0806086 ], [ 121.6951164, 25.0796001 ], [ 121.6947667, 25.0795421 ], [ 121.6932568, 25.0795737 ], [ 121.6932218, 25.0795922 ], [ 121.6932509, 25.0797242 ], [ 121.6933151, 25.0798668 ], [ 121.6934113, 25.0800912 ], [ 121.6935745, 25.0803393 ], [ 121.6937377, 25.0805981 ] ] ] ] } },
{ "type": "Feature", "properties": { "full_id": "w368848684", "osm_id": "368848684", "osm_type": "way", "amenity": "school", "building": null, "leisure": null, "operator:type": null, "addr:province": null, "start_date": null, "適合避難弱者安置": null, "災民收容所編號": null, "服務里別": null, "容納面積(室內)": null, "capacity": null, "addr:village": null, "denomination": null, "addr:full:en": null, "religion": null, "old_name:zh": null, "old_name:en": null, "official_ref": null, "email": null, "name:nan-TL": null, "name:nan-POJ": null, "name:nan-HJ": null, "name:nan": null, "full_name": null, "alt_name": null, "wikipedia": "zh:基隆市七堵區堵南國民小學", "old_name": null, "evacuation_center": null, "emergency:social_facility:source": null, "emergency:social_facility:id": null, "emergency:social_facility:for": null, "emergency:social_facility:association_villages": null, "emergency:social_facility": null, "emergency:shelter_type": null, "emergency:amenity": null, "emergency": null, "official_name": null, "fee": null, "fax": null, "short_name": null, "barrier": null, "addr:full": "基隆市七堵區大德路120號", "wikidata": "Q20063110", "wheelchair": null, "website": "https://dnps.kl.edu.tw/web/index.php", "type": null, "phone": null, "operator": null, "name:zh": null, "name:en": null, "name": "堵南國小", "grades": "1-6", "addr:street": "大德路", "addr:postcode": null, "addr:place": null, "addr:housenumber": "120", "addr:district": "七堵區", "addr:country": null, "addr:city": "基隆市" }, "geometry": { "type": "MultiPolygon", "coordinates": [ [ [ [ 121.6927013, 25.0844399 ], [ 121.6928077, 25.0839792 ], [ 121.6929724, 25.0832849 ], [ 121.6930365, 25.0827529 ], [ 121.6929534, 25.0825166 ], [ 121.6928018, 25.0822764 ], [ 121.6916199, 25.0814712 ], [ 121.6915979, 25.0815023 ], [ 121.6912205, 25.0820356 ], [ 121.6918609, 25.0825365 ], [ 121.6921083, 25.083301 ], [ 121.6923048, 25.0838086 ], [ 121.6923994, 25.0840722 ], [ 121.6924653, 25.0842104 ], [ 121.6924523, 25.0843372 ], [ 121.6927013, 25.0844399 ] ] ] ] } },
{ "type": "Feature", "properties": { "full_id": "w368848688", "osm_id": "368848688", "osm_type": "way", "amenity": "school", "building": null, "leisure": null, "operator:type": "government", "addr:province": "台灣省", "start_date": null, "適合避難弱者安置": null, "災民收容所編號": null, "服務里別": null, "容納面積(室內)": null, "capacity": null, "addr:village": null, "denomination": null, "addr:full:en": null, "religion": null, "old_name:zh": null, "old_name:en": null, "official_ref": null, "email": null, "name:nan-TL": null, "name:nan-POJ": null, "name:nan-HJ": null, "name:nan": null, "full_name": null, "alt_name": null, "wikipedia": null, "old_name": null, "evacuation_center": null, "emergency:social_facility:source": null, "emergency:social_facility:id": null, "emergency:social_facility:for": null, "emergency:social_facility:association_villages": null, "emergency:social_facility": null, "emergency:shelter_type": null, "emergency:amenity": null, "emergency": null, "official_name": null, "fee": null, "fax": null, "short_name": null, "barrier": null, "addr:full": null, "wikidata": "Q13015880", "wheelchair": null, "website": "https://klses.kl.edu.tw/", "type": null, "phone": "+886 2 2452-6332", "operator": "中華民國教育部", "name:zh": null, "name:en": null, "name": "國立基隆特殊教育學校", "grades": null, "addr:street": "堵南街", "addr:postcode": "20650", "addr:place": null, "addr:housenumber": "20", "addr:district": "七堵區", "addr:country": "TW", "addr:city": "基隆市" }, "geometry": { "type": "MultiPolygon", "coordinates": [ [ [ [ 121.6863264, 25.0824718 ], [ 121.6876651, 25.0826038 ], [ 121.6872542, 25.0846045 ], [ 121.6863088, 25.0840003 ], [ 121.6859995, 25.0837923 ], [ 121.6863264, 25.0824718 ] ] ] ] } },
{ "type": "Feature", "properties": { "full_id": "w368975269", "osm_id": "368975269", "osm_type": "way", "amenity": "school", "building": null, "leisure": null, "operator:type": null, "addr:province": null, "start_date": null, "適合避難弱者安置": null, "災民收容所編號": null, "服務里別": null, "容納面積(室內)": null, "capacity": null, "addr:village": null, "denomination": null, "addr:full:en": null, "religion": null, "old_name:zh": null, "old_name:en": null, "official_ref": null, "email": null, "name:nan-TL": null, "name:nan-POJ": null, "name:nan-HJ": null, "name:nan": null, "full_name": null, "alt_name": null, "wikipedia": null, "old_name": null, "evacuation_center": null, "emergency:social_facility:source": null, "emergency:social_facility:id": null, "emergency:social_facility:for": null, "emergency:social_facility:association_villages": null, "emergency:social_facility": null, "emergency:shelter_type": null, "emergency:amenity": null, "emergency": null, "official_name": null, "fee": null, "fax": "+886 2 2455 2990", "short_name": null, "barrier": null, "addr:full": "20653基隆市七堵區大成街1號", "wikidata": null, "wheelchair": null, "website": "http://www.mlps.kl.edu.tw/", "type": null, "phone": "+886 2 2456 5663", "operator": null, "name:zh": null, "name:en": null, "name": "瑪陵國小", "grades": "1-6", "addr:street": "大成街", "addr:postcode": "20653", "addr:place": null, "addr:housenumber": "1", "addr:district": "七堵區", "addr:country": "TW", "addr:city": "基隆市" }, "geometry": { "type": "MultiPolygon", "coordinates": [ [ [ [ 121.6887086, 25.1103886 ], [ 121.689256, 25.110456 ], [ 121.6892488, 25.1105255 ], [ 121.6895248, 25.1105473 ], [ 121.6895464, 25.1103864 ], [ 121.6897961, 25.1102516 ], [ 121.6900722, 25.1098451 ], [ 121.6899449, 25.1097756 ], [ 121.6898441, 25.1098278 ], [ 121.689424, 25.1098017 ], [ 121.6894192, 25.1098256 ], [ 121.688843, 25.1098104 ], [ 121.6887878, 25.1098647 ], [ 121.6887086, 25.1103886 ] ] ] ] } },
{ "type": "Feature", "properties": { "full_id": "w369168015", "osm_id": "369168015", "osm_type": "way", "amenity": "school", "building": null, "leisure": null, "operator:type": null, "addr:province": null, "start_date": null, "適合避難弱者安置": null, "災民收容所編號": null, "服務里別": null, "容納面積(室內)": null, "capacity": null, "addr:village": null, "denomination": null, "addr:full:en": null, "religion": null, "old_name:zh": null, "old_name:en": null, "official_ref": null, "email": null, "name:nan-TL": null, "name:nan-POJ": null, "name:nan-HJ": null, "name:nan": null, "full_name": null, "alt_name": null, "wikipedia": null, "old_name": null, "evacuation_center": null, "emergency:social_facility:source": null, "emergency:social_facility:id": null, "emergency:social_facility:for": null, "emergency:social_facility:association_villages": null, "emergency:social_facility": null, "emergency:shelter_type": null, "emergency:amenity": null, "emergency": null, "official_name": null, "fee": null, "fax": null, "short_name": null, "barrier": null, "addr:full": null, "wikidata": "Q75927476", "wheelchair": null, "website": "https://srps.kl.edu.tw/", "type": null, "phone": "+886 2 2431 1708", "operator": "基隆市政府教育處", "name:zh": null, "name:en": null, "name": "尚仁國小", "grades": "1-6", "addr:street": "八德路", "addr:postcode": null, "addr:place": null, "addr:housenumber": "20", "addr:district": "七堵區", "addr:country": "TW", "addr:city": "基隆市" }, "geometry": { "type": "MultiPolygon", "coordinates": [ [ [ [ 121.7280289, 25.1118663 ], [ 121.7276092, 25.1114355 ], [ 121.7277246, 25.1113433 ], [ 121.7276453, 25.111262 ], [ 121.7280427, 25.1109445 ], [ 121.72829, 25.1109967 ], [ 121.7288181, 25.1112467 ], [ 121.7286621, 25.1113467 ], [ 121.7284989, 25.111301 ], [ 121.7280666, 25.1116463 ], [ 121.7281707, 25.1117531 ], [ 121.7280289, 25.1118663 ] ] ] ] } },
{ "type": "Feature", "properties": { "full_id": "w369411770", "osm_id": "369411770", "osm_type": "way", "amenity": "school", "building": null, "leisure": null, "operator:type": null, "addr:province": null, "start_date": null, "適合避難弱者安置": null, "災民收容所編號": null, "服務里別": null, "容納面積(室內)": null, "capacity": null, "addr:village": null, "denomination": null, "addr:full:en": null, "religion": null, "old_name:zh": null, "old_name:en": null, "official_ref": null, "email": null, "name:nan-TL": null, "name:nan-POJ": null, "name:nan-HJ": null, "name:nan": null, "full_name": null, "alt_name": null, "wikipedia": null, "old_name": null, "evacuation_center": null, "emergency:social_facility:source": null, "emergency:social_facility:id": null, "emergency:social_facility:for": null, "emergency:social_facility:association_villages": null, "emergency:social_facility": null, "emergency:shelter_type": null, "emergency:amenity": null, "emergency": null, "official_name": null, "fee": null, "fax": "+886 2 2457 1658", "short_name": null, "barrier": null, "addr:full": "基隆市暖暖區寧靜街3號", "wikidata": "Q75927492", "wheelchair": null, "website": "https://njps.kl.edu.tw/school/web/index.php", "type": null, "phone": "+886 2 2457 4348", "operator": null, "name:zh": null, "name:en": null, "name": "暖江國小", "grades": "1-6", "addr:street": "寧靜街", "addr:postcode": null, "addr:place": null, "addr:housenumber": "3", "addr:district": "暖暖區", "addr:country": null, "addr:city": "基隆市" }, "geometry": { "type": "MultiPolygon", "coordinates": [ [ [ [ 121.7375062, 25.1054592 ], [ 121.7380562, 25.1052351 ], [ 121.7382086, 25.1054832 ], [ 121.7382307, 25.1055192 ], [ 121.7383731, 25.1058174 ], [ 121.7378792, 25.1059528 ], [ 121.7376343, 25.1058212 ], [ 121.7375062, 25.1054592 ] ] ] ] } },
{ "type": "Feature", "properties": { "full_id": "w370372442", "osm_id": "370372442", "osm_type": "way", "amenity": null, "building": null, "leisure": "pitch", "operator:type": null, "addr:province": null, "start_date": null, "適合避難弱者安置": null, "災民收容所編號": null, "服務里別": null, "容納面積(室內)": null, "capacity": null, "addr:village": null, "denomination": null, "addr:full:en": null, "religion": null, "old_name:zh": null, "old_name:en": null, "official_ref": null, "email": null, "name:nan-TL": null, "name:nan-POJ": null, "name:nan-HJ": null, "name:nan": null, "full_name": null, "alt_name": null, "wikipedia": null, "old_name": null, "evacuation_center": null, "emergency:social_facility:source": null, "emergency:social_facility:id": null, "emergency:social_facility:for": null, "emergency:social_facility:association_villages": null, "emergency:social_facility": null, "emergency:shelter_type": null, "emergency:amenity": null, "emergency": null, "official_name": null, "fee": null, "fax": null, "short_name": null, "barrier": null, "addr:full": null, "wikidata": null, "wheelchair": null, "website": null, "type": null, "phone": null, "operator": null, "name:zh": null, "name:en": null, "name": null, "grades": null, "addr:street": null, "addr:postcode": null, "addr:place": null, "addr:housenumber": null, "addr:district": null, "addr:country": null, "addr:city": null }, "geometry": { "type": "MultiPolygon", "coordinates": [ [ [ [ 121.737108, 25.1352465 ], [ 121.737122, 25.1352455 ], [ 121.737166, 25.1352241 ], [ 121.7372025, 25.135193 ], [ 121.7372176, 25.1351677 ], [ 121.7372262, 25.1351386 ], [ 121.7372176, 25.1351006 ], [ 121.7369855, 25.1348186 ], [ 121.7369512, 25.134804 ], [ 121.7369211, 25.1348011 ], [ 121.7368964, 25.1348059 ], [ 121.7368674, 25.1348166 ], [ 121.7368469, 25.1348263 ], [ 121.7368222, 25.1348477 ], [ 121.7368072, 25.1348672 ], [ 121.7367954, 25.1348935 ], [ 121.7367879, 25.1349158 ], [ 121.7367846, 25.1349557 ], [ 121.7369898, 25.1352241 ], [ 121.7370296, 25.1352397 ], [ 121.7370715, 25.1352494 ], [ 121.737108, 25.1352465 ] ] ] ] } },
{ "type": "Feature", "properties": { "full_id": "w371059192", "osm_id": "371059192", "osm_type": "way", "amenity": "school", "building": null, "leisure": null, "operator:type": null, "addr:province": null, "start_date": null, "適合避難弱者安置": null, "災民收容所編號": null, "服務里別": null, "容納面積(室內)": null, "capacity": null, "addr:village": null, "denomination": null, "addr:full:en": null, "religion": null, "old_name:zh": null, "old_name:en": null, "official_ref": null, "email": null, "name:nan-TL": null, "name:nan-POJ": null, "name:nan-HJ": null, "name:nan": null, "full_name": null, "alt_name": null, "wikipedia": null, "old_name": null, "evacuation_center": null, "emergency:social_facility:source": null, "emergency:social_facility:id": null, "emergency:social_facility:for": null, "emergency:social_facility:association_villages": null, "emergency:social_facility": null, "emergency:shelter_type": null, "emergency:amenity": null, "emergency": null, "official_name": null, "fee": null, "fax": null, "short_name": null, "barrier": null, "addr:full": null, "wikidata": "Q75692564", "wheelchair": null, "website": "https://www.nrjh.kl.edu.tw/", "type": null, "phone": "+886 2 2428-2188", "operator": "基隆市政府教育處", "name:zh": "南榮國中", "name:en": "Nan Rong Junior High School", "name": "南榮國中", "grades": "7-9", "addr:street": "南榮路319巷", "addr:postcode": "20045", "addr:place": null, "addr:housenumber": "36", "addr:district": "仁愛區", "addr:country": "TW", "addr:city": "基隆市" }, "geometry": { "type": "MultiPolygon", "coordinates": [ [ [ [ 121.7448188, 25.120795 ], [ 121.7449035, 25.1205267 ], [ 121.7453399, 25.1206299 ], [ 121.7453491, 25.1202234 ], [ 121.7453504, 25.1201068 ], [ 121.7453887, 25.1198868 ], [ 121.7457535, 25.1198809 ], [ 121.7458153, 25.1193 ], [ 121.7454278, 25.1192647 ], [ 121.7454473, 25.1191261 ], [ 121.74576, 25.1190848 ], [ 121.7465611, 25.1191585 ], [ 121.7465058, 25.1193767 ], [ 121.7466178, 25.1198165 ], [ 121.7469434, 25.1208434 ], [ 121.745726, 25.1210036 ], [ 121.7455042, 25.1210277 ], [ 121.7452682, 25.12091 ], [ 121.7448188, 25.120795 ] ] ] ] } },
{ "type": "Feature", "properties": { "full_id": "w371059195", "osm_id": "371059195", "osm_type": "way", "amenity": "school", "building": null, "leisure": null, "operator:type": null, "addr:province": null, "start_date": null, "適合避難弱者安置": null, "災民收容所編號": null, "服務里別": null, "容納面積(室內)": null, "capacity": null, "addr:village": null, "denomination": null, "addr:full:en": null, "religion": null, "old_name:zh": null, "old_name:en": null, "official_ref": null, "email": null, "name:nan-TL": null, "name:nan-POJ": null, "name:nan-HJ": "南榮國小", "name:nan": null, "full_name": null, "alt_name": null, "wikipedia": null, "old_name": null, "evacuation_center": "yes", "emergency:social_facility:source": "內政部消防署", "emergency:social_facility:id": "2725", "emergency:social_facility:for": "displaced_people", "emergency:social_facility:association_villages": "龍門里德厚里曲水里英仁里", "emergency:social_facility": "shelter", "emergency:shelter_type": "水災,震災,土石流,海嘯", "emergency:amenity": "social_facility", "emergency": "assembly_point", "official_name": null, "fee": null, "fax": null, "short_name": null, "barrier": null, "addr:full": "基隆市仁愛區南榮路321號", "wikidata": "Q75927377", "wheelchair": null, "website": "https://nrps.kl.edu.tw/", "type": null, "phone": "+886 2 24223038", "operator": "基隆市政府教育處", "name:zh": "南榮國小", "name:en": "Nan Rong Elementary School", "name": "南榮國小", "grades": "1-6", "addr:street": "南榮路", "addr:postcode": "200", "addr:place": null, "addr:housenumber": "321", "addr:district": "仁愛區", "addr:country": "TW", "addr:city": "基隆市" }, "geometry": { "type": "MultiPolygon", "coordinates": [ [ [ [ 121.7436362, 25.1195367 ], [ 121.7436924, 25.1193389 ], [ 121.743737, 25.1191823 ], [ 121.7438873, 25.1185092 ], [ 121.7438339, 25.1183946 ], [ 121.7442254, 25.1182585 ], [ 121.7446188, 25.1191107 ], [ 121.7448264, 25.1190319 ], [ 121.7449194, 25.1193631 ], [ 121.7449154, 25.1196208 ], [ 121.7444073, 25.1195063 ], [ 121.7441305, 25.1194794 ], [ 121.7438398, 25.1195421 ], [ 121.743677, 25.1195378 ], [ 121.7436362, 25.1195367 ] ] ] ] } },
{ "type": "Feature", "properties": { "full_id": "w371337146", "osm_id": "371337146", "osm_type": "way", "amenity": "school", "building": null, "leisure": null, "operator:type": null, "addr:province": null, "start_date": null, "適合避難弱者安置": null, "災民收容所編號": null, "服務里別": null, "容納面積(室內)": null, "capacity": null, "addr:village": null, "denomination": null, "addr:full:en": null, "religion": null, "old_name:zh": null, "old_name:en": null, "official_ref": null, "email": null, "name:nan-TL": null, "name:nan-POJ": null, "name:nan-HJ": null, "name:nan": null, "full_name": null, "alt_name": null, "wikipedia": null, "old_name": null, "evacuation_center": null, "emergency:social_facility:source": null, "emergency:social_facility:id": null, "emergency:social_facility:for": null, "emergency:social_facility:association_villages": null, "emergency:social_facility": null, "emergency:shelter_type": null, "emergency:amenity": null, "emergency": null, "official_name": null, "fee": null, "fax": null, "short_name": null, "barrier": null, "addr:full": null, "wikidata": null, "wheelchair": null, "website": "www.essh.kl.edu.tw/essh/elementary/%A4p%BE%C7%B3%A1%BA%F4%AD%B6/introduction.html", "type": null, "phone": "+886 2 2433-2666", "operator": null, "name:zh": null, "name:en": null, "name": "二信高中小學部", "grades": "10-12", "addr:street": "樂利三街", "addr:postcode": "204", "addr:place": null, "addr:housenumber": "19", "addr:district": "安樂區", "addr:country": null, "addr:city": "基隆市" }, "geometry": { "type": "MultiPolygon", "coordinates": [ [ [ [ 121.7177402, 25.1292069 ], [ 121.7178597, 25.1283669 ], [ 121.7176051, 25.1283347 ], [ 121.7175637, 25.1287297 ], [ 121.7175369, 25.1289276 ], [ 121.717388, 25.1290065 ], [ 121.7172244, 25.128992 ], [ 121.717215, 25.1290624 ], [ 121.7172056, 25.1291704 ], [ 121.7173411, 25.1291887 ], [ 121.7177402, 25.1292069 ] ] ] ] } },
{ "type": "Feature", "properties": { "full_id": "w451700565", "osm_id": "451700565", "osm_type": "way", "amenity": "school", "building": null, "leisure": null, "operator:type": null, "addr:province": "台灣省", "start_date": null, "適合避難弱者安置": null, "災民收容所編號": null, "服務里別": null, "容納面積(室內)": null, "capacity": null, "addr:village": null, "denomination": null, "addr:full:en": null, "religion": null, "old_name:zh": null, "old_name:en": null, "official_ref": null, "email": null, "name:nan-TL": null, "name:nan-POJ": null, "name:nan-HJ": null, "name:nan": null, "full_name": null, "alt_name": null, "wikipedia": "zh:基隆市立武崙國民中學", "old_name": null, "evacuation_center": null, "emergency:social_facility:source": null, "emergency:social_facility:id": null, "emergency:social_facility:for": null, "emergency:social_facility:association_villages": null, "emergency:social_facility": null, "emergency:shelter_type": null, "emergency:amenity": null, "emergency": null, "official_name": null, "fee": null, "fax": "+886 2 3401 0194", "short_name": null, "barrier": null, "addr:full": "基隆市安樂區武崙街205號", "wikidata": "Q10930443", "wheelchair": null, "website": "https://wljh.kl.edu.tw/", "type": null, "phone": "+886 2 2434 2456", "operator": null, "name:zh": null, "name:en": null, "name": "武崙國中", "grades": "7-9", "addr:street": "武崙街", "addr:postcode": null, "addr:place": null, "addr:housenumber": "205", "addr:district": "安樂區", "addr:country": "TW", "addr:city": "基隆市" }, "geometry": { "type": "MultiPolygon", "coordinates": [ [ [ [ 121.7062731, 25.1378552 ], [ 121.7064341, 25.1378139 ], [ 121.706528, 25.1377557 ], [ 121.7066527, 25.1376865 ], [ 121.7067868, 25.1373575 ], [ 121.7066151, 25.1371389 ], [ 121.7062959, 25.1370127 ], [ 121.7061001, 25.1369228 ], [ 121.7056254, 25.136771 ], [ 121.7050138, 25.136782 ], [ 121.7048999, 25.1369434 ], [ 121.704932, 25.1370673 ], [ 121.7051869, 25.1372713 ], [ 121.7051681, 25.1374801 ], [ 121.7049159, 25.1376112 ], [ 121.7048556, 25.1377047 ], [ 121.7050366, 25.1382462 ], [ 121.7054256, 25.1381102 ], [ 121.7055731, 25.1379256 ], [ 121.7056616, 25.137939 ], [ 121.706139, 25.1378115 ], [ 121.706182, 25.1378261 ], [ 121.7062731, 25.1378552 ] ] ] ] } },
{ "type": "Feature", "properties": { "full_id": "w451700566", "osm_id": "451700566", "osm_type": "way", "amenity": "school", "building": null, "leisure": null, "operator:type": null, "addr:province": "台灣省", "start_date": null, "適合避難弱者安置": null, "災民收容所編號": null, "服務里別": null, "容納面積(室內)": null, "capacity": null, "addr:village": null, "denomination": null, "addr:full:en": null, "religion": null, "old_name:zh": null, "old_name:en": null, "official_ref": null, "email": "wlps@wlps.kl.edu.tw", "name:nan-TL": null, "name:nan-POJ": null, "name:nan-HJ": null, "name:nan": null, "full_name": null, "alt_name": null, "wikipedia": null, "old_name": null, "evacuation_center": null, "emergency:social_facility:source": null, "emergency:social_facility:id": null, "emergency:social_facility:for": null, "emergency:social_facility:association_villages": null, "emergency:social_facility": null, "emergency:shelter_type": null, "emergency:amenity": null, "emergency": null, "official_name": null, "fee": null, "fax": null, "short_name": null, "barrier": null, "addr:full": "204基隆市安樂區武崙街203號", "wikidata": "Q75927392", "wheelchair": null, "website": "https://www.wlps.kl.edu.tw/index.php", "type": null, "phone": "+886 2 2431 0018", "operator": null, "name:zh": "武崙國小", "name:en": "Wulun Junior High School", "name": "武崙國小", "grades": "1-6", "addr:street": "武崙街", "addr:postcode": "204", "addr:place": null, "addr:housenumber": "203", "addr:district": "安樂區", "addr:country": "TW", "addr:city": "基隆市" }, "geometry": { "type": "MultiPolygon", "coordinates": [ [ [ [ 121.7077846, 25.1388738 ], [ 121.7065266, 25.1396266 ], [ 121.7058212, 25.1382571 ], [ 121.7063684, 25.1380895 ], [ 121.7064408, 25.1382134 ], [ 121.7071073, 25.1380203 ], [ 121.7078154, 25.1385327 ], [ 121.7077242, 25.1387755 ], [ 121.7077846, 25.1388738 ] ] ] ] } },
{ "type": "Feature", "properties": { "full_id": "w533324968", "osm_id": "533324968", "osm_type": "way", "amenity": null, "building": null, "leisure": "swimming_pool", "operator:type": null, "addr:province": null, "start_date": null, "適合避難弱者安置": null, "災民收容所編號": null, "服務里別": null, "容納面積(室內)": null, "capacity": null, "addr:village": null, "denomination": null, "addr:full:en": null, "religion": null, "old_name:zh": null, "old_name:en": null, "official_ref": null, "email": null, "name:nan-TL": null, "name:nan-POJ": null, "name:nan-HJ": null, "name:nan": null, "full_name": null, "alt_name": null, "wikipedia": null, "old_name": null, "evacuation_center": null, "emergency:social_facility:source": null, "emergency:social_facility:id": null, "emergency:social_facility:for": null, "emergency:social_facility:association_villages": null, "emergency:social_facility": null, "emergency:shelter_type": null, "emergency:amenity": null, "emergency": null, "official_name": null, "fee": null, "fax": null, "short_name": null, "barrier": null, "addr:full": null, "wikidata": null, "wheelchair": null, "website": null, "type": null, "phone": null, "operator": null, "name:zh": null, "name:en": null, "name": null, "grades": null, "addr:street": null, "addr:postcode": null, "addr:place": null, "addr:housenumber": null, "addr:district": null, "addr:country": null, "addr:city": null }, "geometry": { "type": "MultiPolygon", "coordinates": [ [ [ [ 121.7524574, 25.1338072 ], [ 121.7526921, 25.133822 ], [ 121.7526757, 25.1340048 ], [ 121.7524399, 25.1339858 ], [ 121.7524574, 25.1338072 ] ] ] ] } },
{ "type": "Feature", "properties": { "full_id": "w534329220", "osm_id": "534329220", "osm_type": "way", "amenity": null, "building": "school", "leisure": null, "operator:type": null, "addr:province": null, "start_date": null, "適合避難弱者安置": null, "災民收容所編號": null, "服務里別": null, "容納面積(室內)": null, "capacity": null, "addr:village": null, "denomination": null, "addr:full:en": null, "religion": null, "old_name:zh": null, "old_name:en": null, "official_ref": null, "email": null, "name:nan-TL": null, "name:nan-POJ": null, "name:nan-HJ": null, "name:nan": null, "full_name": null, "alt_name": null, "wikipedia": null, "old_name": null, "evacuation_center": null, "emergency:social_facility:source": null, "emergency:social_facility:id": null, "emergency:social_facility:for": null, "emergency:social_facility:association_villages": null, "emergency:social_facility": null, "emergency:shelter_type": null, "emergency:amenity": null, "emergency": null, "official_name": null, "fee": null, "fax": null, "short_name": null, "barrier": null, "addr:full": null, "wikidata": null, "wheelchair": null, "website": null, "type": null, "phone": null, "operator": null, "name:zh": null, "name:en": null, "name": null, "grades": null, "addr:street": "中山一路189巷", "addr:postcode": null, "addr:place": null, "addr:housenumber": "135", "addr:district": "中山區", "addr:country": null, "addr:city": "基隆市" }, "geometry": { "type": "MultiPolygon", "coordinates": [ [ [ [ 121.7367643, 25.1340789 ], [ 121.7368537, 25.134029 ], [ 121.7373805, 25.1348018 ], [ 121.7372911, 25.1348518 ], [ 121.7367643, 25.1340789 ] ] ] ] } },
{ "type": "Feature", "properties": { "full_id": "w534329222", "osm_id": "534329222", "osm_type": "way", "amenity": null, "building": "school", "leisure": null, "operator:type": null, "addr:province": null, "start_date": null, "適合避難弱者安置": null, "災民收容所編號": null, "服務里別": null, "容納面積(室內)": null, "capacity": null, "addr:village": null, "denomination": null, "addr:full:en": null, "religion": null, "old_name:zh": null, "old_name:en": null, "official_ref": null, "email": null, "name:nan-TL": null, "name:nan-POJ": null, "name:nan-HJ": null, "name:nan": null, "full_name": null, "alt_name": null, "wikipedia": null, "old_name": null, "evacuation_center": null, "emergency:social_facility:source": null, "emergency:social_facility:id": null, "emergency:social_facility:for": null, "emergency:social_facility:association_villages": null, "emergency:social_facility": null, "emergency:shelter_type": null, "emergency:amenity": null, "emergency": null, "official_name": null, "fee": null, "fax": null, "short_name": null, "barrier": null, "addr:full": null, "wikidata": null, "wheelchair": null, "website": null, "type": null, "phone": null, "operator": null, "name:zh": null, "name:en": null, "name": null, "grades": null, "addr:street": null, "addr:postcode": null, "addr:place": null, "addr:housenumber": null, "addr:district": null, "addr:country": null, "addr:city": null }, "geometry": { "type": "MultiPolygon", "coordinates": [ [ [ [ 121.7367082, 25.1341702 ], [ 121.7369519, 25.1345285 ], [ 121.7368556, 25.1345822 ], [ 121.7366118, 25.1342239 ], [ 121.7367082, 25.1341702 ] ] ] ] } },
{ "type": "Feature", "properties": { "full_id": "w537644568", "osm_id": "537644568", "osm_type": "way", "amenity": "school", "building": null, "leisure": null, "operator:type": null, "addr:province": null, "start_date": null, "適合避難弱者安置": null, "災民收容所編號": null, "服務里別": null, "容納面積(室內)": null, "capacity": null, "addr:village": null, "denomination": null, "addr:full:en": null, "religion": null, "old_name:zh": null, "old_name:en": null, "official_ref": null, "email": null, "name:nan-TL": null, "name:nan-POJ": null, "name:nan-HJ": null, "name:nan": null, "full_name": null, "alt_name": null, "wikipedia": null, "old_name": null, "evacuation_center": null, "emergency:social_facility:source": null, "emergency:social_facility:id": null, "emergency:social_facility:for": null, "emergency:social_facility:association_villages": null, "emergency:social_facility": null, "emergency:shelter_type": null, "emergency:amenity": null, "emergency": null, "official_name": null, "fee": null, "fax": null, "short_name": null, "barrier": null, "addr:full": null, "wikidata": null, "wheelchair": null, "website": "https://ccps.kl.edu.tw/", "type": null, "phone": null, "operator": null, "name:zh": "基隆市中正區中正國民小學", "name:en": "Chung Cheng Elementary School", "name": "中正國小", "grades": "1-6", "addr:street": "中船路36巷", "addr:postcode": "20242", "addr:place": "中船里", "addr:housenumber": "4", "addr:district": "中正區", "addr:country": null, "addr:city": "基隆市" }, "geometry": { "type": "MultiPolygon", "coordinates": [ [ [ [ 121.7508717, 25.1362642 ], [ 121.750824, 25.1362121 ], [ 121.7509606, 25.1360641 ], [ 121.7510646, 25.1359183 ], [ 121.7511381, 25.1358432 ], [ 121.7512012, 25.1357544 ], [ 121.7512455, 25.1357618 ], [ 121.7514311, 25.1355134 ], [ 121.7515912, 25.1352898 ], [ 121.7516779, 25.1353298 ], [ 121.7517186, 25.1352721 ], [ 121.7517239, 25.1351792 ], [ 121.7515859, 25.1349565 ], [ 121.7514302, 25.1350222 ], [ 121.7514532, 25.1350975 ], [ 121.7513046, 25.1350302 ], [ 121.7512249, 25.1351904 ], [ 121.7510692, 25.1351247 ], [ 121.7508002, 25.1351792 ], [ 121.7506144, 25.1355653 ], [ 121.7504233, 25.1354932 ], [ 121.7503525, 25.1355317 ], [ 121.7503207, 25.1355893 ], [ 121.7503614, 25.1356037 ], [ 121.7502569, 25.1358553 ], [ 121.7503189, 25.1358761 ], [ 121.7506739, 25.1362029 ], [ 121.75074, 25.1362434 ], [ 121.7507922, 25.1363084 ], [ 121.7508717, 25.1362642 ] ] ] ] } },
{ "type": "Feature", "properties": { "full_id": "w548729444", "osm_id": "548729444", "osm_type": "way", "amenity": "school", "building": null, "leisure": null, "operator:type": null, "addr:province": null, "start_date": null, "適合避難弱者安置": null, "災民收容所編號": null, "服務里別": null, "容納面積(室內)": null, "capacity": null, "addr:village": null, "denomination": null, "addr:full:en": null, "religion": null, "old_name:zh": null, "old_name:en": null, "official_ref": null, "email": null, "name:nan-TL": null, "name:nan-POJ": null, "name:nan-HJ": null, "name:nan": null, "full_name": null, "alt_name": null, "wikipedia": null, "old_name": null, "evacuation_center": null, "emergency:social_facility:source": null, "emergency:social_facility:id": null, "emergency:social_facility:for": null, "emergency:social_facility:association_villages": null, "emergency:social_facility": null, "emergency:shelter_type": null, "emergency:amenity": null, "emergency": null, "official_name": "基隆市安樂區隆聖國民小學", "fee": null, "fax": "+886 2 2432 3409", "short_name": null, "barrier": null, "addr:full": "204基隆市安樂區武隆街107號", "wikidata": null, "wheelchair": null, "website": "https://www.lsps.kl.edu.tw/", "type": null, "phone": "+886 2 2431 1480", "operator": null, "name:zh": "隆聖國小", "name:en": "Long Shen Elementary School", "name": "隆聖國小", "grades": "1-6", "addr:street": "武隆街", "addr:postcode": "204", "addr:place": null, "addr:housenumber": "107", "addr:district": "安樂區", "addr:country": null, "addr:city": "基隆市" }, "geometry": { "type": "MultiPolygon", "coordinates": [ [ [ [ 121.6938132, 25.1555596 ], [ 121.6945428, 25.1560112 ], [ 121.694237, 25.1566424 ], [ 121.6931963, 25.1568075 ], [ 121.6925633, 25.1565113 ], [ 121.6931641, 25.1556907 ], [ 121.6938132, 25.1555596 ] ] ] ] } },
{ "type": "Feature", "properties": { "full_id": "w1061582712", "osm_id": "1061582712", "osm_type": "way", "amenity": "school", "building": null, "leisure": null, "operator:type": null, "addr:province": null, "start_date": null, "適合避難弱者安置": null, "災民收容所編號": null, "服務里別": null, "容納面積(室內)": null, "capacity": null, "addr:village": null, "denomination": null, "addr:full:en": null, "religion": null, "old_name:zh": null, "old_name:en": null, "official_ref": null, "email": null, "name:nan-TL": null, "name:nan-POJ": null, "name:nan-HJ": null, "name:nan": null, "full_name": null, "alt_name": null, "wikipedia": null, "old_name": null, "evacuation_center": null, "emergency:social_facility:source": null, "emergency:social_facility:id": null, "emergency:social_facility:for": null, "emergency:social_facility:association_villages": null, "emergency:social_facility": null, "emergency:shelter_type": null, "emergency:amenity": null, "emergency": null, "official_name": null, "fee": null, "fax": null, "short_name": null, "barrier": null, "addr:full": null, "wikidata": null, "wheelchair": null, "website": null, "type": null, "phone": null, "operator": null, "name:zh": null, "name:en": null, "name": "忠孝國小", "grades": "1-6", "addr:street": null, "addr:postcode": null, "addr:place": null, "addr:housenumber": null, "addr:district": null, "addr:country": null, "addr:city": null }, "geometry": { "type": "MultiPolygon", "coordinates": [ [ [ [ 121.7667145, 25.1492804 ], [ 121.7666999, 25.1486616 ], [ 121.7674755, 25.1486466 ], [ 121.7674901, 25.1492655 ], [ 121.7667145, 25.1492804 ] ] ] ] } }
]
}
