{
  "type": "FeatureCollection",
  "generator": "overpass-ide",
  "copyright": "The data included in this document is from www.openstreetmap.org. The data is made available under ODbL.",
  "timestamp": "2022-07-26T05:53:57Z",
  "features": [
    {
      "type": "Feature",
      "properties": {
        "@id": "way/73750292",
        "amenity": "fuel",
        "brand": "台灣中油",
        "brand:en": "CPC Corporation, Taiwan",
        "brand:wikidata": "Q21527177",
        "brand:wikipedia": "en:CPC Corporation, Taiwan",
        "brand:zh": "台灣中油",
        "name": "台灣中",
        "name:en": "CPC Corporation, Taiwan",
        "name:zh": "台灣中油",
        "operator": "CPC"
      },
      "geometry": {
        "type": "Polygon",
        "coordinates": [
          [
            [
              121.604163,
              25.0543068
            ],
            [
              121.6042207,
              25.0540308
            ],
            [
              121.6049771,
              25.0541607
            ],
            [
              121.6049194,
              25.0544367
            ],
            [
              121.604163,
              25.0543068
            ]
          ]
        ]
      },
      "id": "way/73750292"
    },
    {
      "type": "Feature",
      "properties": {
        "@id": "way/246307720",
        "addr:city": "臺北市",
        "addr:country": "TW",
        "addr:district": "中正區",
        "addr:housenumber": "11",
        "addr:postcode": "10049",
        "addr:street": "林森北路",
        "amenity": "fuel",
        "branch": "林森北路站",
        "brand": "台灣中油",
        "brand:en": "CPC Corporation, Taiwan",
        "brand:wikidata": "Q698024",
        "brand:wikipedia": "en:CPC Corporation",
        "brand:zh": "台灣中油",
        "fuel:biodiesel": "no",
        "fuel:e3": "yes",
        "fuel:octane_92": "yes",
        "fuel:octane_95": "yes",
        "fuel:octane_98": "yes",
        "name": "台灣中油",
        "name:en": "CPC Corporation, Taiwan",
        "name:zh": "台灣中油",
        "opening_hours": "24/7",
        "operator": "台灣中油股份有限公司",
        "phone": "+886-2-2341-0686",
        "website": "http://new.cpc.com.tw/"
      },
      "geometry": {
        "type": "Polygon",
        "coordinates": [
          [
            [
              121.5237667,
              25.0458102
            ],
            [
              121.5239964,
              25.0457525
            ],
            [
              121.5241086,
              25.0461327
            ],
            [
              121.5239168,
              25.0461763
            ],
            [
              121.5238629,
              25.0461551
            ],
            [
              121.5238212,
              25.0459884
            ],
            [
              121.5237667,
              25.0458102
            ]
          ]
        ]
      },
      "id": "way/246307720"
    },
    {
      "type": "Feature",
      "properties": {
        "@id": "way/256810940",
        "amenity": "fuel",
        "building": "yes",
        "name": "中油 直營",
        "operator": "中油"
      },
      "geometry": {
        "type": "Polygon",
        "coordinates": [
          [
            [
              121.5025514,
              25.1196439
            ],
            [
              121.502479,
              25.1195767
            ],
            [
              121.502206,
              25.1193256
            ],
            [
              121.5022939,
              25.1192473
            ],
            [
              121.5025649,
              25.1194966
            ],
            [
              121.5026396,
              25.119566
            ],
            [
              121.5025514,
              25.1196439
            ]
          ]
        ]
      },
      "id": "way/256810940"
    },
    {
      "type": "Feature",
      "properties": {
        "@id": "way/259671983",
        "addr:city": "台北市",
        "addr:country": "TW",
        "addr:district": "士林區",
        "addr:housenumber": "40",
        "addr:postcode": "111",
        "addr:street": "至誠路二段",
        "amenity": "fuel",
        "name": "芝山加油站",
        "phone": "+886 2 2832 0320"
      },
      "geometry": {
        "type": "Polygon",
        "coordinates": [
          [
            [
              121.5284687,
              25.1019828
            ],
            [
              121.5285694,
              25.1017352
            ],
            [
              121.5289017,
              25.1018395
            ],
            [
              121.5289598,
              25.1018713
            ],
            [
              121.5289919,
              25.1019143
            ],
            [
              121.5289751,
              25.1019495
            ],
            [
              121.5288776,
              25.1021439
            ],
            [
              121.5284687,
              25.1019828
            ]
          ]
        ]
      },
      "id": "way/259671983"
    },
    {
      "type": "Feature",
      "properties": {
        "@id": "way/259672182",
        "addr:city": "臺北市",
        "addr:country": "TW",
        "addr:district": "士林區",
        "addr:housenumber": "570",
        "addr:postcode": "11111",
        "addr:street": "中山北路五段",
        "amenity": "fuel",
        "branch": "士林站",
        "name": "台塑加油站",
        "opening_hours": "24/7",
        "phone": "+886 2 2881-2342",
        "website": "http://www.cocosure.com.tw/",
        "wheelchair": "yes"
      },
      "geometry": {
        "type": "Polygon",
        "coordinates": [
          [
            [
              121.5281582,
              25.0956425
            ],
            [
              121.5282565,
              25.095327
            ],
            [
              121.5284769,
              25.0953624
            ],
            [
              121.5284143,
              25.0956907
            ],
            [
              121.5281582,
              25.0956425
            ]
          ]
        ]
      },
      "id": "way/259672182"
    },
    {
      "type": "Feature",
      "properties": {
        "@id": "way/261084895",
        "addr:city": "台北市",
        "addr:country": "TW",
        "addr:housenumber": "2",
        "addr:postcode": "116",
        "addr:street": "木柵路三段",
        "amenity": "fuel",
        "name": "中油木柵站",
        "operator": "台灣中油"
      },
      "geometry": {
        "type": "Polygon",
        "coordinates": [
          [
            [
              121.5639908,
              24.9886364
            ],
            [
              121.563953,
              24.9885485
            ],
            [
              121.5640215,
              24.9884068
            ],
            [
              121.5641319,
              24.9883572
            ],
            [
              121.5640594,
              24.9881981
            ],
            [
              121.564222,
              24.9882006
            ],
            [
              121.5643328,
              24.9885122
            ],
            [
              121.5639908,
              24.9886364
            ]
          ]
        ]
      },
      "id": "way/261084895"
    },
    {
      "type": "Feature",
      "properties": {
        "@id": "way/262340854",
        "addr:city": "臺北市",
        "addr:country": "TW",
        "addr:district": "中正區",
        "addr:housenumber": "1",
        "addr:postcode": "100",
        "addr:street": "汀州路三段",
        "alt_name": "中油加油站",
        "amenity": "fuel",
        "branch": "汀州路站",
        "brand": "台灣中油",
        "brand:en": "CPC Corporation, Taiwan",
        "brand:wikidata": "Q698024",
        "brand:wikipedia": "en:CPC Corporation",
        "brand:zh": "台灣中油",
        "fuel:biodiesel": "no",
        "fuel:e3": "no",
        "fuel:octane_92": "yes",
        "fuel:octane_95": "yes",
        "fuel:octane_98": "yes",
        "name": "台灣中油",
        "name:en": "CPC Corporation, Taiwan",
        "name:zh": "台灣中油",
        "opening_hours": "24/7",
        "operator": "台灣中油股份有限公司",
        "phone": "+886 2 2365 5595",
        "toilets:wheelchair": "yes",
        "wheelchair": "yes"
      },
      "geometry": {
        "type": "Polygon",
        "coordinates": [
          [
            [
              121.5259284,
              25.0205541
            ],
            [
              121.5262798,
              25.0207857
            ],
            [
              121.5258733,
              25.0208355
            ],
            [
              121.5257846,
              25.0207106
            ],
            [
              121.5259284,
              25.0205541
            ]
          ]
        ]
      },
      "id": "way/262340854"
    },
    {
      "type": "Feature",
      "properties": {
        "@id": "way/262377511",
        "addr:city": "台北市",
        "addr:country": "TW",
        "addr:district": "士林區",
        "addr:housenumber": "465",
        "addr:postcode": "111",
        "addr:street": "中山北路五段",
        "amenity": "fuel",
        "branch": "福林站",
        "brand": "台灣中油",
        "brand:en": "CPC Corporation, Taiwan",
        "brand:wikidata": "Q698024",
        "brand:wikipedia": "en:CPC Corporation",
        "brand:zh": "台灣中油",
        "name": "台灣中油",
        "name:en": "CPC Corporation, Taiwan",
        "name:zh": "台灣中油",
        "opening_hours": "24/7",
        "operator": "台灣中油",
        "toilets:wheelchair": "yes",
        "wheelchair": "yes"
      },
      "geometry": {
        "type": "Polygon",
        "coordinates": [
          [
            [
              121.5270675,
              25.0929391
            ],
            [
              121.5271197,
              25.0921712
            ],
            [
              121.5275295,
              25.0921754
            ],
            [
              121.5276589,
              25.0929776
            ],
            [
              121.5275002,
              25.0929776
            ],
            [
              121.5274814,
              25.0930155
            ],
            [
              121.5274648,
              25.0930488
            ],
            [
              121.5272029,
              25.0930642
            ],
            [
              121.5271372,
              25.093035
            ],
            [
              121.5270675,
              25.0929391
            ]
          ]
        ]
      },
      "id": "way/262377511"
    },
    {
      "type": "Feature",
      "properties": {
        "@id": "way/263473860",
        "addr:city": "台北市",
        "addr:country": "TW",
        "addr:district": "大安區",
        "addr:full": "台北市大安區仁愛路三段1號",
        "addr:housenumber": "1",
        "addr:street": "仁愛路三段",
        "amenity": "fuel",
        "branch": "新生南路站",
        "brand": "台灣中油",
        "brand:en": "CPC Corporation, Taiwan",
        "brand:wikidata": "Q698024",
        "brand:wikipedia": "en:CPC Corporation",
        "brand:zh": "台灣中油",
        "name": "台灣中油",
        "name:en": "CPC Corporation, Taiwan",
        "name:zh": "台灣中油",
        "phone": "+886 2 2711 2316"
      },
      "geometry": {
        "type": "Polygon",
        "coordinates": [
          [
            [
              121.5330147,
              25.03849
            ],
            [
              121.5330687,
              25.0384363
            ],
            [
              121.5333585,
              25.0384336
            ],
            [
              121.533393,
              25.0384601
            ],
            [
              121.5333997,
              25.0385932
            ],
            [
              121.5333212,
              25.0385959
            ],
            [
              121.5333212,
              25.0386223
            ],
            [
              121.5332914,
              25.0386232
            ],
            [
              121.5332917,
              25.0386286
            ],
            [
              121.5330165,
              25.0386296
            ],
            [
              121.5330147,
              25.03849
            ]
          ]
        ]
      },
      "id": "way/263473860"
    },
    {
      "type": "Feature",
      "properties": {
        "@id": "way/265760961",
        "amenity": "fuel",
        "brand": "台灣中油",
        "brand:en": "CPC Corporation, Taiwan",
        "brand:wikidata": "Q698024",
        "brand:wikipedia": "en:CPC Corporation",
        "brand:zh": "台灣中油",
        "name": "台灣中油",
        "name:en": "CPC Corporation, Taiwan",
        "name:zh": "台灣中油",
        "opening_hours": "24/7",
        "wheelchair": "yes"
      },
      "geometry": {
        "type": "Polygon",
        "coordinates": [
          [
            [
              121.53922,
              25.0463465
            ],
            [
              121.5392996,
              25.0462534
            ],
            [
              121.5393761,
              25.0462418
            ],
            [
              121.5394025,
              25.0460696
            ],
            [
              121.5397805,
              25.0461317
            ],
            [
              121.5397191,
              25.0464236
            ],
            [
              121.53922,
              25.0463465
            ]
          ]
        ]
      },
      "id": "way/265760961"
    },
    {
      "type": "Feature",
      "properties": {
        "@id": "way/265761761",
        "amenity": "fuel",
        "name": "陽光加油站"
      },
      "geometry": {
        "type": "Polygon",
        "coordinates": [
          [
            [
              121.5368211,
              25.0440537
            ],
            [
              121.5368268,
              25.0445975
            ],
            [
              121.5364557,
              25.044615
            ],
            [
              121.5364289,
              25.0440488
            ],
            [
              121.5368211,
              25.0440537
            ]
          ]
        ]
      },
      "id": "way/265761761"
    },
    {
      "type": "Feature",
      "properties": {
        "@id": "way/288169326",
        "addr:city": "臺北市",
        "addr:country": "TW",
        "addr:district": "文山區",
        "addr:housenumber": "140",
        "addr:postcode": "11674",
        "addr:street": "羅斯福路六段",
        "amenity": "fuel",
        "branch": "景美站",
        "brand": "全國加油站",
        "brand:en": "NPC",
        "brand:wikidata": "Q20410455",
        "brand:wikipedia": "zh:全國加油站",
        "brand:zh": "全國加油站",
        "name": "全國加油站",
        "name:en": "NPC",
        "name:zh": "全國加油站",
        "opening_hours": "24/7",
        "operator": "全國加油站股份有限公司",
        "phone": "+886-2-2935-6519"
      },
      "geometry": {
        "type": "Polygon",
        "coordinates": [
          [
            [
              121.5408997,
              24.9962376
            ],
            [
              121.5408649,
              24.9964418
            ],
            [
              121.5405993,
              24.9964102
            ],
            [
              121.5405215,
              24.9963543
            ],
            [
              121.5408407,
              24.9961793
            ],
            [
              121.5408997,
              24.9962376
            ]
          ]
        ]
      },
      "id": "way/288169326"
    },
    {
      "type": "Feature",
      "properties": {
        "@id": "way/294015488",
        "amenity": "fuel",
        "branch": "富陽街站",
        "brand": "台灣中油",
        "brand:en": "CPC Corporation, Taiwan",
        "brand:wikidata": "Q698024",
        "brand:wikipedia": "en:CPC Corporation",
        "brand:zh": "台灣中油",
        "description": "提供柴油",
        "fuel:diesel": "yes",
        "fuel:gasoline": "yes",
        "name": "台灣中油",
        "name:en": "CPC Corporation, Taiwan",
        "name:zh": "台灣中油",
        "opening_hours": "24/7",
        "operator": "台灣中油"
      },
      "geometry": {
        "type": "Polygon",
        "coordinates": [
          [
            [
              121.5568843,
              25.0191603
            ],
            [
              121.5569303,
              25.0186055
            ],
            [
              121.5572777,
              25.0186313
            ],
            [
              121.5572274,
              25.0191879
            ],
            [
              121.5570289,
              25.0191765
            ],
            [
              121.5568843,
              25.0191603
            ]
          ]
        ]
      },
      "id": "way/294015488"
    },
    {
      "type": "Feature",
      "properties": {
        "@id": "way/299324753",
        "amenity": "fuel",
        "name": "長安加油站"
      },
      "geometry": {
        "type": "Polygon",
        "coordinates": [
          [
            [
              121.5312327,
              25.0483804
            ],
            [
              121.5312291,
              25.0481823
            ],
            [
              121.5313655,
              25.0481802
            ],
            [
              121.5313691,
              25.0483783
            ],
            [
              121.5312327,
              25.0483804
            ]
          ]
        ]
      },
      "id": "way/299324753"
    },
    {
      "type": "Feature",
      "properties": {
        "@id": "way/308417770",
        "addr:city": "臺北市",
        "addr:country": "TW",
        "addr:district": "士林區",
        "addr:housenumber": "86",
        "addr:postcode": "111",
        "addr:street": "文林路",
        "amenity": "fuel",
        "brand": "台灣中油",
        "brand:en": "CPC Corporation, Taiwan",
        "brand:wikidata": "Q21527177",
        "brand:wikipedia": "en:CPC Corporation, Taiwan",
        "brand:zh": "台灣中油",
        "name": "台灣中油",
        "name:en": "CPC Corporation, Taiwan",
        "name:zh": "台灣中油",
        "toilets:wheelchair": "yes",
        "wheelchair": "yes",
        "wheelchair:description": "0"
      },
      "geometry": {
        "type": "Polygon",
        "coordinates": [
          [
            [
              121.526158,
              25.0877211
            ],
            [
              121.5259732,
              25.0873479
            ],
            [
              121.52626,
              25.0872399
            ],
            [
              121.5263913,
              25.087431
            ],
            [
              121.5263231,
              25.0874636
            ],
            [
              121.5264017,
              25.0876386
            ],
            [
              121.526158,
              25.0877211
            ]
          ]
        ]
      },
      "id": "way/308417770"
    },
    {
      "type": "Feature",
      "properties": {
        "@id": "way/310105892",
        "addr:city": "台北市",
        "addr:district": "文山區",
        "addr:housenumber": "293",
        "addr:postcode": "116",
        "addr:street": "景興路",
        "amenity": "fuel",
        "branch": "世新站",
        "brand": "台灣中油",
        "brand:en": "CPC Corporation, Taiwan",
        "brand:wikidata": "Q21527177",
        "brand:wikipedia": "en:CPC Corporation, Taiwan",
        "brand:zh": "台灣中油",
        "name": "台灣中油",
        "name:en": "CPC Corporation, Taiwan",
        "name:zh": "台灣中油"
      },
      "geometry": {
        "type": "Polygon",
        "coordinates": [
          [
            [
              121.5424365,
              24.9894146
            ],
            [
              121.5423552,
              24.9892753
            ],
            [
              121.5423153,
              24.9892018
            ],
            [
              121.5423793,
              24.9891747
            ],
            [
              121.542436,
              24.9891544
            ],
            [
              121.5424737,
              24.9891593
            ],
            [
              121.5425902,
              24.9893485
            ],
            [
              121.5424365,
              24.9894146
            ]
          ]
        ]
      },
      "id": "way/310105892"
    },
    {
      "type": "Feature",
      "properties": {
        "@id": "way/314360382",
        "addr:city": "台北市",
        "addr:country": "TW",
        "addr:district": "大安區",
        "addr:floor": "1",
        "addr:full": "台北市大安區和平東路二段2號",
        "addr:housenumber": "2",
        "addr:postcode": "106",
        "addr:street": "和平東路二段",
        "amenity": "fuel",
        "branch": "龍安加油站",
        "brand": "台灣中油",
        "brand:en": "CPC Corporation, Taiwan",
        "brand:wikidata": "Q698024",
        "brand:wikipedia": "en:CPC Corporation",
        "brand:zh": "台灣中油",
        "name": "台灣中油",
        "name:en": "CPC Corporation, Taiwan",
        "name:zh": "台灣中油",
        "operator": "台灣中油"
      },
      "geometry": {
        "type": "Polygon",
        "coordinates": [
          [
            [
              121.5351321,
              25.0258163
            ],
            [
              121.5350482,
              25.0257735
            ],
            [
              121.5350333,
              25.0255963
            ],
            [
              121.535182,
              25.0255871
            ],
            [
              121.5355967,
              25.0255481
            ],
            [
              121.5355977,
              25.0255519
            ],
            [
              121.5356498,
              25.0255407
            ],
            [
              121.5356695,
              25.025636
            ],
            [
              121.5356837,
              25.0257366
            ],
            [
              121.5351321,
              25.0258163
            ]
          ]
        ]
      },
      "id": "way/314360382"
    },
    {
      "type": "Feature",
      "properties": {
        "@id": "way/333290651",
        "amenity": "fuel",
        "name": "中油北投中央北路加油站",
        "phone": "+886 2 2891 3744",
        "website": "http://new.cpc.com.tw/"
      },
      "geometry": {
        "type": "Polygon",
        "coordinates": [
          [
            [
              121.4663957,
              25.1270819
            ],
            [
              121.4663531,
              25.127108
            ],
            [
              121.4662983,
              25.1271707
            ],
            [
              121.4663156,
              25.1272113
            ],
            [
              121.4662333,
              25.1273106
            ],
            [
              121.466076,
              25.1271969
            ],
            [
              121.4659519,
              25.1270884
            ],
            [
              121.4659808,
              25.1270479
            ],
            [
              121.4659153,
              25.1269069
            ],
            [
              121.4660092,
              25.126766
            ],
            [
              121.4663957,
              25.1270819
            ]
          ]
        ]
      },
      "id": "way/333290651"
    },
    {
      "type": "Feature",
      "properties": {
        "@id": "way/333818092",
        "amenity": "fuel",
        "brand": "台灣中油",
        "brand:en": "CPC Corporation, Taiwan",
        "brand:wikidata": "Q698024",
        "brand:wikipedia": "en:CPC Corporation",
        "brand:zh": "台灣中油",
        "name": "台灣中油",
        "name:en": "CPC Corporation, Taiwan",
        "name:zh": "台灣中油",
        "operator": "中國石油"
      },
      "geometry": {
        "type": "Polygon",
        "coordinates": [
          [
            [
              121.5669627,
              25.0412624
            ],
            [
              121.5669981,
              25.0413125
            ],
            [
              121.5672606,
              25.0413082
            ],
            [
              121.5672635,
              25.0414333
            ],
            [
              121.56717,
              25.0414379
            ],
            [
              121.5671491,
              25.0414594
            ],
            [
              121.5671553,
              25.0415873
            ],
            [
              121.5668155,
              25.041597
            ],
            [
              121.5668042,
              25.0412723
            ],
            [
              121.5669627,
              25.0412624
            ]
          ]
        ]
      },
      "id": "way/333818092"
    },
    {
      "type": "Feature",
      "properties": {
        "@id": "way/352194350",
        "amenity": "fuel",
        "brand": "台灣中油",
        "brand:en": "CPC Corporation, Taiwan",
        "brand:wikidata": "Q698024",
        "brand:wikipedia": "en:CPC Corporation",
        "brand:zh": "台灣中油",
        "name": "台灣中油",
        "name:en": "CPC Corporation, Taiwan",
        "name:zh": "台灣中油"
      },
      "geometry": {
        "type": "Polygon",
        "coordinates": [
          [
            [
              121.583252,
              25.0683216
            ],
            [
              121.5833084,
              25.0682557
            ],
            [
              121.5842063,
              25.067839
            ],
            [
              121.5842832,
              25.0679756
            ],
            [
              121.5846669,
              25.068226
            ],
            [
              121.5843653,
              25.0685493
            ],
            [
              121.5842832,
              25.0685983
            ],
            [
              121.583252,
              25.0683216
            ]
          ]
        ]
      },
      "id": "way/352194350"
    },
    {
      "type": "Feature",
      "properties": {
        "@id": "way/358494654",
        "amenity": "fuel",
        "branch": "金山南路站",
        "brand": "台灣中油",
        "brand:en": "CPC Corporation, Taiwan",
        "brand:wikidata": "Q21527177",
        "brand:wikipedia": "en:CPC Corporation, Taiwan",
        "brand:zh": "台灣中油",
        "building": "yes",
        "name": "台灣中油",
        "name:en": "CPC Corporation, Taiwan",
        "name:zh": "台灣中油"
      },
      "geometry": {
        "type": "Polygon",
        "coordinates": [
          [
            [
              121.5271807,
              25.0314234
            ],
            [
              121.5273163,
              25.031406
            ],
            [
              121.5273329,
              25.031512
            ],
            [
              121.5271973,
              25.0315295
            ],
            [
              121.5271807,
              25.0314234
            ]
          ]
        ]
      },
      "id": "way/358494654"
    },
    {
      "type": "Feature",
      "properties": {
        "@id": "way/361260916",
        "addr:city": "台北市",
        "addr:country": "TW",
        "addr:district": "文山區",
        "addr:full": "台北市文山區興隆路一段13號",
        "addr:housenumber": "13",
        "addr:postcode": "116",
        "addr:street": "興隆路一段",
        "amenity": "fuel",
        "branch": "萬隆站",
        "brand": "台灣中油",
        "brand:en": "CPC Corporation, Taiwan",
        "brand:wikidata": "Q21527177",
        "brand:wikipedia": "en:CPC Corporation, Taiwan",
        "brand:zh": "台灣中油",
        "description": "管線汱換工程",
        "name": "台灣中油",
        "name:en": "CPC Corporation, Taiwan",
        "name:zh": "台灣中油",
        "opening_hours": "24/7",
        "operator": "台灣中油",
        "phone": "+886 2 2931 2829",
        "source": "Bing",
        "toilets:wheelchair": "yes",
        "wheelchair": "yes"
      },
      "geometry": {
        "type": "Polygon",
        "coordinates": [
          [
            [
              121.5391464,
              25.0044269
            ],
            [
              121.5396448,
              25.00436
            ],
            [
              121.5396831,
              25.0045616
            ],
            [
              121.5394835,
              25.0048485
            ],
            [
              121.5391977,
              25.0046567
            ],
            [
              121.5391889,
              25.0046309
            ],
            [
              121.5391737,
              25.0046203
            ],
            [
              121.5391464,
              25.0044269
            ]
          ]
        ]
      },
      "id": "way/361260916"
    },
    {
      "type": "Feature",
      "properties": {
        "@id": "way/362384505",
        "addr:city": "台北市",
        "addr:country": "TW",
        "addr:district": "北投區",
        "addr:housenumber": "303",
        "addr:postcode": "112",
        "addr:street": "承德路七段",
        "amenity": "fuel",
        "building": "yes",
        "name": "台塑台亞承德路加油站",
        "operator": "台亞石油"
      },
      "geometry": {
        "type": "Polygon",
        "coordinates": [
          [
            [
              121.5039431,
              25.116924
            ],
            [
              121.503796,
              25.1168416
            ],
            [
              121.5037376,
              25.1168479
            ],
            [
              121.5035952,
              25.1168078
            ],
            [
              121.5035672,
              25.1167591
            ],
            [
              121.5034995,
              25.1167528
            ],
            [
              121.5038777,
              25.1164208
            ],
            [
              121.5039151,
              25.1163617
            ],
            [
              121.5042373,
              25.1164568
            ],
            [
              121.5041953,
              25.1166999
            ],
            [
              121.5039431,
              25.116924
            ]
          ]
        ]
      },
      "id": "way/362384505"
    },
    {
      "type": "Feature",
      "properties": {
        "@id": "way/362384506",
        "addr:city": "臺北市",
        "addr:country": "TW",
        "addr:district": "士林區",
        "addr:housenumber": "3",
        "addr:postcode": "111",
        "addr:street": "格致路",
        "amenity": "fuel",
        "branch": "陽明山站",
        "brand": "台灣中油",
        "brand:en": "CPC Corporation, Taiwan",
        "brand:wikidata": "Q21527177",
        "brand:wikipedia": "en:CPC Corporation, Taiwan",
        "brand:zh": "台灣中油",
        "name": "台灣中油",
        "name:en": "CPC Corporation, Taiwan",
        "name:zh": "台灣中油",
        "opening_hours": "24/7",
        "operator": "台灣中油"
      },
      "geometry": {
        "type": "Polygon",
        "coordinates": [
          [
            [
              121.5460371,
              25.1356734
            ],
            [
              121.5456407,
              25.1355997
            ],
            [
              121.5457292,
              25.1352232
            ],
            [
              121.5459291,
              25.135204
            ],
            [
              121.5460371,
              25.1356734
            ]
          ]
        ]
      },
      "id": "way/362384506"
    },
    {
      "type": "Feature",
      "properties": {
        "@id": "way/366333615",
        "amenity": "fuel",
        "brand": "台塑石油",
        "name": "台塑政大加油站",
        "operator": "台塑石油"
      },
      "geometry": {
        "type": "Polygon",
        "coordinates": [
          [
            [
              121.5707397,
              24.9879708
            ],
            [
              121.5709001,
              24.9879774
            ],
            [
              121.5710283,
              24.9880064
            ],
            [
              121.5710254,
              24.9883063
            ],
            [
              121.5709817,
              24.9883697
            ],
            [
              121.5708184,
              24.9883578
            ],
            [
              121.5708024,
              24.9883103
            ],
            [
              121.5707485,
              24.9883103
            ],
            [
              121.5707397,
              24.9879708
            ]
          ]
        ]
      },
      "id": "way/366333615"
    },
    {
      "type": "Feature",
      "properties": {
        "@id": "way/366693813",
        "amenity": "fuel",
        "toilets:wheelchair": "yes",
        "wheelchair": "limited"
      },
      "geometry": {
        "type": "Polygon",
        "coordinates": [
          [
            [
              121.5598731,
              25.0850311
            ],
            [
              121.5601324,
              25.0849518
            ],
            [
              121.5603303,
              25.0852903
            ],
            [
              121.5601224,
              25.085381
            ],
            [
              121.5598731,
              25.0850311
            ]
          ]
        ]
      },
      "id": "way/366693813"
    },
    {
      "type": "Feature",
      "properties": {
        "@id": "way/370741914",
        "amenity": "fuel",
        "brand": "台灣中油",
        "brand:en": "CPC Corporation, Taiwan",
        "brand:wikidata": "Q21527177",
        "brand:wikipedia": "en:CPC Corporation, Taiwan",
        "brand:zh": "台灣中油",
        "fuel:diesel": "yes",
        "fuel:octane_92": "yes",
        "fuel:octane_95": "yes",
        "fuel:octane_98": "yes",
        "name": "台灣中油",
        "name:en": "CPC Corporation, Taiwan",
        "name:zh": "台灣中油"
      },
      "geometry": {
        "type": "Polygon",
        "coordinates": [
          [
            [
              121.5557498,
              25.0329369
            ],
            [
              121.555128,
              25.0329482
            ],
            [
              121.5552054,
              25.0328287
            ],
            [
              121.5553244,
              25.0327227
            ],
            [
              121.5554213,
              25.0327175
            ],
            [
              121.5554931,
              25.0326573
            ],
            [
              121.5557428,
              25.0326344
            ],
            [
              121.5557498,
              25.0329369
            ]
          ]
        ]
      },
      "id": "way/370741914"
    },
    {
      "type": "Feature",
      "properties": {
        "@id": "way/419000204",
        "addr:city": "臺北市",
        "addr:country": "TW",
        "addr:district": "大安區",
        "addr:housenumber": "75之1",
        "addr:postcode": "106",
        "addr:street": "建國南路二段",
        "amenity": "fuel",
        "name": "中油加盟勝利加油站"
      },
      "geometry": {
        "type": "Polygon",
        "coordinates": [
          [
            [
              121.5377438,
              25.0309416
            ],
            [
              121.5378906,
              25.0309402
            ],
            [
              121.5378921,
              25.0310705
            ],
            [
              121.5377453,
              25.0310719
            ],
            [
              121.5377438,
              25.0309416
            ]
          ]
        ]
      },
      "id": "way/419000204"
    },
    {
      "type": "Feature",
      "properties": {
        "@id": "way/419000208",
        "amenity": "fuel",
        "brand": "全國加油站",
        "brand:en": "NPC",
        "brand:wikidata": "Q20410455",
        "brand:wikipedia": "zh:全國加油站",
        "brand:zh": "全國加油站",
        "name": "全國加油站",
        "name:en": "NPC",
        "name:zh": "全國加油站"
      },
      "geometry": {
        "type": "Polygon",
        "coordinates": [
          [
            [
              121.5781803,
              25.0664093
            ],
            [
              121.578276,
              25.0661733
            ],
            [
              121.5782331,
              25.0661223
            ],
            [
              121.5783243,
              25.0659012
            ],
            [
              121.5786086,
              25.06603
            ],
            [
              121.5786757,
              25.0660907
            ],
            [
              121.5786636,
              25.0661928
            ],
            [
              121.5785308,
              25.0664953
            ],
            [
              121.5784625,
              25.0665074
            ],
            [
              121.5781803,
              25.0664093
            ]
          ]
        ]
      },
      "id": "way/419000208"
    },
    {
      "type": "Feature",
      "properties": {
        "@id": "way/419823265",
        "amenity": "fuel"
      },
      "geometry": {
        "type": "Polygon",
        "coordinates": [
          [
            [
              121.530312,
              25.0508315
            ],
            [
              121.5303143,
              25.0509622
            ],
            [
              121.5302041,
              25.0509638
            ],
            [
              121.5302018,
              25.0508331
            ],
            [
              121.530312,
              25.0508315
            ]
          ]
        ]
      },
      "id": "way/419823265"
    },
    {
      "type": "Feature",
      "properties": {
        "@id": "way/442098677",
        "amenity": "fuel",
        "branch": "辛亥加油站",
        "brand": "台灣中油",
        "brand:en": "CPC Corporation, Taiwan",
        "brand:wikidata": "Q698024",
        "brand:wikipedia": "en:CPC Corporation",
        "brand:zh": "台灣中油",
        "name": "台灣中油",
        "name:en": "CPC Corporation, Taiwan",
        "name:zh": "台灣中油",
        "wheelchair": "yes"
      },
      "geometry": {
        "type": "Polygon",
        "coordinates": [
          [
            [
              121.5580609,
              25.0062214
            ],
            [
              121.5579387,
              25.0062636
            ],
            [
              121.5578595,
              25.0062984
            ],
            [
              121.5575882,
              25.0061244
            ],
            [
              121.5577418,
              25.0059699
            ],
            [
              121.5580609,
              25.0062214
            ]
          ]
        ]
      },
      "id": "way/442098677"
    },
    {
      "type": "Feature",
      "properties": {
        "@id": "way/458958320",
        "amenity": "fuel",
        "name": "中國石油",
        "short_name": "中油",
        "short_name:en": "CPC"
      },
      "geometry": {
        "type": "Polygon",
        "coordinates": [
          [
            [
              121.5503515,
              25.0839716
            ],
            [
              121.5506463,
              25.083917
            ],
            [
              121.5506751,
              25.0840865
            ],
            [
              121.5507217,
              25.0842237
            ],
            [
              121.5504361,
              25.0843082
            ],
            [
              121.5503515,
              25.0839716
            ]
          ]
        ]
      },
      "id": "way/458958320"
    },
    {
      "type": "Feature",
      "properties": {
        "@id": "way/474138014",
        "amenity": "fuel",
        "name": "松山路加油站",
        "network": "中國石油",
        "wheelchair": "yes"
      },
      "geometry": {
        "type": "Polygon",
        "coordinates": [
          [
            [
              121.5776796,
              25.0397004
            ],
            [
              121.5777102,
              25.0397381
            ],
            [
              121.5777088,
              25.0398183
            ],
            [
              121.577556,
              25.0398025
            ],
            [
              121.5776796,
              25.0397004
            ]
          ]
        ]
      },
      "id": "way/474138014"
    },
    {
      "type": "Feature",
      "properties": {
        "@id": "way/490908734",
        "amenity": "fuel",
        "building": "yes",
        "name": "新生北路加油站",
        "opening_hours": "24/7",
        "operator": "中國石油"
      },
      "geometry": {
        "type": "Polygon",
        "coordinates": [
          [
            [
              121.528253,
              25.0564796
            ],
            [
              121.52821,
              25.0566493
            ],
            [
              121.5281262,
              25.0566354
            ],
            [
              121.5281318,
              25.0566104
            ],
            [
              121.5280544,
              25.0565983
            ],
            [
              121.5280731,
              25.0565267
            ],
            [
              121.5278742,
              25.056486
            ],
            [
              121.5278987,
              25.056403
            ],
            [
              121.5280843,
              25.0564428
            ],
            [
              121.5281051,
              25.056359
            ],
            [
              121.5281711,
              25.0563798
            ],
            [
              121.5281539,
              25.0564598
            ],
            [
              121.528253,
              25.0564796
            ]
          ]
        ]
      },
      "id": "way/490908734"
    },
    {
      "type": "Feature",
      "properties": {
        "@id": "way/493694568",
        "amenity": "fuel",
        "brand": "台灣中油",
        "brand:en": "CPC Corporation, Taiwan",
        "brand:wikidata": "Q698024",
        "brand:wikipedia": "en:CPC Corporation",
        "brand:zh": "台灣中油",
        "name": "台灣中油",
        "name:en": "CPC Corporation, Taiwan",
        "name:zh": "台灣中油"
      },
      "geometry": {
        "type": "Polygon",
        "coordinates": [
          [
            [
              121.5139815,
              25.0628193
            ],
            [
              121.5139662,
              25.0627467
            ],
            [
              121.5140707,
              25.0627315
            ],
            [
              121.5140676,
              25.0627188
            ],
            [
              121.5141687,
              25.0627002
            ],
            [
              121.5141691,
              25.0626904
            ],
            [
              121.5145283,
              25.0626234
            ],
            [
              121.5146128,
              25.0628102
            ],
            [
              121.5145558,
              25.0628054
            ],
            [
              121.5139815,
              25.0628193
            ]
          ]
        ]
      },
      "id": "way/493694568"
    },
    {
      "type": "Feature",
      "properties": {
        "@id": "way/503005921",
        "addr:city": "臺北市",
        "addr:country": "TW",
        "addr:district": "內湖區",
        "addr:housenumber": "284",
        "addr:postcode": "114",
        "addr:street": "安康路",
        "amenity": "fuel",
        "fuel:diesel": "yes",
        "fuel:lpg": "yes",
        "fuel:octane_92": "yes",
        "fuel:octane_95": "yes",
        "name": "中油 安康加油加氣站",
        "opening_hours": "Mo-Su 07:00-22:00",
        "operator": "中油"
      },
      "geometry": {
        "type": "Polygon",
        "coordinates": [
          [
            [
              121.6063096,
              25.0642252
            ],
            [
              121.6063324,
              25.0640817
            ],
            [
              121.6064771,
              25.0641005
            ],
            [
              121.6064543,
              25.0642441
            ],
            [
              121.6063096,
              25.0642252
            ]
          ]
        ]
      },
      "id": "way/503005921"
    },
    {
      "type": "Feature",
      "properties": {
        "@id": "way/503832005",
        "amenity": "fuel",
        "brand": "中油",
        "name": "台灣中油基隆路站",
        "operator": "中油"
      },
      "geometry": {
        "type": "Polygon",
        "coordinates": [
          [
            [
              121.5559264,
              25.0274895
            ],
            [
              121.5560249,
              25.0276
            ],
            [
              121.5558921,
              25.0277009
            ],
            [
              121.5558103,
              25.0277155
            ],
            [
              121.5557848,
              25.027594
            ],
            [
              121.5559264,
              25.0274895
            ]
          ]
        ]
      },
      "id": "way/503832005"
    },
    {
      "type": "Feature",
      "properties": {
        "@id": "way/523383650",
        "amenity": "fuel",
        "brand": "台灣中油",
        "brand:en": "CPC Corporation, Taiwan",
        "brand:wikidata": "Q698024",
        "brand:wikipedia": "en:CPC Corporation",
        "brand:zh": "台灣中油",
        "name": "台灣中油",
        "name:en": "CPC Corporation, Taiwan",
        "name:zh": "台灣中油",
        "toilets:wheelchair": "yes",
        "wheelchair": "yes"
      },
      "geometry": {
        "type": "Polygon",
        "coordinates": [
          [
            [
              121.5034098,
              25.0382212
            ],
            [
              121.5034671,
              25.0385138
            ],
            [
              121.5032471,
              25.0385492
            ],
            [
              121.5031898,
              25.0382565
            ],
            [
              121.5034098,
              25.0382212
            ]
          ]
        ]
      },
      "id": "way/523383650"
    },
    {
      "type": "Feature",
      "properties": {
        "@id": "way/527537000",
        "amenity": "fuel",
        "name": "台亞 加油站"
      },
      "geometry": {
        "type": "Polygon",
        "coordinates": [
          [
            [
              121.5507064,
              25.0628853
            ],
            [
              121.5503479,
              25.0628756
            ],
            [
              121.5503506,
              25.0628268
            ],
            [
              121.5505284,
              25.0626202
            ],
            [
              121.5507246,
              25.0625516
            ],
            [
              121.5507064,
              25.0628853
            ]
          ]
        ]
      },
      "id": "way/527537000"
    },
    {
      "type": "Feature",
      "properties": {
        "@id": "way/547170578",
        "amenity": "fuel",
        "branch": "福華站",
        "brand": "台塑石油",
        "brand:en": "Formosa Petrochemical Corporation",
        "brand:wikidata": "Q1437742",
        "brand:wikipedia": "zh:台塑石化",
        "brand:zh": "台塑石油",
        "name": "台塑石油",
        "name:en": "Formosa Petrochemical Corporation",
        "name:zh": "台塑石油"
      },
      "geometry": {
        "type": "Polygon",
        "coordinates": [
          [
            [
              121.5541623,
              25.0008862
            ],
            [
              121.5538838,
              25.0009825
            ],
            [
              121.5537685,
              25.0007139
            ],
            [
              121.5540527,
              25.0006125
            ],
            [
              121.5541623,
              25.0008862
            ]
          ]
        ]
      },
      "id": "way/547170578"
    },
    {
      "type": "Feature",
      "properties": {
        "@id": "way/613034540",
        "amenity": "fuel",
        "name": "山隆華中站"
      },
      "geometry": {
        "type": "Polygon",
        "coordinates": [
          [
            [
              121.4985528,
              25.0219493
            ],
            [
              121.4985496,
              25.0219453
            ],
            [
              121.4985592,
              25.0219397
            ],
            [
              121.4985848,
              25.0218918
            ],
            [
              121.4985909,
              25.0218885
            ],
            [
              121.4986032,
              25.0218819
            ],
            [
              121.498599,
              25.0218761
            ],
            [
              121.4986128,
              25.0218412
            ],
            [
              121.4986317,
              25.0218314
            ],
            [
              121.4986491,
              25.0218224
            ],
            [
              121.4987569,
              25.021991
            ],
            [
              121.4986833,
              25.0220294
            ],
            [
              121.498575,
              25.0220122
            ],
            [
              121.4985446,
              25.0219645
            ],
            [
              121.4985458,
              25.0219623
            ],
            [
              121.4985528,
              25.0219493
            ]
          ]
        ]
      },
      "id": "way/613034540"
    },
    {
      "type": "Feature",
      "properties": {
        "@id": "way/674931329",
        "amenity": "fuel",
        "name": "中油建國北路站"
      },
      "geometry": {
        "type": "Polygon",
        "coordinates": [
          [
            [
              121.5365187,
              25.0656192
            ],
            [
              121.5363095,
              25.0654515
            ],
            [
              121.5364624,
              25.0652985
            ],
            [
              121.5366073,
              25.0650531
            ],
            [
              121.5368379,
              25.0651648
            ],
            [
              121.536784,
              25.065253
            ],
            [
              121.5366663,
              25.0654491
            ],
            [
              121.5365187,
              25.0656192
            ]
          ]
        ]
      },
      "id": "way/674931329"
    },
    {
      "type": "Feature",
      "properties": {
        "@id": "way/746296432",
        "amenity": "fuel",
        "branch": "光復北路站",
        "brand": "台灣中油",
        "brand:en": "CPC Corporation, Taiwan",
        "brand:wikidata": "Q21527177",
        "brand:wikipedia": "en:CPC Corporation, Taiwan",
        "brand:zh": "台灣中油",
        "name": "台灣中油",
        "name:en": "CPC Corporation, Taiwan",
        "name:zh": "台灣中油"
      },
      "geometry": {
        "type": "Polygon",
        "coordinates": [
          [
            [
              121.5580044,
              25.0492772
            ],
            [
              121.5584072,
              25.0494056
            ],
            [
              121.5584072,
              25.0495842
            ],
            [
              121.558013,
              25.0495866
            ],
            [
              121.5580044,
              25.0492772
            ]
          ]
        ]
      },
      "id": "way/746296432"
    },
    {
      "type": "Feature",
      "properties": {
        "@id": "way/812596121",
        "alt_name": "濱江大直加油加氣站",
        "amenity": "fuel",
        "brand": "台灣中油",
        "brand:en": "CPC Corporation, Taiwan",
        "brand:wikidata": "Q21527177",
        "brand:wikipedia": "en:CPC Corporation, Taiwan",
        "brand:zh": "台灣中油",
        "name": "台灣中油",
        "name:en": "CPC Corporation, Taiwan",
        "name:zh": "台灣中油",
        "operator": "台灣中油"
      },
      "geometry": {
        "type": "Polygon",
        "coordinates": [
          [
            [
              121.5522462,
              25.072529
            ],
            [
              121.5523884,
              25.0727234
            ],
            [
              121.5518922,
              25.0727161
            ],
            [
              121.5516883,
              25.0725509
            ],
            [
              121.5522462,
              25.072529
            ]
          ]
        ]
      },
      "id": "way/812596121"
    },
    {
      "type": "Feature",
      "properties": {
        "@id": "node/293892855",
        "amenity": "fuel",
        "created_by": "Potlatch 0.10b"
      },
      "geometry": {
        "type": "Point",
        "coordinates": [
          121.5709788,
          25.0812936
        ]
      },
      "id": "node/293892855"
    },
    {
      "type": "Feature",
      "properties": {
        "@id": "node/925435450",
        "amenity": "fuel",
        "branch": "民生東路站",
        "name": "台灣中油"
      },
      "geometry": {
        "type": "Point",
        "coordinates": [
          121.5636304,
          25.0594527
        ]
      },
      "id": "node/925435450"
    },
    {
      "type": "Feature",
      "properties": {
        "@id": "node/937416633",
        "amenity": "fuel"
      },
      "geometry": {
        "type": "Point",
        "coordinates": [
          121.6120297,
          25.0674557
        ]
      },
      "id": "node/937416633"
    },
    {
      "type": "Feature",
      "properties": {
        "@id": "node/1715788232",
        "amenity": "fuel",
        "brand": "全國加油站",
        "brand:en": "NPC",
        "brand:wikidata": "Q20410455",
        "brand:wikipedia": "zh:全國加油站",
        "brand:zh": "全國加油站",
        "name": "全國加油站",
        "name:en": "NPC",
        "name:zh": "全國加油站"
      },
      "geometry": {
        "type": "Point",
        "coordinates": [
          121.5120883,
          25.0829023
        ]
      },
      "id": "node/1715788232"
    },
    {
      "type": "Feature",
      "properties": {
        "@id": "node/1715789555",
        "amenity": "fuel",
        "brand": "台灣中油",
        "brand:en": "CPC Corporation, Taiwan",
        "brand:wikidata": "Q698024",
        "brand:wikipedia": "en:CPC Corporation",
        "brand:zh": "台灣中油",
        "name": "台灣中油",
        "name:en": "CPC Corporation, Taiwan",
        "name:zh": "台灣中油"
      },
      "geometry": {
        "type": "Point",
        "coordinates": [
          121.5118107,
          25.0850974
        ]
      },
      "id": "node/1715789555"
    },
    {
      "type": "Feature",
      "properties": {
        "@id": "node/1837846836",
        "amenity": "fuel",
        "name": "西歐"
      },
      "geometry": {
        "type": "Point",
        "coordinates": [
          121.5643534,
          25.082587
        ]
      },
      "id": "node/1837846836"
    },
    {
      "type": "Feature",
      "properties": {
        "@id": "node/1838345064",
        "amenity": "fuel",
        "brand": "全國加油站",
        "brand:en": "NPC",
        "brand:wikidata": "Q20410455",
        "brand:wikipedia": "zh:全國加油站",
        "brand:zh": "全國加油站",
        "name": "全國加油站",
        "name:en": "NPC",
        "name:zh": "全國加油站"
      },
      "geometry": {
        "type": "Point",
        "coordinates": [
          121.5759392,
          25.0656715
        ]
      },
      "id": "node/1838345064"
    },
    {
      "type": "Feature",
      "properties": {
        "@id": "node/1974690965",
        "amenity": "fuel",
        "name": "萬大山隆加油站"
      },
      "geometry": {
        "type": "Point",
        "coordinates": [
          121.5007326,
          25.0270322
        ]
      },
      "id": "node/1974690965"
    },
    {
      "type": "Feature",
      "properties": {
        "@id": "node/2171345886",
        "amenity": "fuel",
        "brand": "中油",
        "fuel:diesel": "yes",
        "fuel:octane_95": "yes",
        "fuel:octane_98": "yes",
        "name": "中油紫陽加油站",
        "wheelchair": "yes"
      },
      "geometry": {
        "type": "Point",
        "coordinates": [
          121.5834301,
          25.078325
        ]
      },
      "id": "node/2171345886"
    },
    {
      "type": "Feature",
      "properties": {
        "@id": "node/2550236850",
        "amenity": "fuel"
      },
      "geometry": {
        "type": "Point",
        "coordinates": [
          121.5847566,
          25.056956
        ]
      },
      "id": "node/2550236850"
    },
    {
      "type": "Feature",
      "properties": {
        "@id": "node/3028959505",
        "amenity": "fuel",
        "name": "全國"
      },
      "geometry": {
        "type": "Point",
        "coordinates": [
          121.5900975,
          25.0531358
        ]
      },
      "id": "node/3028959505"
    },
    {
      "type": "Feature",
      "properties": {
        "@id": "node/3034549910",
        "amenity": "fuel"
      },
      "geometry": {
        "type": "Point",
        "coordinates": [
          121.4990037,
          25.1217433
        ]
      },
      "id": "node/3034549910"
    },
    {
      "type": "Feature",
      "properties": {
        "@id": "node/3356147185",
        "amenity": "fuel",
        "brand": "台灣中油",
        "brand:en": "CPC Corporation, Taiwan",
        "brand:wikidata": "Q698024",
        "brand:wikipedia": "en:CPC Corporation",
        "brand:zh": "台灣中油",
        "name": "CPC",
        "name:en": "CPC Corporation, Taiwan",
        "name:zh": "中油"
      },
      "geometry": {
        "type": "Point",
        "coordinates": [
          121.5071208,
          25.0316511
        ]
      },
      "id": "node/3356147185"
    },
    {
      "type": "Feature",
      "properties": {
        "@id": "node/3376848429",
        "addr:city": "臺北市",
        "addr:country": "TW",
        "addr:district": "松山區",
        "addr:housenumber": "99",
        "addr:postcode": "105",
        "addr:street": "塔悠路",
        "amenity": "fuel",
        "name": "全國加油站",
        "phone": "+886-2-2767-0389",
        "website": "http://www.npcgas.com.tw/"
      },
      "geometry": {
        "type": "Point",
        "coordinates": [
          121.5702657,
          25.0538551
        ]
      },
      "id": "node/3376848429"
    },
    {
      "type": "Feature",
      "properties": {
        "@id": "node/3412869727",
        "amenity": "fuel"
      },
      "geometry": {
        "type": "Point",
        "coordinates": [
          121.4921576,
          25.0327485
        ]
      },
      "id": "node/3412869727"
    },
    {
      "type": "Feature",
      "properties": {
        "@id": "node/3412869728",
        "amenity": "fuel"
      },
      "geometry": {
        "type": "Point",
        "coordinates": [
          121.4919979,
          25.0329034
        ]
      },
      "id": "node/3412869728"
    },
    {
      "type": "Feature",
      "properties": {
        "@id": "node/3774376486",
        "amenity": "fuel"
      },
      "geometry": {
        "type": "Point",
        "coordinates": [
          121.589487,
          25.0594982
        ]
      },
      "id": "node/3774376486"
    },
    {
      "type": "Feature",
      "properties": {
        "@id": "node/4000887378",
        "amenity": "fuel",
        "name": "全國加油站"
      },
      "geometry": {
        "type": "Point",
        "coordinates": [
          121.498085,
          25.0932277
        ]
      },
      "id": "node/4000887378"
    },
    {
      "type": "Feature",
      "properties": {
        "@id": "node/4333626990",
        "amenity": "fuel",
        "name": "台塑石油"
      },
      "geometry": {
        "type": "Point",
        "coordinates": [
          121.5752323,
          25.0690357
        ]
      },
      "id": "node/4333626990"
    },
    {
      "type": "Feature",
      "properties": {
        "@id": "node/4340167993",
        "amenity": "fuel",
        "name": "中油麗馳加油站"
      },
      "geometry": {
        "type": "Point",
        "coordinates": [
          121.5751284,
          25.0697221
        ]
      },
      "id": "node/4340167993"
    },
    {
      "type": "Feature",
      "properties": {
        "@id": "node/4341345904",
        "amenity": "fuel",
        "brand": "台灣中油",
        "brand:en": "CPC Corporation, Taiwan",
        "brand:wikidata": "Q698024",
        "brand:zh": "台灣中油",
        "name": "台灣中油",
        "name:en": "CPC Taiwan",
        "name:zh": "台灣中油"
      },
      "geometry": {
        "type": "Point",
        "coordinates": [
          121.5685216,
          25.0777976
        ]
      },
      "id": "node/4341345904"
    },
    {
      "type": "Feature",
      "properties": {
        "@id": "node/4726986022",
        "amenity": "fuel",
        "name": "中油康寧加油站"
      },
      "geometry": {
        "type": "Point",
        "coordinates": [
          121.6083987,
          25.0719777
        ]
      },
      "id": "node/4726986022"
    }
  ]
}