{
  "type": "FeatureCollection",
  "generator": "overpass-ide",
  "copyright": "The data included in this document is from www.openstreetmap.org. The data is made available under ODbL.",
  "timestamp": "2022-07-26T05:51:53Z",
  "features": [
    {
      "type": "Feature",
      "properties": {
        "@id": "way/80317521",
        "addr:city": "台北市",
        "addr:country": "TW",
        "addr:district": "內湖區",
        "addr:full": "11480臺北市五分街6號",
        "addr:housenumber": "6",
        "addr:postcode": "11480",
        "addr:street": "五分街",
        "amenity": "library",
        "building": "public",
        "designation": "Taipei Municipal Library, Tung Hu Branch",
        "email": "j12@email.tpml.edu.tw",
        "fax": "+886 2 2633 2654",
        "internet_access": "wlan",
        "internet_access:fee": "no",
        "internet_access:ssid": "TPE-Free",
        "name": "東湖分館",
        "name:en": "Tung Hu Branch",
        "name:zh": "東湖分館",
        "note": "無障礙設施：電梯、無障礙廁所、無障礙坡道、對講機、愛心鈴、導盲磚 有AED(自動體外心臟電擊去顫器)、消防栓",
        "official_name": "台北市立圖書館東湖分館",
        "official_name:en": "designation=Taipei Municipal Library, Tung Hu Branch",
        "phone": "+886 2 2632 3378",
        "wheelchair": "yes"
      },
      "geometry": {
        "type": "Polygon",
        "coordinates": [
          [
            [
              121.6125813,
              25.0674523
            ],
            [
              121.6125487,
              25.0671703
            ],
            [
              121.6127456,
              25.0671516
            ],
            [
              121.6127782,
              25.0674336
            ],
            [
              121.6125813,
              25.0674523
            ]
          ]
        ]
      },
      "id": "way/80317521"
    },
    {
      "type": "Feature",
      "properties": {
        "@id": "way/127948707",
        "amenity": "library",
        "building": "public",
        "building:levels": "4",
        "name": "人文社會科學館",
        "name:en": "Library of Humanities and Social Sciences",
        "name:zh": "人文社會科學館",
        "wheelchair": "yes"
      },
      "geometry": {
        "type": "Polygon",
        "coordinates": [
          [
            [
              121.6109736,
              25.0410052
            ],
            [
              121.6109846,
              25.0409351
            ],
            [
              121.6110085,
              25.0408678
            ],
            [
              121.6110475,
              25.0408019
            ],
            [
              121.6118288,
              25.0408769
            ],
            [
              121.611823,
              25.0409575
            ],
            [
              121.6118006,
              25.0410955
            ],
            [
              121.6117509,
              25.0412114
            ],
            [
              121.6116895,
              25.041324
            ],
            [
              121.6109736,
              25.0410052
            ]
          ]
        ]
      },
      "id": "way/127948707"
    },
    {
      "type": "Feature",
      "properties": {
        "@id": "way/127948734",
        "amenity": "library",
        "building": "public",
        "name": "傅斯年圖書館",
        "wikidata": "Q62017144"
      },
      "geometry": {
        "type": "Polygon",
        "coordinates": [
          [
            [
              121.6165925,
              25.0406479
            ],
            [
              121.6165889,
              25.0406082
            ],
            [
              121.6165564,
              25.0406106
            ],
            [
              121.6165514,
              25.0405549
            ],
            [
              121.6165833,
              25.0405526
            ],
            [
              121.6165823,
              25.0405412
            ],
            [
              121.6166945,
              25.0405329
            ],
            [
              121.6166867,
              25.0404454
            ],
            [
              121.6165486,
              25.0404556
            ],
            [
              121.6165344,
              25.0402969
            ],
            [
              121.6166477,
              25.0402885
            ],
            [
              121.6166439,
              25.0402456
            ],
            [
              121.6167035,
              25.0402412
            ],
            [
              121.6167071,
              25.0402809
            ],
            [
              121.6168699,
              25.0402689
            ],
            [
              121.6168848,
              25.0404348
            ],
            [
              121.6167294,
              25.0404462
            ],
            [
              121.6167369,
              25.0405286
            ],
            [
              121.6168667,
              25.040519
            ],
            [
              121.6168764,
              25.040627
            ],
            [
              121.6165925,
              25.0406479
            ]
          ]
        ]
      },
      "id": "way/127948734"
    },
    {
      "type": "Feature",
      "properties": {
        "@id": "way/127950352",
        "amenity": "library",
        "building": "public",
        "name": "歐美所圖書館"
      },
      "geometry": {
        "type": "Polygon",
        "coordinates": [
          [
            [
              121.6150252,
              25.0398049
            ],
            [
              121.6150236,
              25.0397805
            ],
            [
              121.6150106,
              25.0397811
            ],
            [
              121.6150062,
              25.0397122
            ],
            [
              121.6149932,
              25.0397129
            ],
            [
              121.6149841,
              25.0395696
            ],
            [
              121.6149806,
              25.0395141
            ],
            [
              121.6150415,
              25.039511
            ],
            [
              121.6150393,
              25.0394757
            ],
            [
              121.6153395,
              25.0394601
            ],
            [
              121.6153603,
              25.0397875
            ],
            [
              121.6150252,
              25.0398049
            ]
          ]
        ]
      },
      "id": "way/127950352"
    },
    {
      "type": "Feature",
      "properties": {
        "@id": "way/139123645",
        "amenity": "library",
        "building": "school",
        "name": "圖書館"
      },
      "geometry": {
        "type": "Polygon",
        "coordinates": [
          [
            [
              121.5399802,
              25.0356924
            ],
            [
              121.5399766,
              25.0355955
            ],
            [
              121.5400848,
              25.0355921
            ],
            [
              121.5400814,
              25.0355039
            ],
            [
              121.5399696,
              25.0355073
            ],
            [
              121.5399672,
              25.0354453
            ],
            [
              121.5400095,
              25.035444
            ],
            [
              121.5400084,
              25.0354155
            ],
            [
              121.5402145,
              25.0354091
            ],
            [
              121.5402248,
              25.035684
            ],
            [
              121.5399802,
              25.0356924
            ]
          ]
        ]
      },
      "id": "way/139123645"
    },
    {
      "type": "Feature",
      "properties": {
        "@id": "way/168407498",
        "addr:city": "臺北市",
        "addr:district": "內湖區",
        "addr:full": "11446臺北市內湖路一段594號",
        "addr:housenumber": "594",
        "addr:postcode": "11446",
        "addr:street": "內湖路一段",
        "amenity": "library",
        "building": "public",
        "email": "j13@email.tpml.edu.tw",
        "fax": "+886 2 2798 6483",
        "internet_access": "wlan",
        "internet_access:fee": "no",
        "internet_access:ssid": "TPE-Free",
        "name": "西湖分館",
        "official_name": "臺北市立圖書館西湖分館",
        "phone": "+886 2 2797 3183"
      },
      "geometry": {
        "type": "Polygon",
        "coordinates": [
          [
            [
              121.5772468,
              25.0788518
            ],
            [
              121.5771777,
              25.0787416
            ],
            [
              121.5771,
              25.0786178
            ],
            [
              121.5772901,
              25.0785199
            ],
            [
              121.5773231,
              25.0785725
            ],
            [
              121.5772898,
              25.0785896
            ],
            [
              121.5774025,
              25.0787692
            ],
            [
              121.5774344,
              25.0787528
            ],
            [
              121.5774872,
              25.078837
            ],
            [
              121.5774357,
              25.0788635
            ],
            [
              121.5774034,
              25.0788119
            ],
            [
              121.577347,
              25.078841
            ],
            [
              121.5773277,
              25.0788102
            ],
            [
              121.5772468,
              25.0788518
            ]
          ]
        ]
      },
      "id": "way/168407498"
    },
    {
      "type": "Feature",
      "properties": {
        "@id": "way/205900064",
        "addr:city": "臺北市",
        "addr:country": "TW",
        "addr:district": "大安區",
        "addr:floor": "11",
        "addr:housenumber": "125",
        "addr:postcode": "10659",
        "addr:street": "建國南路二段",
        "amenity": "library",
        "building": "library",
        "name": "台北市立圖書館總館",
        "opening_hours": "Su-Mo 09:00-21:00; Tu-Sa 8:30-21:00",
        "phone": "+886 2 2755 2823",
        "wikidata": "Q28412193"
      },
      "geometry": {
        "type": "Polygon",
        "coordinates": [
          [
            [
              121.5381371,
              25.0291123
            ],
            [
              121.5382276,
              25.0291062
            ],
            [
              121.5382051,
              25.0290655
            ],
            [
              121.5382078,
              25.0290356
            ],
            [
              121.5383107,
              25.0290309
            ],
            [
              121.5382936,
              25.0290034
            ],
            [
              121.5383028,
              25.0289699
            ],
            [
              121.538486,
              25.0289611
            ],
            [
              121.5385087,
              25.0289902
            ],
            [
              121.5385098,
              25.029292
            ],
            [
              121.5383873,
              25.0292952
            ],
            [
              121.5383846,
              25.0294016
            ],
            [
              121.5381725,
              25.0294052
            ],
            [
              121.5381497,
              25.0291828
            ],
            [
              121.5381371,
              25.0291123
            ]
          ]
        ]
      },
      "id": "way/205900064"
    },
    {
      "type": "Feature",
      "properties": {
        "@id": "way/206235020",
        "addr:city": "臺北市",
        "addr:country": "TW",
        "addr:district": "文山區",
        "addr:floor": "2-4",
        "addr:full": "11676臺北市羅斯福路五段176巷50號2-4樓",
        "addr:housenumber": "50",
        "addr:postcode": "11676",
        "addr:street": "羅斯福路五段176巷",
        "amenity": "library",
        "building": "office",
        "email": "h11@email.tpml.edu.tw",
        "fax": "+886 2 2930 3152",
        "internet_access": "wlan",
        "internet_access:fee": "no",
        "internet_access:ssid": "TPE-Free",
        "name": "景美分館",
        "name:en": "Jingmei Branch",
        "name:zh": "景美分館",
        "office": "government",
        "official_name": "臺北市立圖書館景美分館",
        "opening_hours": "Tu-Sa 08:30-21:00, Su-Mo 09:00-17:00, Th[1] off, PH off",
        "opening_hours:covid19": "same",
        "operator": "臺北市立圖書館",
        "operator:type": "government",
        "phone": "+886 2 2932 8457",
        "website": "http://www.tpml.edu.tw/"
      },
      "geometry": {
        "type": "Polygon",
        "coordinates": [
          [
            [
              121.5361803,
              25.0037771
            ],
            [
              121.5362133,
              25.0034841
            ],
            [
              121.5363942,
              25.003501
            ],
            [
              121.5363892,
              25.003546
            ],
            [
              121.5364196,
              25.0035488
            ],
            [
              121.5364154,
              25.0035868
            ],
            [
              121.5363751,
              25.0035831
            ],
            [
              121.536369,
              25.0036529
            ],
            [
              121.5363605,
              25.0037129
            ],
            [
              121.5363941,
              25.003716
            ],
            [
              121.5363894,
              25.0037583
            ],
            [
              121.5363564,
              25.0037553
            ],
            [
              121.5363541,
              25.0037959
            ],
            [
              121.5361803,
              25.0037771
            ]
          ]
        ]
      },
      "id": "way/206235020"
    },
    {
      "type": "Feature",
      "properties": {
        "@id": "way/222657534",
        "amenity": "library",
        "building": "university",
        "name": "中正圖書館",
        "name:en": "Main Library",
        "name:zh": "中正圖書館",
        "operator": "國立政治大學",
        "website": "http://www.lib.nccu.edu.tw/",
        "wikidata": "Q56670640"
      },
      "geometry": {
        "type": "Polygon",
        "coordinates": [
          [
            [
              121.5762341,
              24.9860392
            ],
            [
              121.5761796,
              24.9857932
            ],
            [
              121.5761045,
              24.9857537
            ],
            [
              121.5760727,
              24.985594
            ],
            [
              121.5762471,
              24.9855589
            ],
            [
              121.5763177,
              24.9856092
            ],
            [
              121.5764705,
              24.9855806
            ],
            [
              121.5765167,
              24.9855115
            ],
            [
              121.5766891,
              24.9854785
            ],
            [
              121.5767241,
              24.9856324
            ],
            [
              121.5766758,
              24.9857023
            ],
            [
              121.5767234,
              24.9859467
            ],
            [
              121.5768007,
              24.9859929
            ],
            [
              121.5768315,
              24.9861471
            ],
            [
              121.576661,
              24.9861806
            ],
            [
              121.576591,
              24.9861357
            ],
            [
              121.5764407,
              24.986163
            ],
            [
              121.576391,
              24.9862336
            ],
            [
              121.5762162,
              24.986265
            ],
            [
              121.5761845,
              24.9861041
            ],
            [
              121.5762341,
              24.9860392
            ]
          ]
        ]
      },
      "id": "way/222657534"
    },
    {
      "type": "Feature",
      "properties": {
        "@id": "way/229885664",
        "amenity": "library",
        "building": "yes",
        "building:levels": "4",
        "building:levels:underground": "1",
        "construction": "library",
        "name": "臺北市立大學圖書館",
        "operator": "臺北市立大學"
      },
      "geometry": {
        "type": "Polygon",
        "coordinates": [
          [
            [
              121.5128009,
              25.03597
            ],
            [
              121.5127633,
              25.0357075
            ],
            [
              121.513048,
              25.0356771
            ],
            [
              121.513062,
              25.0358034
            ],
            [
              121.5130767,
              25.0359359
            ],
            [
              121.5128009,
              25.03597
            ]
          ]
        ]
      },
      "id": "way/229885664"
    },
    {
      "type": "Feature",
      "properties": {
        "@id": "way/253582198",
        "amenity": "library",
        "building": "public",
        "name": "郭廷以圖書館"
      },
      "geometry": {
        "type": "Polygon",
        "coordinates": [
          [
            [
              121.615196,
              25.0404584
            ],
            [
              121.6151873,
              25.0403398
            ],
            [
              121.6151676,
              25.0401203
            ],
            [
              121.6152802,
              25.0401131
            ],
            [
              121.6153062,
              25.0404514
            ],
            [
              121.615196,
              25.0404584
            ]
          ]
        ]
      },
      "id": "way/253582198"
    },
    {
      "type": "Feature",
      "properties": {
        "@id": "way/255247883",
        "addr:city": "臺北市",
        "addr:country": "TW",
        "addr:district": "中正區",
        "addr:full": "10042臺北市中正區延平南路156號",
        "addr:housename": "實踐堂",
        "addr:housenumber": "156",
        "addr:postcode": "10042",
        "addr:street": "延平南路",
        "amenity": "library",
        "building": "public",
        "building:levels": "4",
        "building:levels:underground": "1",
        "email": "nclaac@ncl.edu.tw",
        "fax": "+886-2-2361-1797",
        "name": "藝術暨視聽資料中心",
        "opening_hours": "Tu-Su 10:00-18:00",
        "operator": "國家圖書館",
        "phone": "+886-2-2361-2551",
        "website": "http://aac.ncl.edu.tw/artav/"
      },
      "geometry": {
        "type": "Polygon",
        "coordinates": [
          [
            [
              121.5083937,
              25.0384136
            ],
            [
              121.5080878,
              25.0384872
            ],
            [
              121.5080255,
              25.0382681
            ],
            [
              121.5083327,
              25.0381987
            ],
            [
              121.5083937,
              25.0384136
            ]
          ]
        ]
      },
      "id": "way/255247883"
    },
    {
      "type": "Feature",
      "properties": {
        "@id": "way/256068913",
        "addr:city": "臺北市",
        "addr:country": "TW",
        "addr:district": "中正區",
        "addr:full": "10088臺北市中正區汀州路二段265號",
        "addr:housenumber": "265",
        "addr:postcode": "10088",
        "addr:street": "汀州路二段",
        "amenity": "library",
        "building": "public",
        "building:levels": "4",
        "fax": "+886-2-2367-0743",
        "internet_access": "wlan",
        "internet_access:fee": "no",
        "internet_access:ssid": "TPE-Free",
        "name": "王貫英先生紀念圖書館",
        "name:en": "Taipei Public Library Wang Guan-Ying Branch",
        "name:zh": "王貫英先生紀念圖書館",
        "official_name": "臺北市立圖書館王貫英先生紀念圖書館",
        "old_name": "古亭分館",
        "opening_hours": "Tu-Sa 08:30-21:00, Su-Mo 09:00-17:00, Th[1] off, PH off",
        "operator": "臺北市立圖書館",
        "phone": "+886-2-2367-8734",
        "roof:levels": "0",
        "toilets:wheelchair": "yes",
        "website": "http://www.tpml.edu.tw/",
        "wheelchair": "yes",
        "wikidata": "Q15912232",
        "wikipedia": "zh:臺北市立圖書館王貫英紀念圖書館"
      },
      "geometry": {
        "type": "Polygon",
        "coordinates": [
          [
            [
              121.5237316,
              25.0228283
            ],
            [
              121.5236222,
              25.0227179
            ],
            [
              121.5239456,
              25.0224547
            ],
            [
              121.5240551,
              25.0225651
            ],
            [
              121.5237316,
              25.0228283
            ]
          ]
        ]
      },
      "id": "way/256068913"
    },
    {
      "type": "Feature",
      "properties": {
        "@id": "way/256125732",
        "addr:city": "臺北市",
        "addr:country": "TW",
        "addr:district": "士林區",
        "addr:full": "11143臺北市中正路15號",
        "addr:housename": "李科永紀念圖書館",
        "addr:housenumber": "15",
        "addr:postcode": "11143",
        "addr:street": "中正路",
        "amenity": "library",
        "building": "public",
        "building:levels": "1",
        "building:levels:underground": "2",
        "email": "k14@email.tpml.edu.tw",
        "fax": "+886 2 2883 6321",
        "name": "李科永紀念圖書館",
        "name:en": "Lee Ko-Yung Memorial Library",
        "name:zh": "李科永紀念圖書館",
        "official_name": "臺北市立圖書館李科永紀念圖書館",
        "official_name:en": "Taipei Public Library Lee Ko-Yung Memorial Library",
        "official_name:zh": "台北市立圖書館李科永紀念圖書館",
        "opening_hours": "Tu-Sa 08:30-21:00, Su,Mo 09:00-17:00; Th[1] Off; PH Off",
        "operator": "臺北市立圖書館",
        "phone": "+886 2 2883-3453"
      },
      "geometry": {
        "type": "Polygon",
        "coordinates": [
          [
            [
              121.5308956,
              25.0960876
            ],
            [
              121.5309052,
              25.0960386
            ],
            [
              121.5307739,
              25.0960137
            ],
            [
              121.5308213,
              25.0958342
            ],
            [
              121.5309683,
              25.0958582
            ],
            [
              121.5309663,
              25.0958734
            ],
            [
              121.5310588,
              25.0958947
            ],
            [
              121.5311272,
              25.0959165
            ],
            [
              121.5311815,
              25.0959451
            ],
            [
              121.5312418,
              25.0959779
            ],
            [
              121.5312128,
              25.0961438
            ],
            [
              121.5308956,
              25.0960876
            ]
          ]
        ]
      },
      "id": "way/256125732"
    },
    {
      "type": "Feature",
      "properties": {
        "@id": "way/256190306",
        "addr:city": "臺北市",
        "addr:country": "TW",
        "addr:district": "北投區",
        "addr:housenumber": "251",
        "addr:postcode": "11246",
        "addr:street": "光明路",
        "amenity": "library",
        "building": "public",
        "building:levels": "2",
        "building:levels:underground": "1",
        "name": "臺北市立圖書館北投分館",
        "name:en": "Taipei Public Library, Beitou Branch",
        "name:ja": "台北市立図書館北投分館",
        "name:zh": "臺北市立圖書館北投分館",
        "network": "置物櫃",
        "opening_hours": "Su-Mo 09:00-17:00;Tu-Sa 08:30-21:00;PH off;Th[1] off",
        "operator": "臺北市立圖書館",
        "payment:coins": "free",
        "phone": "+886 2 2897-7682",
        "wikidata": "Q618353",
        "wikipedia": "zh:臺北市立圖書館北投分館"
      },
      "geometry": {
        "type": "Polygon",
        "coordinates": [
          [
            [
              121.5059762,
              25.1364924
            ],
            [
              121.5059874,
              25.1364637
            ],
            [
              121.5061675,
              25.1363718
            ],
            [
              121.5063213,
              25.1362689
            ],
            [
              121.5065262,
              25.1365779
            ],
            [
              121.5060653,
              25.1365326
            ],
            [
              121.5059762,
              25.1364924
            ]
          ]
        ]
      },
      "id": "way/256190306"
    },
    {
      "type": "Feature",
      "properties": {
        "@id": "way/280671343",
        "amenity": "library",
        "building": "public",
        "name": "太陽圖書館",
        "wikipedia": "zh:太陽圖書館暨節能展示館"
      },
      "geometry": {
        "type": "Polygon",
        "coordinates": [
          [
            [
              121.5035349,
              25.0248136
            ],
            [
              121.5035358,
              25.0246521
            ],
            [
              121.503766,
              25.0246531
            ],
            [
              121.5037651,
              25.0248146
            ],
            [
              121.5035349,
              25.0248136
            ]
          ]
        ]
      },
      "id": "way/280671343"
    },
    {
      "type": "Feature",
      "properties": {
        "@id": "way/281749491",
        "amenity": "library",
        "building": "school",
        "name": "圖書館",
        "wheelchair": "limited"
      },
      "geometry": {
        "type": "Polygon",
        "coordinates": [
          [
            [
              121.5356579,
              25.0569057
            ],
            [
              121.5356528,
              25.0566485
            ],
            [
              121.5356053,
              25.0566094
            ],
            [
              121.5356151,
              25.0565174
            ],
            [
              121.5356355,
              25.0565057
            ],
            [
              121.5356766,
              25.0565331
            ],
            [
              121.5359292,
              25.0565468
            ],
            [
              121.5359602,
              25.0564989
            ],
            [
              121.5360005,
              25.0565018
            ],
            [
              121.5359983,
              25.0565898
            ],
            [
              121.5359379,
              25.0566446
            ],
            [
              121.5359357,
              25.0569243
            ],
            [
              121.5360113,
              25.0569713
            ],
            [
              121.5360137,
              25.0570555
            ],
            [
              121.5359897,
              25.0570711
            ],
            [
              121.5359573,
              25.0570515
            ],
            [
              121.5359336,
              25.0570261
            ],
            [
              121.5356938,
              25.0570339
            ],
            [
              121.5356874,
              25.057073
            ],
            [
              121.5356139,
              25.057075
            ],
            [
              121.5356075,
              25.0569654
            ],
            [
              121.5356579,
              25.0569057
            ]
          ]
        ]
      },
      "id": "way/281749491"
    },
    {
      "type": "Feature",
      "properties": {
        "@id": "way/283887810",
        "amenity": "library",
        "building": "university",
        "name": "圖書館"
      },
      "geometry": {
        "type": "Polygon",
        "coordinates": [
          [
            [
              121.5345863,
              25.0429751
            ],
            [
              121.5348068,
              25.0429713
            ],
            [
              121.5348009,
              25.042723
            ],
            [
              121.5348919,
              25.042722
            ],
            [
              121.5349769,
              25.0427233
            ],
            [
              121.5349773,
              25.0428675
            ],
            [
              121.5350561,
              25.0428662
            ],
            [
              121.5350611,
              25.0430717
            ],
            [
              121.5345839,
              25.043081
            ],
            [
              121.5345863,
              25.0429751
            ]
          ]
        ]
      },
      "id": "way/283887810"
    },
    {
      "type": "Feature",
      "properties": {
        "@id": "way/285682239",
        "amenity": "library",
        "building": "public",
        "name": "圖書館"
      },
      "geometry": {
        "type": "Polygon",
        "coordinates": [
          [
            [
              121.5557329,
              24.9809008
            ],
            [
              121.5557306,
              24.9809435
            ],
            [
              121.5557135,
              24.9809834
            ],
            [
              121.5556833,
              24.9810163
            ],
            [
              121.5556433,
              24.981039
            ],
            [
              121.5555974,
              24.9810489
            ],
            [
              121.5555503,
              24.9810452
            ],
            [
              121.555507,
              24.9810282
            ],
            [
              121.5554699,
              24.9809974
            ],
            [
              121.5554463,
              24.9809571
            ],
            [
              121.5554391,
              24.980912
            ],
            [
              121.5554491,
              24.9808672
            ],
            [
              121.5554751,
              24.9808282
            ],
            [
              121.555514,
              24.9807993
            ],
            [
              121.5555615,
              24.980784
            ],
            [
              121.5556118,
              24.980784
            ],
            [
              121.5556564,
              24.9807981
            ],
            [
              121.5556938,
              24.9808241
            ],
            [
              121.5557202,
              24.9808596
            ],
            [
              121.5557329,
              24.9809008
            ]
          ]
        ]
      },
      "id": "way/285682239"
    },
    {
      "type": "Feature",
      "properties": {
        "@id": "way/301793536",
        "amenity": "library",
        "building": "university",
        "name": "N棟圖資大樓"
      },
      "geometry": {
        "type": "Polygon",
        "coordinates": [
          [
            [
              121.5460723,
              25.0849859
            ],
            [
              121.545777,
              25.0849811
            ],
            [
              121.5457796,
              25.0849127
            ],
            [
              121.5457815,
              25.0848623
            ],
            [
              121.5457942,
              25.0845094
            ],
            [
              121.5458616,
              25.0845134
            ],
            [
              121.5459152,
              25.0845165
            ],
            [
              121.5459113,
              25.0845823
            ],
            [
              121.5459164,
              25.0846282
            ],
            [
              121.546181,
              25.0846468
            ],
            [
              121.5461702,
              25.0848643
            ],
            [
              121.5459531,
              25.0848613
            ],
            [
              121.5459644,
              25.0846602
            ],
            [
              121.5459158,
              25.0846608
            ],
            [
              121.5459182,
              25.0849008
            ],
            [
              121.5460711,
              25.0849054
            ],
            [
              121.5460723,
              25.0849859
            ]
          ]
        ]
      },
      "id": "way/301793536"
    },
    {
      "type": "Feature",
      "properties": {
        "@id": "way/304780025",
        "amenity": "library",
        "building": "yes",
        "building:levels": "5",
        "name": "大講堂 圖書館 K書中心"
      },
      "geometry": {
        "type": "Polygon",
        "coordinates": [
          [
            [
              121.5776723,
              25.0858752
            ],
            [
              121.5776731,
              25.0858131
            ],
            [
              121.5776077,
              25.0858125
            ],
            [
              121.5776083,
              25.0857577
            ],
            [
              121.5775742,
              25.0857573
            ],
            [
              121.5775759,
              25.0856156
            ],
            [
              121.5776403,
              25.0856163
            ],
            [
              121.5776414,
              25.0855232
            ],
            [
              121.5776948,
              25.0854419
            ],
            [
              121.5777586,
              25.0854426
            ],
            [
              121.5778506,
              25.0854435
            ],
            [
              121.577873,
              25.0854725
            ],
            [
              121.5779114,
              25.085522
            ],
            [
              121.5779132,
              25.0856005
            ],
            [
              121.577996,
              25.0855989
            ],
            [
              121.5780036,
              25.0856122
            ],
            [
              121.5780017,
              25.0857536
            ],
            [
              121.5779557,
              25.0857532
            ],
            [
              121.5779549,
              25.0858103
            ],
            [
              121.5778954,
              25.0858097
            ],
            [
              121.5778945,
              25.0858776
            ],
            [
              121.5776723,
              25.0858752
            ]
          ]
        ]
      },
      "id": "way/304780025"
    },
    {
      "type": "Feature",
      "properties": {
        "@id": "way/307155340",
        "addr:city": "臺北市",
        "addr:country": "TW",
        "addr:district": "大同區",
        "addr:full": "10371臺北市重慶北路三段318號",
        "addr:housenumber": "318",
        "addr:postcode": "10371",
        "addr:street": "重慶北路三段",
        "amenity": "library",
        "building": "public",
        "building:levels": "4",
        "building:levels:underground": "1",
        "email": "f12@email.tpml.edu.tw",
        "fax": "+886 2 2599 1423",
        "internet_access": "wlan",
        "internet_access:fee": "no",
        "internet_access:ssid": "TPE-Free",
        "name": "大同分館",
        "official_name": "臺北市立圖書館大同分館",
        "opening_hours": "Tu-Sa 08:30-21:00, Su-Mo 09:00-17:00, Th[1] off, PH off",
        "operator": "臺北市立圖書館",
        "phone": "+886-2-2594-3236",
        "website": "http://www.tpml.edu.tw/",
        "wheelchair": "yes"
      },
      "geometry": {
        "type": "Polygon",
        "coordinates": [
          [
            [
              121.5130092,
              25.0741719
            ],
            [
              121.5135759,
              25.0741586
            ],
            [
              121.5135824,
              25.0743725
            ],
            [
              121.5130141,
              25.0743858
            ],
            [
              121.5130092,
              25.0741719
            ]
          ]
        ]
      },
      "id": "way/307155340"
    },
    {
      "type": "Feature",
      "properties": {
        "@id": "way/311536360",
        "amenity": "library",
        "building": "university",
        "building:levels": "2",
        "name": "辜振甫先生紀念圖書館",
        "name:en": "Koo Chen-Fu Memorial Library",
        "name:nan": "Ko͘-chìn-hú Sian-siⁿ Kì-liām Tô͘-su-koán",
        "name:nan-HJ": "辜振甫先生紀念圖書館",
        "name:nan-POJ": "Ko͘-chìn-hú Sian-siⁿ Kì-liām Tô͘-su-koán",
        "name:nan-TL": "Koo-tsìn-hú Sian-sinn Kì-liām Tôo-su-kuán",
        "name:zh": "辜振甫先生紀念圖書館"
      },
      "geometry": {
        "type": "Polygon",
        "coordinates": [
          [
            [
              121.5425831,
              25.0201774
            ],
            [
              121.5425911,
              25.0206372
            ],
            [
              121.5420183,
              25.0206454
            ],
            [
              121.5420103,
              25.0201856
            ],
            [
              121.5425831,
              25.0201774
            ]
          ]
        ]
      },
      "id": "way/311536360"
    },
    {
      "type": "Feature",
      "properties": {
        "@id": "way/324901030",
        "amenity": "library",
        "building": "public",
        "building:levels": "7",
        "name": "圖書館",
        "opening_hours": "Mo-Fr 08:00-22:00; Sa,Su 09:00-17:00",
        "toilets:wheelchair": "yes",
        "wheelchair": "yes"
      },
      "geometry": {
        "type": "Polygon",
        "coordinates": [
          [
            [
              121.5447125,
              25.0239756
            ],
            [
              121.5446999,
              25.0237912
            ],
            [
              121.5451849,
              25.023764
            ],
            [
              121.5451973,
              25.0239456
            ],
            [
              121.5450947,
              25.0239514
            ],
            [
              121.5447943,
              25.023971
            ],
            [
              121.5447125,
              25.0239756
            ]
          ]
        ]
      },
      "id": "way/324901030"
    },
    {
      "type": "Feature",
      "properties": {
        "@id": "way/343372142",
        "amenity": "library",
        "building": "public",
        "name": "舊莊圖書館"
      },
      "geometry": {
        "type": "Polygon",
        "coordinates": [
          [
            [
              121.6191725,
              25.0413963
            ],
            [
              121.6193414,
              25.0412962
            ],
            [
              121.6194113,
              25.0414091
            ],
            [
              121.6195467,
              25.0413353
            ],
            [
              121.6195902,
              25.0414051
            ],
            [
              121.6194477,
              25.0414867
            ],
            [
              121.6194103,
              25.0414218
            ],
            [
              121.6193563,
              25.0414553
            ],
            [
              121.6193258,
              25.041411
            ],
            [
              121.6192639,
              25.0414474
            ],
            [
              121.6192511,
              25.0414268
            ],
            [
              121.6192069,
              25.0414503
            ],
            [
              121.6191725,
              25.0413963
            ]
          ]
        ]
      },
      "id": "way/343372142"
    },
    {
      "type": "Feature",
      "properties": {
        "@id": "way/363124306",
        "addr:city": "臺北市",
        "addr:country": "TW",
        "addr:district": "士林區",
        "addr:full": "臺北市士林區福港街205號",
        "addr:housenumber": "205",
        "addr:street": "福港街",
        "amenity": "library",
        "building": "public",
        "name": "百齡智慧圖書館",
        "opening_hours": "Mo-Fr 16:30-20:50, Sa-Su 09:10-20:50;PH off"
      },
      "geometry": {
        "type": "Polygon",
        "coordinates": [
          [
            [
              121.5181725,
              25.0859742
            ],
            [
              121.5182236,
              25.0859645
            ],
            [
              121.5182758,
              25.0859658
            ],
            [
              121.5183262,
              25.085978
            ],
            [
              121.5183722,
              25.0860004
            ],
            [
              121.5184112,
              25.0860317
            ],
            [
              121.5184412,
              25.0860704
            ],
            [
              121.5184606,
              25.0861143
            ],
            [
              121.5184682,
              25.0861611
            ],
            [
              121.5184638,
              25.0862082
            ],
            [
              121.5184475,
              25.086253
            ],
            [
              121.5184201,
              25.0862933
            ],
            [
              121.5183833,
              25.0863268
            ],
            [
              121.5183389,
              25.0863517
            ],
            [
              121.5182894,
              25.0863666
            ],
            [
              121.5182374,
              25.0863708
            ],
            [
              121.5181858,
              25.0863641
            ],
            [
              121.5181372,
              25.0863467
            ],
            [
              121.5180944,
              25.0863196
            ],
            [
              121.5180596,
              25.0862844
            ],
            [
              121.5180348,
              25.0862428
            ],
            [
              121.5180212,
              25.0861972
            ],
            [
              121.5180196,
              25.0861499
            ],
            [
              121.5180301,
              25.0861036
            ],
            [
              121.518052,
              25.0860607
            ],
            [
              121.5180843,
              25.0860236
            ],
            [
              121.5181252,
              25.0859942
            ],
            [
              121.5181725,
              25.0859742
            ]
          ]
        ]
      },
      "id": "way/363124306"
    },
    {
      "type": "Feature",
      "properties": {
        "@id": "way/376521772",
        "addr:city": "臺北市",
        "addr:country": "TW",
        "addr:district": "中正區",
        "addr:full": "10049臺北市中正區杭州北路26號",
        "addr:housenumber": "26",
        "addr:postcode": "10049",
        "addr:street": "杭州北路",
        "amenity": "library",
        "building": "public",
        "fax": "+886-2-2341-5811",
        "name": "臺灣音樂館",
        "name:en": "Taiwan Music Institute",
        "name:zh": "臺灣音樂館",
        "official_name": "國立傳統藝術中心臺灣音樂館",
        "operator": "國立傳統藝術中心",
        "phone": "+886-2-2341-1200",
        "website": "http://tmi.ncfta.gov.tw/"
      },
      "geometry": {
        "type": "Polygon",
        "coordinates": [
          [
            [
              121.526547,
              25.0451238
            ],
            [
              121.5267422,
              25.0450782
            ],
            [
              121.5267621,
              25.0451522
            ],
            [
              121.5267772,
              25.0452014
            ],
            [
              121.5266546,
              25.04523
            ],
            [
              121.526667,
              25.0452736
            ],
            [
              121.5267478,
              25.0452547
            ],
            [
              121.5267834,
              25.0453799
            ],
            [
              121.5266301,
              25.0454157
            ],
            [
              121.526547,
              25.0451238
            ]
          ]
        ]
      },
      "id": "way/376521772"
    },
    {
      "type": "Feature",
      "properties": {
        "@id": "way/393330569",
        "amenity": "library",
        "building": "university",
        "name": "德明財經科技大學圖書二館"
      },
      "geometry": {
        "type": "Polygon",
        "coordinates": [
          [
            [
              121.5656022,
              25.0876941
            ],
            [
              121.5655863,
              25.0876893
            ],
            [
              121.5655941,
              25.0875201
            ],
            [
              121.56575,
              25.0875261
            ],
            [
              121.5657401,
              25.0877418
            ],
            [
              121.5656003,
              25.0877365
            ],
            [
              121.5656022,
              25.0876941
            ]
          ]
        ]
      },
      "id": "way/393330569"
    },
    {
      "type": "Feature",
      "properties": {
        "@id": "way/393330571",
        "amenity": "library",
        "building": "university",
        "name": "明德財經科技大學圖書館"
      },
      "geometry": {
        "type": "Polygon",
        "coordinates": [
          [
            [
              121.5662378,
              25.0866942
            ],
            [
              121.5661626,
              25.0866936
            ],
            [
              121.5661641,
              25.0865335
            ],
            [
              121.5665365,
              25.0865363
            ],
            [
              121.5665347,
              25.0867344
            ],
            [
              121.5664752,
              25.0867339
            ],
            [
              121.5664746,
              25.0867909
            ],
            [
              121.5662369,
              25.0867891
            ],
            [
              121.5662378,
              25.0866942
            ]
          ]
        ]
      },
      "id": "way/393330571"
    },
    {
      "type": "Feature",
      "properties": {
        "@id": "way/426278316",
        "amenity": "library",
        "building": "university",
        "building:levels": "3",
        "full_name": "國立臺北護理健康大學圖書館",
        "name": "圖書館"
      },
      "geometry": {
        "type": "Polygon",
        "coordinates": [
          [
            [
              121.5201913,
              25.1180099
            ],
            [
              121.5201248,
              25.1179862
            ],
            [
              121.5199577,
              25.1179266
            ],
            [
              121.5199258,
              25.117901
            ],
            [
              121.5198957,
              25.1178689
            ],
            [
              121.5198692,
              25.1178257
            ],
            [
              121.5198515,
              25.1177856
            ],
            [
              121.5198533,
              25.117736
            ],
            [
              121.5198568,
              25.1176927
            ],
            [
              121.519878,
              25.1176478
            ],
            [
              121.5199064,
              25.117611
            ],
            [
              121.5199488,
              25.1175805
            ],
            [
              121.5199913,
              25.1175613
            ],
            [
              121.5200462,
              25.1175485
            ],
            [
              121.520124,
              25.1175501
            ],
            [
              121.5203558,
              25.1176366
            ],
            [
              121.5202697,
              25.1178319
            ],
            [
              121.5201913,
              25.1180099
            ]
          ]
        ]
      },
      "id": "way/426278316"
    },
    {
      "type": "Feature",
      "properties": {
        "@id": "way/452650455",
        "addr:city": "台北市",
        "addr:country": "TW",
        "addr:full": "台北市敦化北路120巷9號",
        "addr:housenumber": "9",
        "addr:street": "敦化北路120巷",
        "amenity": "library",
        "building": "public",
        "name": "行天宮圖書館"
      },
      "geometry": {
        "type": "Polygon",
        "coordinates": [
          [
            [
              121.5479433,
              25.0537439
            ],
            [
              121.5479458,
              25.053843
            ],
            [
              121.5476511,
              25.053849
            ],
            [
              121.5476465,
              25.0536607
            ],
            [
              121.5479411,
              25.0536547
            ],
            [
              121.5479433,
              25.0537439
            ]
          ]
        ]
      },
      "id": "way/452650455"
    },
    {
      "type": "Feature",
      "properties": {
        "@id": "way/453933597",
        "amenity": "library",
        "building": "library",
        "name": "中正圖書館",
        "name:en": "Soochow University Library",
        "name:zh": "中正圖書館",
        "operator": "東吳大學",
        "toilets:wheelchair": "limited",
        "wheelchair": "yes"
      },
      "geometry": {
        "type": "Polygon",
        "coordinates": [
          [
            [
              121.5463127,
              25.0936446
            ],
            [
              121.5462022,
              25.0934146
            ],
            [
              121.5462486,
              25.0933963
            ],
            [
              121.5465889,
              25.0932623
            ],
            [
              121.5466994,
              25.0934922
            ],
            [
              121.5463127,
              25.0936446
            ]
          ]
        ]
      },
      "id": "way/453933597"
    },
    {
      "type": "Feature",
      "properties": {
        "@id": "way/461697255",
        "amenity": "library",
        "building": "public",
        "name": "圖資大樓"
      },
      "geometry": {
        "type": "Polygon",
        "coordinates": [
          [
            [
              121.4693565,
              25.1346895
            ],
            [
              121.4697133,
              25.1345049
            ],
            [
              121.4701531,
              25.1351217
            ],
            [
              121.470129,
              25.1351338
            ],
            [
              121.4701424,
              25.1351678
            ],
            [
              121.4700083,
              25.135231
            ],
            [
              121.4697428,
              25.1348352
            ],
            [
              121.4696864,
              25.1348546
            ],
            [
              121.4696569,
              25.1348206
            ],
            [
              121.4696972,
              25.1347963
            ],
            [
              121.469665,
              25.1347477
            ],
            [
              121.4694719,
              25.1348594
            ],
            [
              121.4694236,
              25.1347915
            ],
            [
              121.4693968,
              25.1348157
            ],
            [
              121.469327,
              25.1347235
            ],
            [
              121.4693693,
              25.1347059
            ],
            [
              121.4693565,
              25.1346895
            ]
          ]
        ]
      },
      "id": "way/461697255"
    },
    {
      "type": "Feature",
      "properties": {
        "@id": "way/518996976",
        "amenity": "library",
        "building": "school"
      },
      "geometry": {
        "type": "Polygon",
        "coordinates": [
          [
            [
              121.5293455,
              25.116587
            ],
            [
              121.5292795,
              25.1165847
            ],
            [
              121.5289204,
              25.1161557
            ],
            [
              121.5293406,
              25.1158571
            ],
            [
              121.5297388,
              25.1163459
            ],
            [
              121.5293455,
              25.116587
            ]
          ]
        ]
      },
      "id": "way/518996976"
    },
    {
      "type": "Feature",
      "properties": {
        "@id": "way/523993444",
        "amenity": "library",
        "building": "school",
        "name": "圖書資訊大樓"
      },
      "geometry": {
        "type": "Polygon",
        "coordinates": [
          [
            [
              121.5517044,
              25.1017213
            ],
            [
              121.5515232,
              25.1013993
            ],
            [
              121.5517179,
              25.1013047
            ],
            [
              121.5517836,
              25.1014075
            ],
            [
              121.5517561,
              25.1014151
            ],
            [
              121.5517693,
              25.101467
            ],
            [
              121.5517525,
              25.1015298
            ],
            [
              121.5518027,
              25.1016033
            ],
            [
              121.5518314,
              25.1015947
            ],
            [
              121.5518601,
              25.1016466
            ],
            [
              121.5517044,
              25.1017213
            ]
          ]
        ]
      },
      "id": "way/523993444"
    },
    {
      "type": "Feature",
      "properties": {
        "@id": "way/527996178",
        "amenity": "library",
        "building": "public",
        "name": "天后宮圖書館",
        "wheelchair": "no"
      },
      "geometry": {
        "type": "Polygon",
        "coordinates": [
          [
            [
              121.5063179,
              25.0428802
            ],
            [
              121.5062766,
              25.0427472
            ],
            [
              121.5063103,
              25.0427386
            ],
            [
              121.506345,
              25.0427297
            ],
            [
              121.5063861,
              25.0428622
            ],
            [
              121.5063511,
              25.0428715
            ],
            [
              121.5063179,
              25.0428802
            ]
          ]
        ]
      },
      "id": "way/527996178"
    },
    {
      "type": "Feature",
      "properties": {
        "@id": "way/548483187",
        "amenity": "library",
        "building": "public",
        "name": "行天宮北投分宮圖書室"
      },
      "geometry": {
        "type": "Polygon",
        "coordinates": [
          [
            [
              121.4783912,
              25.1371116
            ],
            [
              121.4784536,
              25.1371236
            ],
            [
              121.4784643,
              25.1370945
            ],
            [
              121.4785233,
              25.1371066
            ],
            [
              121.4784871,
              25.1372305
            ],
            [
              121.4782551,
              25.1371868
            ],
            [
              121.4782698,
              25.1371322
            ],
            [
              121.4779948,
              25.1370687
            ],
            [
              121.4780024,
              25.136897
            ],
            [
              121.4780878,
              25.1366824
            ],
            [
              121.4782698,
              25.1367261
            ],
            [
              121.478488,
              25.1367785
            ],
            [
              121.4783912,
              25.1371116
            ]
          ]
        ]
      },
      "id": "way/548483187"
    },
    {
      "type": "Feature",
      "properties": {
        "@id": "way/600811108",
        "addr:city": "臺北市",
        "addr:district": "中山區",
        "addr:housenumber": "102",
        "addr:postcode": "104002",
        "addr:street": "中山北路一段",
        "air_conditioning": "yes",
        "amenity": "library",
        "building": "yes",
        "building:levels": "10",
        "name": "行天宮親子圖書館",
        "official_name": "財團法人台北行天宮附設玄圖書館中山分館",
        "operator": "財團法人台北行天宮附設玄圖書館",
        "operator:type": "religious",
        "phone": "+886 2 2567 1688",
        "start_date": "2013",
        "website": "http://cslib.ht.org.tw/"
      },
      "geometry": {
        "type": "Polygon",
        "coordinates": [
          [
            [
              121.5221551,
              25.0515367
            ],
            [
              121.5221854,
              25.0516243
            ],
            [
              121.5220609,
              25.0516596
            ],
            [
              121.522027,
              25.0516693
            ],
            [
              121.5220183,
              25.0516717
            ],
            [
              121.5220006,
              25.0516639
            ],
            [
              121.5219743,
              25.0515879
            ],
            [
              121.5220636,
              25.0515625
            ],
            [
              121.522066,
              25.0515696
            ],
            [
              121.5221099,
              25.0515571
            ],
            [
              121.5221075,
              25.0515502
            ],
            [
              121.5221551,
              25.0515367
            ]
          ]
        ]
      },
      "id": "way/600811108"
    },
    {
      "type": "Feature",
      "properties": {
        "@id": "way/672483449",
        "addr:city": "臺北市",
        "addr:country": "TW",
        "addr:district": "文山區",
        "addr:full": "11666臺北市文山區萬壽路36號",
        "addr:housenumber": "36",
        "addr:postcode": "11666",
        "addr:street": "萬壽路",
        "amenity": "library",
        "building": "public",
        "email": "dhl@nccu.edu.tw",
        "name": "達賢圖書館",
        "name:en": "Dah Hsian Seetoo Library",
        "name:zh": "達賢圖書館",
        "phone": "+886 2 8237 7000",
        "website": "https://dhl.lib.nccu.edu.tw/"
      },
      "geometry": {
        "type": "Polygon",
        "coordinates": [
          [
            [
              121.5789351,
              24.9887286
            ],
            [
              121.5784456,
              24.9887296
            ],
            [
              121.5784839,
              24.9881233
            ],
            [
              121.5787154,
              24.9881435
            ],
            [
              121.5789734,
              24.9884084
            ],
            [
              121.5789351,
              24.9887286
            ]
          ]
        ]
      },
      "id": "way/672483449"
    },
    {
      "type": "Feature",
      "properties": {
        "@id": "way/672483450",
        "amenity": "library",
        "building": "public",
        "name": "湖濱悅讀小屋"
      },
      "geometry": {
        "type": "Polygon",
        "coordinates": [
          [
            [
              121.579125,
              24.9885886
            ],
            [
              121.5793457,
              24.988437
            ],
            [
              121.579464,
              24.9885785
            ],
            [
              121.5792433,
              24.9887301
            ],
            [
              121.579125,
              24.9885886
            ]
          ]
        ]
      },
      "id": "way/672483450"
    },
    {
      "type": "Feature",
      "properties": {
        "@id": "way/705235807",
        "addr:city": "臺北市",
        "addr:country": "TW",
        "addr:district": "萬華區",
        "addr:housenumber": "6",
        "addr:postcode": "10852",
        "addr:street": "桂林路65巷",
        "amenity": "library",
        "building": "public",
        "internet_access": "wlan",
        "internet_access:fee": "no",
        "internet_access:ssid": "TPE-Free",
        "name": "龍山分館",
        "official_name": "台北市立圖書館龍山分館",
        "opening_hours": "Su-Mo 09:00-17:00; Tu-Sa 08:30-21:00",
        "operator": "台北市立圖書館",
        "toilets:wheelchair": "yes",
        "wheelchair": "yes"
      },
      "geometry": {
        "type": "Polygon",
        "coordinates": [
          [
            [
              121.5024316,
              25.0385169
            ],
            [
              121.502454,
              25.0386052
            ],
            [
              121.5023235,
              25.0386323
            ],
            [
              121.5023011,
              25.0385441
            ],
            [
              121.5024316,
              25.0385169
            ]
          ]
        ]
      },
      "id": "way/705235807"
    },
    {
      "type": "Feature",
      "properties": {
        "@id": "way/742828399",
        "amenity": "library",
        "building": "public",
        "name": "圖書館"
      },
      "geometry": {
        "type": "Polygon",
        "coordinates": [
          [
            [
              121.5667605,
              25.0239458
            ],
            [
              121.5667345,
              25.0239244
            ],
            [
              121.5667255,
              25.0238988
            ],
            [
              121.5667232,
              25.0238733
            ],
            [
              121.5667323,
              25.0238528
            ],
            [
              121.566748,
              25.0238263
            ],
            [
              121.5667954,
              25.0238201
            ],
            [
              121.5667932,
              25.0238038
            ],
            [
              121.5668101,
              25.0237936
            ],
            [
              121.5668383,
              25.0237915
            ],
            [
              121.5668416,
              25.0238201
            ],
            [
              121.5670029,
              25.0237987
            ],
            [
              121.5669961,
              25.0237466
            ],
            [
              121.567021,
              25.0237404
            ],
            [
              121.5670176,
              25.0237006
            ],
            [
              121.5670503,
              25.0236934
            ],
            [
              121.5670582,
              25.0237353
            ],
            [
              121.5671191,
              25.0237261
            ],
            [
              121.5671337,
              25.0238365
            ],
            [
              121.567083,
              25.0238406
            ],
            [
              121.5670897,
              25.0238702
            ],
            [
              121.56703,
              25.0238763
            ],
            [
              121.5670413,
              25.0239468
            ],
            [
              121.5670108,
              25.0239622
            ],
            [
              121.5669747,
              25.0239663
            ],
            [
              121.5669567,
              25.0239673
            ],
            [
              121.5669195,
              25.0239632
            ],
            [
              121.5669138,
              25.0239295
            ],
            [
              121.5667605,
              25.0239458
            ]
          ]
        ]
      },
      "id": "way/742828399"
    },
    {
      "type": "Feature",
      "properties": {
        "@id": "way/762731608",
        "amenity": "library",
        "building": "public",
        "name": "圖書館"
      },
      "geometry": {
        "type": "Polygon",
        "coordinates": [
          [
            [
              121.5020073,
              25.143871
            ],
            [
              121.501898,
              25.1436802
            ],
            [
              121.5022206,
              25.1435287
            ],
            [
              121.5023299,
              25.1437195
            ],
            [
              121.5020073,
              25.143871
            ]
          ]
        ]
      },
      "id": "way/762731608"
    },
    {
      "type": "Feature",
      "properties": {
        "@id": "way/1051408272",
        "addr:city": "台北市",
        "addr:district": "北投區",
        "addr:floor": "7-8",
        "addr:housenumber": "115",
        "addr:postcode": "112",
        "addr:street": "石牌路二段",
        "amenity": "library",
        "building": "yes",
        "internet_access": "wlan",
        "internet_access:fee": "no",
        "internet_access:ssid": "Taipei-Free",
        "name": "永明民眾閱覽室 Taipei Public Library Yongming Neighborhood Reading Room",
        "operator": "台北市立圖書館 Taipei Public Library"
      },
      "geometry": {
        "type": "Polygon",
        "coordinates": [
          [
            [
              121.5177112,
              25.1182908
            ],
            [
              121.5175994,
              25.118466
            ],
            [
              121.5174772,
              25.118402
            ],
            [
              121.5175916,
              25.1182207
            ],
            [
              121.5177112,
              25.1182908
            ]
          ]
        ]
      },
      "id": "way/1051408272"
    },
    {
      "type": "Feature",
      "properties": {
        "@id": "node/1482885760",
        "addr:city": "台北市",
        "addr:country": "TW",
        "addr:district": "中山區",
        "addr:housenumber": "367",
        "addr:level": "8",
        "addr:postcode": "104",
        "addr:street": "松江路",
        "amenity": "library",
        "name": "中山分館",
        "name:en": "Zhongsan Branch",
        "name:nan": "Tiong-san Hun-koán",
        "name:nan-HJ": "中山分館",
        "name:nan-POJ": "Tiong-san Hun-koán",
        "name:nan-TL": "Tiong-san Hun-kuán",
        "name:zh": "中山分館",
        "official_name": "台北市立圖書館中山分館",
        "official_name:en": "Taipei Munipial Library Zhongsan Branch",
        "official_name:nan": "Tâi-pak-chhī-li̍p Tô͘-su-koán Tiong-san Hun-koán",
        "official_name:nan-HJ": "台北市立圖書館中山分館",
        "official_name:nan-POJ": "Tâi-pak-chhī-li̍p Tô͘-su-koán Tiong-san Hun-koán",
        "official_name:nan-TL": "Tâi-pak-tshī-li̍p Tôo-su-kuán Tiong-san Hun-kuán",
        "official_name:zh": "台北市立圖書館中山分館",
        "opening_hours": "Tu-Sa 08:30-21:00; Mo, Su 09:00-17:00",
        "phone": "+886 2 2502 6442"
      },
      "geometry": {
        "type": "Point",
        "coordinates": [
          121.5336019,
          25.064468
        ]
      },
      "id": "node/1482885760"
    },
    {
      "type": "Feature",
      "properties": {
        "@id": "node/1720009140",
        "addr:city": "臺北市",
        "addr:country": "TW",
        "addr:district": "中山區",
        "addr:floor": "3-5",
        "addr:full": "10463臺北市中山區大直街25號3-5樓",
        "addr:housenumber": "25",
        "addr:postcode": "10463",
        "addr:street": "大直街",
        "air_conditioning": "yes",
        "amenity": "library",
        "email": "d13@email.tpml.edu.tw",
        "fax": "+886 2 2533 3932",
        "internet_access": "wlan",
        "internet_access:fee": "no",
        "internet_access:ssid": "TPE-Free",
        "name": "大直分館",
        "name:en": "Dazhi Branch",
        "name:zh": "大直分館",
        "official_name": "臺北市立圖書館大直分館",
        "operator": "臺北市立圖書館",
        "operator:type": "public",
        "phone": "+886 2 2533 6535"
      },
      "geometry": {
        "type": "Point",
        "coordinates": [
          121.5466897,
          25.0818613
        ]
      },
      "id": "node/1720009140"
    },
    {
      "type": "Feature",
      "properties": {
        "@id": "node/1724025627",
        "addr:city": "臺北市",
        "addr:country": "TW",
        "addr:floor": "3~9",
        "addr:full": "11165臺北市延平北路五段136巷1號3-9樓",
        "addr:housenumber": "1",
        "addr:postcode": "11165",
        "addr:street": "延平北路五段136巷",
        "amenity": "library",
        "email": "k11@email.tpml.edu.tw",
        "fax": "+886 2 2812 7945",
        "name": "葫蘆堵分館",
        "official_name": "臺北市立圖書館葫蘆堵分館",
        "operator": "台北市立圖書館",
        "phone": "+886 2 2812 6513"
      },
      "geometry": {
        "type": "Point",
        "coordinates": [
          121.510806,
          25.0823359
        ]
      },
      "id": "node/1724025627"
    },
    {
      "type": "Feature",
      "properties": {
        "@id": "node/1832693019",
        "amenity": "library",
        "name": "陽明大學圖書館1-4F"
      },
      "geometry": {
        "type": "Point",
        "coordinates": [
          121.5133461,
          25.1204256
        ]
      },
      "id": "node/1832693019"
    },
    {
      "type": "Feature",
      "properties": {
        "@id": "node/2013717674",
        "addr:city": "臺北市",
        "addr:country": "TW",
        "addr:district": "中正區",
        "addr:floor": "3",
        "addr:full": "10056臺北市濟南路2段46號3樓",
        "addr:housenumber": "46",
        "addr:postcode": "10056",
        "addr:street": "濟南路二段",
        "amenity": "library",
        "email": "e12@email.tpml.edu.tw",
        "fax": "+886-2-23947183",
        "internet_access": "wlan",
        "internet_access:fee": "no",
        "internet_access:ssid": "TPE-Free",
        "name": "城中分館",
        "official_name": "臺北市立圖書館城中分館",
        "opening_hours": "Tu-Sa 08:30-21:00, Su-Mo 09:00-17:00, Th[1] off, PH off",
        "operator": "臺北市立圖書館",
        "phone": "+886-2-23938274",
        "postal_code": "10056",
        "website": "http://www.tpml.edu.tw/"
      },
      "geometry": {
        "type": "Point",
        "coordinates": [
          121.5309088,
          25.0401449
        ]
      },
      "id": "node/2013717674"
    },
    {
      "type": "Feature",
      "properties": {
        "@id": "node/2160836810",
        "amenity": "library",
        "name": "師大便利書店 (自動借還書機)"
      },
      "geometry": {
        "type": "Point",
        "coordinates": [
          121.528082,
          25.0256488
        ]
      },
      "id": "node/2160836810"
    },
    {
      "type": "Feature",
      "properties": {
        "@id": "node/2178660012",
        "addr:city": "台北市",
        "addr:country": "TW",
        "addr:district": "中山區",
        "addr:housenumber": "3",
        "addr:postcode": "104",
        "addr:street": "長安西路",
        "amenity": "library",
        "level": "3",
        "name": "臺北市立圖書館長安分館",
        "toilets:wheelchair": "yes",
        "wheelchair": "yes",
        "wheelchair:description": "elevator， accessible toilet"
      },
      "geometry": {
        "type": "Point",
        "coordinates": [
          121.5209826,
          25.0502301
        ]
      },
      "id": "node/2178660012"
    },
    {
      "type": "Feature",
      "properties": {
        "@id": "node/2260120976",
        "addr:city": "臺北市",
        "addr:country": "TW",
        "addr:full": "10452臺北市民權東路一段71巷19號",
        "addr:housenumber": "19",
        "addr:postcode": "10452",
        "addr:street": "民權東路一段71巷",
        "amenity": "library",
        "email": "d21@email.tpml.edu.tw",
        "fax": "+886 2 2593 1505",
        "name": "恆安民眾閱覽室",
        "official_name": "台北市立圖書館恆安民眾閱覽室",
        "phone": "+886 2 2593 5482",
        "wikidata": "Q15932457",
        "wikipedia": "zh:臺北市立圖書館恆安民眾閱覽室"
      },
      "geometry": {
        "type": "Point",
        "coordinates": [
          121.5273018,
          25.0636861
        ]
      },
      "id": "node/2260120976"
    },
    {
      "type": "Feature",
      "properties": {
        "@id": "node/2321739244",
        "addr:city": "臺北市",
        "addr:country": "TW",
        "addr:district": "文山區",
        "addr:floor": "4;5",
        "addr:full": "11666臺北市萬壽路27號4-5樓",
        "addr:housenumber": "27",
        "addr:postcode": "11666",
        "addr:street": "萬壽路",
        "alt_name": "萬興圖書館",
        "amenity": "library",
        "email": "h14@email.tpml.edu.tw",
        "fax": "+886 2 2937 5155",
        "internet_access": "wlan",
        "internet_access:fee": "no",
        "internet_access:ssid": "TPE-Free",
        "name": "萬興分館",
        "opening_hours": "Tu-Sa 08:30-21:00, Su-Mo 09:00-17:00, Th[1] off, PH off",
        "operator": "臺北市立圖書館",
        "phone": "+886 2 2234 5501",
        "start_date": "1994-10-03",
        "website": "http://www.tpml.edu.tw/"
      },
      "geometry": {
        "type": "Point",
        "coordinates": [
          121.5768156,
          24.9887379
        ]
      },
      "id": "node/2321739244"
    },
    {
      "type": "Feature",
      "properties": {
        "@id": "node/2365905451",
        "addr:city": "臺北市",
        "addr:country": "TW",
        "addr:district": "大安區",
        "addr:floor": "2-3",
        "addr:full": "10650臺北市永康街60號2-3樓",
        "addr:housenumber": "60",
        "addr:postcode": "10650",
        "addr:street": "永康街",
        "air_conditioning": "yes",
        "amenity": "library",
        "email": "c23@email.tpml.edu.tw",
        "fax": "+886 2 2391 0884",
        "internet_access": "wlan",
        "internet_access:fee": "no",
        "internet_access:ssid": "TPE-Free",
        "level": "2-3",
        "name": "龍安民眾閱覽室",
        "phone": "+886 2 2394 5485"
      },
      "geometry": {
        "type": "Point",
        "coordinates": [
          121.5293565,
          25.0285737
        ]
      },
      "id": "node/2365905451"
    },
    {
      "type": "Feature",
      "properties": {
        "@id": "node/2520707674",
        "addr:city": "台北市",
        "addr:country": "TW",
        "addr:district": "北投區",
        "addr:floor": "3",
        "addr:housenumber": "198",
        "addr:postcode": "112",
        "addr:street": "公舘路",
        "alt_name": "清江圖書館",
        "amenity": "library",
        "name": "清江分館"
      },
      "geometry": {
        "type": "Point",
        "coordinates": [
          121.5069227,
          25.1275834
        ]
      },
      "id": "node/2520707674"
    },
    {
      "type": "Feature",
      "properties": {
        "@id": "node/2616960456",
        "addr:city": "臺北市",
        "addr:country": "TW",
        "addr:floor": "4、5",
        "addr:full": "11041臺北市吳興街156巷6號4、5樓",
        "addr:housenumber": "6",
        "addr:postcode": "11041",
        "addr:street": "吳興街156巷",
        "amenity": "library",
        "email": "b12@email.tpml.edu.tw",
        "fax": "+886 2 8732 1064",
        "name": "三興分館",
        "official_name": "台北市立圖書館三興分館",
        "opening_hours": "Su-Mo 09:00-17:00; Tu-Sa 08:30-21:00",
        "phone": "+886 2 8732 1063"
      },
      "geometry": {
        "type": "Point",
        "coordinates": [
          121.561052,
          25.0290223
        ]
      },
      "id": "node/2616960456"
    },
    {
      "type": "Feature",
      "properties": {
        "@id": "node/2628972338",
        "addr:city": "臺北市",
        "addr:country": "TW",
        "addr:district": "文山區",
        "addr:floor": "5樓至10樓",
        "addr:full": "11669臺北市景後街151號5樓至10樓",
        "addr:housenumber": "151",
        "addr:postcode": "11669",
        "addr:street": "景後街",
        "amenity": "library",
        "branch": "景新分館",
        "email": "h17@email.tpml.edu.tw",
        "fax": "+886 2 2933 5340",
        "internet_access": "wlan",
        "internet_access:fee": "no",
        "internet_access:ssid": "TPE-Free",
        "name": "景新分館",
        "official_name": "臺北市立圖書館景新分館",
        "opening_hours": "Tu-Sa 08:30-21:00, Su-Mo 09:00-17:00, Th[1] off, PH off",
        "operator": "臺北市立圖書館",
        "operator:type": "government",
        "phone": "+886 2 2933 1244",
        "website": "http://www.tpml.edu.tw/"
      },
      "geometry": {
        "type": "Point",
        "coordinates": [
          121.542077,
          24.990015
        ]
      },
      "id": "node/2628972338"
    },
    {
      "type": "Feature",
      "properties": {
        "@id": "node/2673946522",
        "addr:city": "臺北市",
        "addr:country": "TW",
        "addr:district": "信義區",
        "addr:floor": "2",
        "addr:full": "臺北市信義區福德街15號2樓",
        "addr:housenumber": "15",
        "addr:street": "福德街",
        "amenity": "library",
        "name": "福德智慧圖書館",
        "name:en": "Fude Intelligent Library",
        "name:zh": "福德智慧圖書館",
        "official_name": "台北市立圖書館福德智慧圖書館",
        "official_name:en": "Taipei Public Library",
        "official_name:zh": "台北市立圖書館福德智慧圖書館",
        "opening_hours": "Mo-Su 9:00-21:00;PH off"
      },
      "geometry": {
        "type": "Point",
        "coordinates": [
          121.5801461,
          25.0363736
        ]
      },
      "id": "node/2673946522"
    },
    {
      "type": "Feature",
      "properties": {
        "@id": "node/2696114003",
        "addr:city": "臺北市",
        "addr:country": "TW",
        "addr:district": "北投區",
        "addr:housenumber": "81",
        "addr:level": "3;4",
        "addr:postcode": "11256",
        "addr:street": "稻香路",
        "amenity": "library",
        "name": "稻香圖書館"
      },
      "geometry": {
        "type": "Point",
        "coordinates": [
          121.4888441,
          25.140951
        ]
      },
      "id": "node/2696114003"
    },
    {
      "type": "Feature",
      "properties": {
        "@id": "node/2713722768",
        "addr:city": "臺北市",
        "addr:country": "TW",
        "addr:floor": "7-10",
        "addr:full": "10552臺北市長安東路二段229號7-10樓",
        "addr:housenumber": "229",
        "addr:postcode": "10552",
        "addr:street": "長安東路二段",
        "alt_name": "中崙圖書館",
        "amenity": "library",
        "email": "a14@email.tpml.edu.tw",
        "fax": "+886 2 8773 6859",
        "name": "中崙分館",
        "phone": "+886 2 8773 6858",
        "wikidata": "Q15936722",
        "wikipedia": "zh:臺北市立圖書館中崙分館"
      },
      "geometry": {
        "type": "Point",
        "coordinates": [
          121.5460146,
          25.048453
        ]
      },
      "id": "node/2713722768"
    },
    {
      "type": "Feature",
      "properties": {
        "@id": "node/2755630360",
        "addr:city": "臺北市",
        "addr:country": "TW",
        "addr:district": "中正區",
        "addr:housenumber": "1",
        "addr:postcode": "100",
        "addr:street": "仁愛路一段",
        "alt_name": "臺大醫院圖書室",
        "amenity": "library",
        "internet_access": "wlan",
        "internet_access:fee": "no",
        "internet_access:ssid": "ntu, ntu_peap, TANetRoaming",
        "name": "臺大醫學圖書館",
        "operator": "國立臺灣大學",
        "operator:type": "public"
      },
      "geometry": {
        "type": "Point",
        "coordinates": [
          121.5200062,
          25.0400267
        ]
      },
      "id": "node/2755630360"
    },
    {
      "type": "Feature",
      "properties": {
        "@id": "node/2825596259",
        "amenity": "library",
        "name": "明倫高中圖書館"
      },
      "geometry": {
        "type": "Point",
        "coordinates": [
          121.5187773,
          25.0758356
        ]
      },
      "id": "node/2825596259"
    },
    {
      "type": "Feature",
      "properties": {
        "@id": "node/2917411049",
        "addr:city": "臺北市",
        "addr:country": "TW",
        "addr:district": "大安區",
        "addr:floor": "3",
        "addr:full": "10671臺北市辛亥路三段11號3樓",
        "addr:housenumber": "11",
        "addr:postcode": "10671",
        "addr:street": "辛亥路三段",
        "amenity": "library",
        "email": "c11@email.tpml.edu.tw",
        "fax": "+886 2 2739 0541",
        "internet_access": "wlan",
        "internet_access:fee": "no",
        "internet_access:ssid": "TPE-Free",
        "name": "道藩分館",
        "name:en": "Daofan Branch",
        "name:zh": "道藩分館",
        "official_name": "臺北市立道藩紀念圖書館",
        "official_name:en": "Taipei Public Library Daofan Branch",
        "official_name:zh": "臺北市立道藩紀念圖書館",
        "old_name": "大安分館",
        "opening_hours": "Tu-Sa 08:30-21:00, Su-Mo 09:00-17:00, Th[1] off, PH off",
        "operator": "臺北市立圖書館",
        "phone": "+886 2 2733 4031",
        "website": "http://www.tpml.edu.tw/",
        "wikidata": "Q15938304",
        "wikipedia": "zh:臺北市立圖書館道藩紀念圖書館"
      },
      "geometry": {
        "type": "Point",
        "coordinates": [
          121.5439587,
          25.0216747
        ]
      },
      "id": "node/2917411049"
    },
    {
      "type": "Feature",
      "properties": {
        "@id": "node/3087334533",
        "addr:city": "臺北市",
        "addr:country": "TW",
        "addr:district": "文山區",
        "addr:floor": "5;6;7;8",
        "addr:full": "11659臺北市文山區一壽街22號5-8樓",
        "addr:housenumber": "22",
        "addr:postcode": "116019",
        "addr:street": "一壽街",
        "amenity": "library",
        "email": "h16@email.tpml.edu.tw",
        "fax": "+886 2 8661 2197",
        "internet_access": "wlan",
        "internet_access:fee": "no",
        "internet_access:ssid": "TPE-Free",
        "name": "力行分館",
        "official_name": "臺北市立圖書館力行分飽",
        "opening_hours": "Tu-Sa 08:30-21:00; Su-Mo 09:00-17:00; Th[1] off; PH off",
        "operator": "臺北市立圖書館",
        "operator:en": "Taipei Public Library",
        "operator:type": "government",
        "operator:wikidata": "Q15896397",
        "operator:zh": "臺北市立圖書館",
        "phone": "+886 2 8661 2196",
        "ref": "H16",
        "website": "https://tpml.gov.taipei"
      },
      "geometry": {
        "type": "Point",
        "coordinates": [
          121.5564236,
          24.9796302
        ]
      },
      "id": "node/3087334533"
    },
    {
      "type": "Feature",
      "properties": {
        "@id": "node/3101525561",
        "addr:city": "台北市",
        "addr:country": "TW",
        "addr:district": "文山區",
        "addr:housenumber": "145",
        "addr:postcode": "116",
        "addr:street": "興隆路三段304巷",
        "amenity": "library",
        "name": "興得里閱覽室"
      },
      "geometry": {
        "type": "Point",
        "coordinates": [
          121.5549617,
          24.9956807
        ]
      },
      "id": "node/3101525561"
    },
    {
      "type": "Feature",
      "properties": {
        "@id": "node/3210314680",
        "addr:city": "臺北市",
        "addr:country": "TW",
        "addr:district": "大安區",
        "addr:floor": "4",
        "addr:full": "10670臺北市大安區和平東路二段311巷29號4樓",
        "addr:housenumber": "29",
        "addr:postcode": "10670",
        "addr:street": "和平東路二段311巷",
        "amenity": "library",
        "email": "c22@email.tpml.edu.tw",
        "fax": "+886 2 2754 2701",
        "internet_access": "wlan",
        "internet_access:fee": "no",
        "internet_access:ssid": "TPE-Free",
        "name": "成功民眾閱覽室",
        "name:en": "Chenggong Neighborhood Reading Room",
        "name:zh": "成功民眾閱覽室",
        "official_name": "臺北市立圖書館成功民眾閱覽室",
        "official_name:en": "Taipei Public Library Chenggong Neighborhood Reading Room",
        "official_name:zh": "臺北市立圖書館成功民眾閱覽室",
        "opening_hours": "Tu-Sa 8:30-21:00,Su-Mo 9:00-17:00",
        "operator": "臺北市立圖書館",
        "operator:type": "government",
        "phone": "+886 2 2701 3604",
        "start_date": "1989-01-31",
        "website": "https://tpml.gov.taipei/News_Content.aspx?n=4F66F55F388033A7&s=0CE596631E8F61C8&sms=CFFFC938B352678A"
      },
      "geometry": {
        "type": "Point",
        "coordinates": [
          121.5453532,
          25.0254
        ]
      },
      "id": "node/3210314680"
    },
    {
      "type": "Feature",
      "properties": {
        "@id": "node/3232569028",
        "addr:city": "臺北市",
        "addr:country": "TW",
        "addr:district": "萬華區",
        "addr:floor": "5~7",
        "addr:housenumber": "19",
        "addr:postcode": "10864",
        "addr:street": "東園街",
        "amenity": "library",
        "internet_access": "wlan",
        "internet_access:fee": "no",
        "internet_access:ssid": "TPE-Free",
        "name": "萬華分館",
        "name:en": "Wanhua Branch",
        "name:ja": "萬華分館",
        "name:zh": "萬華分館",
        "official_name": "臺北市立圖書館萬華分館",
        "official_name:en": "Wanhua Branch, Taipei Public Library",
        "official_name:ja": "台北市立図書館萬華分館",
        "opening_hours": "Tu-Sa 08:30-21:00, Su-Mo 09:00-17:00, Th[1] off, PH off",
        "operator": "臺北市立圖書館",
        "phone": "+886 2 2339 1056",
        "website": "http://www.tpml.edu.tw/"
      },
      "geometry": {
        "type": "Point",
        "coordinates": [
          121.4958294,
          25.0278103
        ]
      },
      "id": "node/3232569028"
    },
    {
      "type": "Feature",
      "properties": {
        "@id": "node/3518458353",
        "addr:city": "臺北市",
        "addr:country": "TW",
        "addr:district": "松山區",
        "addr:full": "10566臺北市松山區八德路四段688號5-8樓",
        "addr:housenumber": "688",
        "addr:postcode": "10566",
        "addr:street": "八德路四段",
        "amenity": "library",
        "email": "a11@email.tpml.edu.tw",
        "fax": "+886 2 2749 3158",
        "name": "松山分館",
        "name:en": "Songshan Branch",
        "name:zh": "松山分館",
        "official_name": "臺北市立圖書館松山分館",
        "official_name:en": "Taipei Public Library Songshan Branch",
        "official_name:zh": "臺北市立圖書館松山分館",
        "opening_hours": "Su-Mo 09:00-17:00; Tu-Sa 08:30-21:00; Th[1] off",
        "operator": "臺北市立圖書館",
        "phone": "+886 2 2753 1875"
      },
      "geometry": {
        "type": "Point",
        "coordinates": [
          121.5768628,
          25.0497699
        ]
      },
      "id": "node/3518458353"
    },
    {
      "type": "Feature",
      "properties": {
        "@id": "node/3540706864",
        "addr:city": "臺北市",
        "addr:country": "TW",
        "addr:district": "萬華區",
        "addr:floor": "3;4;5;6",
        "addr:full": "10860臺北市興寧街6號3-6樓",
        "addr:housenumber": "6",
        "addr:postcode": "10860",
        "addr:street": "興寧街",
        "amenity": "library",
        "email": "g13@email.tpml.edu.tw",
        "fax": "+886 2 2336 8232",
        "name": "西園分館",
        "official_name": "台北市立圖書館西園分館",
        "opening_hours": "Su-Mo 09:00-17:00; Tu-Sa 08:30-21:00",
        "phone": "+886 2 2306 9046"
      },
      "geometry": {
        "type": "Point",
        "coordinates": [
          121.5016372,
          25.032283
        ]
      },
      "id": "node/3540706864"
    },
    {
      "type": "Feature",
      "properties": {
        "@id": "node/3661063907",
        "amenity": "library",
        "level": "5",
        "name": "5F－圖書館"
      },
      "geometry": {
        "type": "Point",
        "coordinates": [
          121.5224956,
          25.1174295
        ]
      },
      "id": "node/3661063907"
    },
    {
      "type": "Feature",
      "properties": {
        "@id": "node/3788314206",
        "amenity": "library",
        "name": "市圖吉利分館",
        "operator": "臺北市立圖書館",
        "wheelchair": "yes"
      },
      "geometry": {
        "type": "Point",
        "coordinates": [
          121.5084373,
          25.1192061
        ]
      },
      "id": "node/3788314206"
    },
    {
      "type": "Feature",
      "properties": {
        "@id": "node/3806467833",
        "amenity": "library",
        "internet_access": "wlan",
        "internet_access:fee": "no",
        "name": "三民分館",
        "official_name": "台北市立圖書館三民分館"
      },
      "geometry": {
        "type": "Point",
        "coordinates": [
          121.5628508,
          25.0592034
        ]
      },
      "id": "node/3806467833"
    },
    {
      "type": "Feature",
      "properties": {
        "@id": "node/3808319919",
        "amenity": "library",
        "name": "石牌圖書館",
        "official_name": "臺北市立圖書館石牌分館"
      },
      "geometry": {
        "type": "Point",
        "coordinates": [
          121.5226675,
          25.1131438
        ]
      },
      "id": "node/3808319919"
    },
    {
      "type": "Feature",
      "properties": {
        "@id": "node/3822530558",
        "amenity": "library",
        "name": "市圖秀山民眾閱覽室"
      },
      "geometry": {
        "type": "Point",
        "coordinates": [
          121.4931751,
          25.1455853
        ]
      },
      "id": "node/3822530558"
    },
    {
      "type": "Feature",
      "properties": {
        "@id": "node/3851686310",
        "addr:city": "台北市",
        "addr:country": "TW",
        "addr:district": "北投區",
        "addr:floor": "7;8",
        "addr:full": "台北市北投區石牌路二段115號七～八樓",
        "addr:housenumber": "115",
        "addr:street": "石牌路二段",
        "amenity": "library",
        "email": "l21@email.tpml.edu.tw",
        "fax": "+886 2 2823 4140",
        "name": "永明民眾閱覽室",
        "name:en": "Yongming Neighborhood Reading Room",
        "name:zh": "永明民眾閱覽室",
        "official_name": "台北市立圖書館永明民眾閱覽室",
        "opening_hours": "Su-Mo 09:00-17:00; Tu-Sa 08:30-21:00",
        "phone": "+886 2 2823 4141",
        "start_date": "1997-10-01"
      },
      "geometry": {
        "type": "Point",
        "coordinates": [
          121.5175681,
          25.1183216
        ]
      },
      "id": "node/3851686310"
    },
    {
      "type": "Feature",
      "properties": {
        "@id": "node/3926526891",
        "addr:city": "台北市",
        "addr:country": "TW",
        "addr:district": "士林區",
        "addr:housenumber": "6",
        "addr:postcode": "111",
        "addr:street": "中山北路七段154巷",
        "air_conditioning": "yes",
        "alt_name": "天母圖書館",
        "alt_name:en": "Tianmu Library",
        "alt_name:zh": "天母圖書館",
        "amenity": "library",
        "internet_access": "wlan",
        "internet_access:fee": "no",
        "internet_access:ssid": "TPE-Free",
        "level": "3",
        "name": "天母分館",
        "name:en": "Tianmu Branch",
        "name:zh": "天母分館",
        "official_name": "臺北市立圖書館天母分館",
        "opening_hours": "Tu-Sa 08:30-21:00; Su-Mo 09:00-17:00",
        "phone": "+886 2 2873 6203",
        "wikidata": "Q48901327",
        "wikipedia": "zh:臺北市立圖書館天母分館"
      },
      "geometry": {
        "type": "Point",
        "coordinates": [
          121.5330489,
          25.1235447
        ]
      },
      "id": "node/3926526891"
    },
    {
      "type": "Feature",
      "properties": {
        "@id": "node/4018205777",
        "alt_name": "中山圖書館",
        "amenity": "library",
        "name": "孫逸仙博士圖書館",
        "name:en": "Dr. Sun Yat-Sen Library",
        "name:ja": "孫逸仙博士図書館",
        "name:zh": "孫逸仙博士圖書館",
        "operator": "國立國父紀念館"
      },
      "geometry": {
        "type": "Point",
        "coordinates": [
          121.5605882,
          25.040032
        ]
      },
      "id": "node/4018205777"
    },
    {
      "type": "Feature",
      "properties": {
        "@id": "node/4018210622",
        "amenity": "library",
        "level": "-2",
        "name": "東區地下街智慧圖書館",
        "ref": "3"
      },
      "geometry": {
        "type": "Point",
        "coordinates": [
          121.5457686,
          25.041488
        ]
      },
      "id": "node/4018210622"
    },
    {
      "type": "Feature",
      "properties": {
        "@id": "node/4275934490",
        "addr:city": "台北市",
        "addr:country": "TW",
        "addr:district": "文山區",
        "addr:full": "11665臺北市萬美街一段25號1-2樓",
        "addr:housenumber": "25",
        "addr:postcode": "11665",
        "addr:street": "萬美街一段",
        "amenity": "library",
        "email": "h23@email.tpml.edu.tw",
        "fax": "+886 2 2230 5233",
        "internet_access": "wlan",
        "internet_access:fee": "yes",
        "internet_access:ssid": "TPE-Free",
        "name": "萬芳民眾閱覽室",
        "name:en": "Wanfang Neighborhood Reading Room",
        "name:zh": "萬芳民眾閱覽室",
        "opening_hours": "Tu-Sa 08:30-21:00; Su-Mo 09:00-17:00",
        "operator": "臺北市立圖書館",
        "operator:type": "public",
        "phone": "+886 2 2230 5287",
        "website": "https://tpml.gov.taipei/News_Content.aspx?n=4F66F55F388033A7&s=5885A582B271E3C7&sms=CFFFC938B352678A"
      },
      "geometry": {
        "type": "Point",
        "coordinates": [
          121.5692195,
          25.0022201
        ]
      },
      "id": "node/4275934490"
    },
    {
      "type": "Feature",
      "properties": {
        "@id": "node/4504820444",
        "amenity": "library",
        "name": "民生分館"
      },
      "geometry": {
        "type": "Point",
        "coordinates": [
          121.5514628,
          25.0569352
        ]
      },
      "id": "node/4504820444"
    },
    {
      "type": "Feature",
      "properties": {
        "@id": "node/4524863686",
        "amenity": "library",
        "name": "六合分館"
      },
      "geometry": {
        "type": "Point",
        "coordinates": [
          121.5688378,
          25.0243431
        ]
      },
      "id": "node/4524863686"
    },
    {
      "type": "Feature",
      "properties": {
        "@id": "node/4577549961",
        "amenity": "library",
        "name": "圖書館",
        "wheelchair": "limited"
      },
      "geometry": {
        "type": "Point",
        "coordinates": [
          121.5138964,
          25.03793
        ]
      },
      "id": "node/4577549961"
    },
    {
      "type": "Feature",
      "properties": {
        "@id": "node/4629375107",
        "amenity": "library"
      },
      "geometry": {
        "type": "Point",
        "coordinates": [
          121.5605387,
          25.0253518
        ]
      },
      "id": "node/4629375107"
    },
    {
      "type": "Feature",
      "properties": {
        "@id": "node/4716576276",
        "addr:city": "台北市",
        "addr:country": "TW",
        "addr:district": "文山區",
        "addr:floor": "7-9",
        "addr:housenumber": "160",
        "addr:postcode": "116",
        "addr:street": "興隆路二段",
        "amenity": "library",
        "internet_access": "wlan",
        "internet_access:fee": "no",
        "internet_access:ssid": "TPE-Free",
        "name": "文山分館",
        "official_name": "臺北市立圖書館文山分館",
        "opening_hours": "Tu-Sa 08:30-21:00, Su-Mo 09:00-17:00, Th[1] off, PH off",
        "operator": "臺北市立圖書館",
        "website": "http://www.tpml.edu.tw/"
      },
      "geometry": {
        "type": "Point",
        "coordinates": [
          121.5514694,
          25.0015142
        ]
      },
      "id": "node/4716576276"
    },
    {
      "type": "Feature",
      "properties": {
        "@id": "node/4717603320",
        "addr:city": "台北市",
        "addr:country": "TW",
        "addr:district": "文山區",
        "addr:floor": "4",
        "addr:housenumber": "1",
        "addr:postcode": "116",
        "addr:street": "興隆路四段105巷",
        "amenity": "library",
        "internet_access": "wlan",
        "internet_access:fee": "no",
        "level": "4",
        "name": "安康民眾閱覽室",
        "official_name": "臺北市立圖書館安康民眾閱覽室",
        "opening_hours": "Su-Mo 09:00-17:00; Tu-Sa 08:30-21:00",
        "operator": "臺北市立圖書館",
        "operator:type": "public",
        "phone": "+886 2 2939 0180",
        "website": "http://www.tpml.edu.tw"
      },
      "geometry": {
        "type": "Point",
        "coordinates": [
          121.5607933,
          24.9878064
        ]
      },
      "id": "node/4717603320"
    },
    {
      "type": "Feature",
      "properties": {
        "@id": "node/4784430731",
        "amenity": "library"
      },
      "geometry": {
        "type": "Point",
        "coordinates": [
          121.6101922,
          25.0758624
        ]
      },
      "id": "node/4784430731"
    },
    {
      "type": "Feature",
      "properties": {
        "@id": "node/4927508385",
        "addr:floor": "9",
        "amenity": "library",
        "name": "後港代辦民眾閱覽室"
      },
      "geometry": {
        "type": "Point",
        "coordinates": [
          121.5180681,
          25.0873152
        ]
      },
      "id": "node/4927508385"
    },
    {
      "type": "Feature",
      "properties": {
        "@id": "node/5110489231",
        "addr:city": "臺北市",
        "addr:country": "TW",
        "addr:district": "大同區",
        "addr:floor": "4",
        "addr:full": "10360臺北市民生西路198-20號4樓",
        "addr:housenumber": "198-20",
        "addr:postcode": "10360",
        "addr:street": "民生西路",
        "air_conditioning": "yes",
        "amenity": "library",
        "email": "f13@email.tpml.edu.tw",
        "fax": "+886 2 2556-5360",
        "internet_access": "wlan",
        "internet_access:fee": "no",
        "internet_access:ssid": "TpeFree",
        "name": "建成分館",
        "name:en": "Jiancheng Branch",
        "name:nan": "Kiàn-sîng-hun-kuán",
        "name:zh": "建成分館",
        "opening_hours": "Tu-Sa 08:30-21:00; Su-Mo 09:00-17:00",
        "operator": "臺北市立圖書館",
        "operator:en": "Taipei Public Library",
        "operator:type": "government",
        "operator:wikidata": "Q15896397",
        "operator:wikipedia": "zh:臺北市立圖書館",
        "operator:zh": "臺北市立圖書館",
        "phone": "+886 2 2558-2320",
        "start_date": "1979-07-19",
        "toilets:wheelchair": "yes",
        "wheelchair": "no"
      },
      "geometry": {
        "type": "Point",
        "coordinates": [
          121.5164515,
          25.056919
        ]
      },
      "id": "node/5110489231"
    },
    {
      "type": "Feature",
      "properties": {
        "@id": "node/5185384566",
        "amenity": "library",
        "name": "圖書館"
      },
      "geometry": {
        "type": "Point",
        "coordinates": [
          121.5614072,
          24.9739485
        ]
      },
      "id": "node/5185384566"
    },
    {
      "type": "Feature",
      "properties": {
        "@id": "node/5205509021",
        "addr:city": "台北市",
        "addr:country": "TW",
        "addr:district": "士林區",
        "addr:housenumber": "291",
        "addr:postcode": "111",
        "addr:street": "中山北路六段",
        "amenity": "library",
        "name": "尼雅藝術家具",
        "toilets:wheelchair": "no",
        "wheelchair": "limited",
        "wheelchair:description": "0"
      },
      "geometry": {
        "type": "Point",
        "coordinates": [
          121.5253662,
          25.1104596
        ]
      },
      "id": "node/5205509021"
    },
    {
      "type": "Feature",
      "properties": {
        "@id": "node/5254601541",
        "addr:city": "臺北市",
        "addr:country": "TW",
        "addr:district": "大安區",
        "addr:floor": "3;4",
        "addr:full": "10696臺北市大安區延吉街236巷17號3．4樓",
        "addr:housenumber": "17",
        "addr:postcode": "10696",
        "addr:street": "延吉街236巷",
        "amenity": "library",
        "email": "c21@email.tpml.edu.tw",
        "fax": "+886 2 2705 2653",
        "name": "延吉民眾閱覽室",
        "official_name": "臺北市立圖書館延吉民眾閱覽室",
        "phone": "+886 2 2708 1964",
        "start_date": "1983-06-16"
      },
      "geometry": {
        "type": "Point",
        "coordinates": [
          121.5551379,
          25.0364573
        ]
      },
      "id": "node/5254601541"
    },
    {
      "type": "Feature",
      "properties": {
        "@id": "node/5316457293",
        "amenity": "library",
        "name": "原住民族圖書資訊中心",
        "wheelchair": "yes"
      },
      "geometry": {
        "type": "Point",
        "coordinates": [
          121.5411992,
          25.01783
        ]
      },
      "id": "node/5316457293"
    },
    {
      "type": "Feature",
      "properties": {
        "@id": "node/5757678666",
        "amenity": "library",
        "name": "圖書文獻大樓"
      },
      "geometry": {
        "type": "Point",
        "coordinates": [
          121.5486925,
          25.1002536
        ]
      },
      "id": "node/5757678666"
    },
    {
      "type": "Feature",
      "properties": {
        "@id": "node/5841020143",
        "amenity": "library",
        "name": "立法院國會圖書館",
        "wikidata": "Q15923540"
      },
      "geometry": {
        "type": "Point",
        "coordinates": [
          121.5201363,
          25.0432119
        ]
      },
      "id": "node/5841020143"
    },
    {
      "type": "Feature",
      "properties": {
        "@id": "node/5843737118",
        "amenity": "library",
        "name": "勞工保險局企劃室圖書館"
      },
      "geometry": {
        "type": "Point",
        "coordinates": [
          121.5176701,
          25.032982
        ]
      },
      "id": "node/5843737118"
    },
    {
      "type": "Feature",
      "properties": {
        "@id": "node/5843759281",
        "amenity": "library",
        "name": "總統府第二局第五科圖書館"
      },
      "geometry": {
        "type": "Point",
        "coordinates": [
          121.5117347,
          25.0404859
        ]
      },
      "id": "node/5843759281"
    },
    {
      "type": "Feature",
      "properties": {
        "@id": "node/5920284485",
        "amenity": "library",
        "name": "信誼太陽親子館"
      },
      "geometry": {
        "type": "Point",
        "coordinates": [
          121.5149705,
          25.0311976
        ]
      },
      "id": "node/5920284485"
    },
    {
      "type": "Feature",
      "properties": {
        "@id": "node/6180749166",
        "amenity": "library",
        "name": "圖書館"
      },
      "geometry": {
        "type": "Point",
        "coordinates": [
          121.558535,
          25.000837
        ]
      },
      "id": "node/6180749166"
    },
    {
      "type": "Feature",
      "properties": {
        "@id": "node/6271626932",
        "amenity": "library",
        "name": "南海普陀山慧濟寺附設圖書館",
        "operator": "南海普陀山慧濟寺"
      },
      "geometry": {
        "type": "Point",
        "coordinates": [
          121.5360194,
          25.1265252
        ]
      },
      "id": "node/6271626932"
    },
    {
      "type": "Feature",
      "properties": {
        "@id": "node/6464866185",
        "addr:city": "台北市",
        "addr:country": "TW",
        "addr:district": "大安區",
        "addr:housenumber": "21",
        "addr:postcode": "106",
        "addr:street": "羅斯福路三段283巷19弄",
        "amenity": "library",
        "internet_access": "yes",
        "internet_access:fee": "no",
        "name": "Lightbox 攝影圖書室",
        "opening_hours": "Tu-Sa 13:00-18:00",
        "toilets": "yes",
        "toilets:access": "customers",
        "toilets:wheelchair": "yes",
        "website": "https://www.lightboxlib.org/",
        "wheelchair": "yes",
        "wikidata": "Q64737917"
      },
      "geometry": {
        "type": "Point",
        "coordinates": [
          121.5306502,
          25.019761
        ]
      },
      "id": "node/6464866185"
    },
    {
      "type": "Feature",
      "properties": {
        "@id": "node/6700210235",
        "addr:city": "台北市",
        "addr:country": "TW",
        "addr:district": "信義區",
        "addr:floor": "3",
        "addr:full": "台北市信義區松山路294號3樓",
        "addr:housenumber": "294",
        "addr:postcode": "110",
        "addr:street": "松山路",
        "amenity": "library",
        "name": "永春分館"
      },
      "geometry": {
        "type": "Point",
        "coordinates": [
          121.5775529,
          25.0431022
        ]
      },
      "id": "node/6700210235"
    },
    {
      "type": "Feature",
      "properties": {
        "@id": "node/6861028880",
        "amenity": "library",
        "name": "石牌分館"
      },
      "geometry": {
        "type": "Point",
        "coordinates": [
          121.5100725,
          25.1140781
        ]
      },
      "id": "node/6861028880"
    },
    {
      "type": "Feature",
      "properties": {
        "@id": "node/7105971481",
        "amenity": "library",
        "drinking_water": "yes",
        "name": "北原會館圖書館"
      },
      "geometry": {
        "type": "Point",
        "coordinates": [
          121.5944695,
          25.0539774
        ]
      },
      "id": "node/7105971481"
    },
    {
      "type": "Feature",
      "properties": {
        "@id": "node/7214103892",
        "addr:city": "臺北市",
        "addr:country": "TW",
        "addr:full": "10869臺北市東園街199號",
        "addr:housenumber": "199",
        "addr:postcode": "10869",
        "addr:street": "東園街",
        "amenity": "library",
        "email": "g12@email.tpml.edu.tw",
        "fax": "+886 2 2301 6572",
        "name": "東園分館",
        "official_name": "台北市立圖書館東園分館",
        "opening_hours": "Su-Mo 09:00-17:00; Tu-Sa 08:30-21:00",
        "phone": "+886 2 2307 0460"
      },
      "geometry": {
        "type": "Point",
        "coordinates": [
          121.4981407,
          25.0226735
        ]
      },
      "id": "node/7214103892"
    },
    {
      "type": "Feature",
      "properties": {
        "@id": "node/7214103893",
        "addr:city": "臺北市",
        "addr:country": "TW",
        "addr:district": "中正區",
        "addr:full": "臺北市中正區寧波西街286號",
        "addr:housenumber": "286",
        "addr:postcode": "100",
        "addr:street": "寧波西街",
        "air_conditioning": "yes",
        "amenity": "library",
        "drinking_water": "no",
        "internet_access": "wlan",
        "internet_access:fee": "no",
        "internet_access:ssid": "TPE-Free",
        "name": "古亭智慧圖書館",
        "official_name": "臺北市立圖書館古亭智慧圖書館",
        "opening_hours": "Mo-Su 9:00-21:00",
        "operator": "臺北市立圖書館",
        "operator:type": "public",
        "toilet": "yes"
      },
      "geometry": {
        "type": "Point",
        "coordinates": [
          121.5104373,
          25.0251805
        ]
      },
      "id": "node/7214103893"
    },
    {
      "type": "Feature",
      "properties": {
        "@id": "node/7214103918",
        "addr:city": "臺北市",
        "addr:country": "TW",
        "addr:district": "大同區",
        "addr:full": "103010臺北市大同區保安街47號",
        "addr:housenumber": "47",
        "addr:postcode": "103010",
        "addr:street": "保安街",
        "amenity": "library",
        "email": "f11@email.tpml.edu.tw",
        "fax": "+886 2 2552 8544",
        "name": "延平分館",
        "official_name": "臺北市立圖書館延平分館",
        "opening_hours": "Su-Mo 09:00-17:00; Tu-Sa 08:30-21:00",
        "operator": "臺北市立圖書館",
        "operator:type": "government",
        "phone": "+886 2 2552 8534"
      },
      "geometry": {
        "type": "Point",
        "coordinates": [
          121.5120721,
          25.0592209
        ]
      },
      "id": "node/7214103918"
    },
    {
      "type": "Feature",
      "properties": {
        "@id": "node/7215614322",
        "addr:city": "臺北市",
        "addr:country": "TW",
        "addr:floor": "1;2",
        "addr:full": "11443臺北市內湖路一段285巷66號1-2樓",
        "addr:housenumber": "66",
        "addr:postcode": "11443",
        "addr:street": "內湖路一段285巷",
        "amenity": "library",
        "email": "j14@email.tpml.edu.tw",
        "fax": "+886 2 8751 9994",
        "name": "西中分館",
        "official_name": "台北市立圖書館西中分館",
        "phone": "+886 2 8751 5497"
      },
      "geometry": {
        "type": "Point",
        "coordinates": [
          121.5666443,
          25.085011
        ]
      },
      "id": "node/7215614322"
    },
    {
      "type": "Feature",
      "properties": {
        "@id": "node/7220601355",
        "addr:city": "臺北市",
        "addr:country": "TW",
        "addr:floor": "3;4",
        "addr:full": "11650臺北市保儀路13巷3號3、4樓",
        "addr:housenumber": "3",
        "addr:postcode": "11650",
        "addr:street": "保儀路13巷",
        "amenity": "library",
        "email": "h12@email.tpml.edu.tw",
        "fax": "+886 2 2936 2631",
        "internet_access": "wlan",
        "internet_access:fee": "no",
        "internet_access:ssid": "TPE-Free",
        "name": "木柵分館",
        "official_name": "臺北市立圖書館木柵分館",
        "opening_hours": "Tu-Sa 08:30-21:00, Su-Mo 09:00-17:00, Th[1] off, PH off",
        "operator": "臺北市立圖書館",
        "phone": "+886 2 2939 7520",
        "website": "http://www.tpml.edu.tw/"
      },
      "geometry": {
        "type": "Point",
        "coordinates": [
          121.569179,
          24.9885864
        ]
      },
      "id": "node/7220601355"
    },
    {
      "type": "Feature",
      "properties": {
        "@id": "node/7221622855",
        "addr:city": "臺北市",
        "addr:district": "內湖區",
        "addr:floor": "6",
        "addr:full": "11466臺北市民權東路六段99號6樓",
        "addr:housenumber": "99",
        "addr:postcode": "11466",
        "addr:street": "民權東路六段",
        "amenity": "library",
        "email": "j11@email.tpml.edu.tw",
        "fax": "+886 2 2795 3876",
        "internet_access": "wlan",
        "internet_access:fee": "no",
        "internet_access:ssid": "TPE-Free",
        "name": "內湖分館",
        "operator": "臺北市立圖書館",
        "operator:type": "public",
        "phone": "+886 2 2791 8772"
      },
      "geometry": {
        "type": "Point",
        "coordinates": [
          121.5888523,
          25.0694201
        ]
      },
      "id": "node/7221622855"
    },
    {
      "type": "Feature",
      "properties": {
        "@id": "node/7221708025",
        "addr:city": "臺北市",
        "addr:country": "TW",
        "addr:district": "中正區",
        "addr:full": "臺北市中正區中華路一段51-1號捷運西門地下街",
        "addr:housename": "捷運西門地下街",
        "addr:housenumber": "51-1",
        "addr:street": "中華路一段",
        "amenity": "library",
        "indoor": "yes",
        "layer": "-1",
        "name": "西門智慧圖書館",
        "official_name": "臺北市立圖書館西門智慧圖書館",
        "opening_hours": "Mo-Su 6:00-0:00",
        "start_date": "2006-05-12",
        "website": "https://tpml.gov.taipei/News_Content.aspx?n=4F66F55F388033A7&s=D88A21207E40A830&sms=CFFFC938B352678A",
        "wikidata": "Q15955408",
        "wikipedia": "zh:臺北市立圖書館西門智慧圖書館"
      },
      "geometry": {
        "type": "Point",
        "coordinates": [
          121.508893,
          25.043655
        ]
      },
      "id": "node/7221708025"
    },
    {
      "type": "Feature",
      "properties": {
        "@id": "node/7221781609",
        "addr:city": "臺北市",
        "addr:country": "TW",
        "addr:district": "士林區",
        "addr:floor": "2",
        "addr:full": "11160臺北市基河路363號2樓",
        "addr:housenumber": "363",
        "addr:postcode": "11160",
        "addr:street": "基河路",
        "amenity": "library",
        "email": "k13@email.tpml.edu.tw",
        "name": "士林分館臨時替代館",
        "name:en": "Shihlin Branch",
        "name:zh": "士林分館臨時替代館",
        "official_name": "台北市立圖書館士林分館",
        "official_name:en": "Taipei Public Library Shihlin Branch",
        "official_name:zh": "台北市立圖書館士林分館",
        "old_name": "士林分館",
        "old_name:zh": "士林分館",
        "opening_hours": "Tu-Su 9:00-17:00",
        "operator": "台北市立圖書館",
        "phone": "+886 2 2834 0085",
        "website": "http://www.tpml.edu.tw/ct.asp?mp=104021&xItem=1140612&CtNode=58132",
        "wheelchair": "yes"
      },
      "geometry": {
        "type": "Point",
        "coordinates": [
          121.5185764,
          25.0956773
        ]
      },
      "id": "node/7221781609"
    },
    {
      "type": "Feature",
      "properties": {
        "@id": "node/7951900082",
        "amenity": "library",
        "name": "臺灣高等法院圖書館"
      },
      "geometry": {
        "type": "Point",
        "coordinates": [
          121.5122846,
          25.0380888
        ]
      },
      "id": "node/7951900082"
    },
    {
      "type": "Feature",
      "properties": {
        "@id": "node/8209067401",
        "addr:city": "臺北市",
        "addr:district": "士林區",
        "addr:floor": "11",
        "addr:place": "陽明山",
        "addr:postcode": "11114",
        "addr:street": "曾子路",
        "addr:unit": "大義館",
        "amenity": "library",
        "internet_access": "yes",
        "name": "24k休息室",
        "operator": "中國文化大學",
        "operator:type": "public"
      },
      "geometry": {
        "type": "Point",
        "coordinates": [
          121.5395544,
          25.1364348
        ]
      },
      "id": "node/8209067401"
    },
    {
      "type": "Feature",
      "properties": {
        "@id": "node/8277501436",
        "amenity": "library",
        "name": "龍華民眾閱覽室",
        "wheelchair": "yes"
      },
      "geometry": {
        "type": "Point",
        "coordinates": [
          121.5869102,
          25.0475509
        ]
      },
      "id": "node/8277501436"
    },
    {
      "type": "Feature",
      "properties": {
        "@id": "node/9375579539",
        "addr:floor": "1",
        "amenity": "library"
      },
      "geometry": {
        "type": "Point",
        "coordinates": [
          121.5188503,
          25.0592526
        ]
      },
      "id": "node/9375579539"
    },
    {
      "type": "Feature",
      "properties": {
        "@id": "node/9566170061",
        "amenity": "library",
        "name": "建中圖書館",
        "official_name": "臺北市立建國高級中學圖書館",
        "wikidata": "Q97752596"
      },
      "geometry": {
        "type": "Point",
        "coordinates": [
          121.5135396,
          25.0308469
        ]
      },
      "id": "node/9566170061"
    },
    {
      "type": "Feature",
      "properties": {
        "@id": "node/9750631231",
        "amenity": "library",
        "name": "碧湖國小圖書室"
      },
      "geometry": {
        "type": "Point",
        "coordinates": [
          121.5916605,
          25.083954
        ]
      },
      "id": "node/9750631231"
    },
    {
      "type": "Feature",
      "properties": {
        "@id": "node/9750732305",
        "addr:floor": "B1",
        "amenity": "library",
        "name": "氣象局圖書室"
      },
      "geometry": {
        "type": "Point",
        "coordinates": [
          121.5142073,
          25.037362
        ]
      },
      "id": "node/9750732305"
    },
    {
      "type": "Feature",
      "properties": {
        "@id": "node/9787127632",
        "amenity": "library",
        "name": "內湖國小圖書館"
      },
      "geometry": {
        "type": "Point",
        "coordinates": [
          121.5799582,
          25.0793857
        ]
      },
      "id": "node/9787127632"
    },
    {
      "type": "Feature",
      "properties": {
        "@id": "node/9787141449",
        "amenity": "library",
        "name": "碧湖公園閱覽室"
      },
      "geometry": {
        "type": "Point",
        "coordinates": [
          121.5829625,
          25.0826908
        ]
      },
      "id": "node/9787141449"
    },
    {
      "type": "Feature",
      "properties": {
        "@id": "node/9798254493",
        "addr:city": "臺北市",
        "addr:district": "松山區",
        "addr:floor": "B1",
        "addr:housenumber": "338",
        "addr:street": "敦化北路",
        "amenity": "library",
        "name": "松山機場智慧圖書館",
        "operator": "臺北市立圖書館",
        "operator:en": "Taipei Public Library",
        "operator:type": "government",
        "operator:wikidata": "Q15896397",
        "operator:zh": "臺北市立圖書館"
      },
      "geometry": {
        "type": "Point",
        "coordinates": [
          121.5515894,
          25.0631877
        ]
      },
      "id": "node/9798254493"
    },
    {
      "type": "Feature",
      "properties": {
        "@id": "node/9803481364",
        "addr:floor": "2",
        "amenity": "library",
        "name": "內湖高工圖書館"
      },
      "geometry": {
        "type": "Point",
        "coordinates": [
          121.575031,
          25.0797739
        ]
      },
      "id": "node/9803481364"
    },
    {
      "type": "Feature",
      "properties": {
        "@id": "node/9803531675",
        "amenity": "library",
        "name": "麗山國小圖書室"
      },
      "geometry": {
        "type": "Point",
        "coordinates": [
          121.5725234,
          25.082629
        ]
      },
      "id": "node/9803531675"
    },
    {
      "type": "Feature",
      "properties": {
        "@id": "node/9803531689",
        "addr:floor": "4",
        "amenity": "library",
        "name": "麗山國中圖書室"
      },
      "geometry": {
        "type": "Point",
        "coordinates": [
          121.5756567,
          25.081989
        ]
      },
      "id": "node/9803531689"
    },
    {
      "type": "Feature",
      "properties": {
        "@id": "node/9803573464",
        "addr:floor": "1",
        "amenity": "library",
        "name": "內湖高中圖書館"
      },
      "geometry": {
        "type": "Point",
        "coordinates": [
          121.5870017,
          25.0783615
        ]
      },
      "id": "node/9803573464"
    },
    {
      "type": "Feature",
      "properties": {
        "@id": "node/9803573471",
        "addr:floor": "2",
        "amenity": "library",
        "name": "內湖國中圖書館"
      },
      "geometry": {
        "type": "Point",
        "coordinates": [
          121.5889866,
          25.0764112
        ]
      },
      "id": "node/9803573471"
    },
    {
      "type": "Feature",
      "properties": {
        "@id": "node/9848433061",
        "addr:city": "臺北市",
        "addr:country": "TW",
        "addr:district": "文山區",
        "addr:floor": "3;4",
        "addr:housenumber": "177",
        "addr:postcode": "116005",
        "addr:street": "木柵路一段",
        "amenity": "library",
        "email": "h13@email.tpml.edu.tw",
        "fax": "+886 2 2236 2443",
        "internet_access": "wlan",
        "internet_access:fee": "no",
        "internet_access:ssid": "TPE-Free",
        "name": "永建分館",
        "official_name": "臺北市立圖書館永建分館",
        "opening_hours": "Tu-Sa 08:30-21:00; Su-Mo 09:00-17:00; Th[1] off; PH off",
        "operator": "臺北市立圖書館",
        "operator:en": "Taipei Public Library",
        "operator:type": "government",
        "operator:wikidata": "Q15896397",
        "operator:zh": "臺北市立圖書館",
        "phone": "+886 2 2236 7448",
        "ref": "H13",
        "start_date": "1992-06-27",
        "toilets:wheelchair": "yes",
        "website": "https://tpml.gov.taipei",
        "wheelchair": "yes"
      },
      "geometry": {
        "type": "Point",
        "coordinates": [
          121.5510755,
          24.9880278
        ]
      },
      "id": "node/9848433061"
    },
    {
      "type": "Feature",
      "properties": {
        "@id": "node/9909363802",
        "amenity": "library",
        "name": "臺北市立圖書館社子島智慧圖書館"
      },
      "geometry": {
        "type": "Point",
        "coordinates": [
          121.4745959,
          25.1061456
        ]
      },
      "id": "node/9909363802"
    }
  ]
}