{
  "type": "FeatureCollection",
  "generator": "overpass-ide",
  "copyright": "The data included in this document is from www.openstreetmap.org. The data is made available under ODbL.",
  "timestamp": "2022-07-26T06:00:07Z",
  "features": [
    {
      "type": "Feature",
      "properties": {
        "@id": "way/74517269",
        "addr:city": "臺北市",
        "addr:country": "TW",
        "addr:district": "南港區",
        "addr:housenumber": "150",
        "addr:postcode": "115",
        "addr:street": "向陽路",
        "amenity": "police",
        "building": "office",
        "name": "南港分局",
        "name:en": "Nangang Police Precinct",
        "name:zh": "南港分局",
        "office": "government"
      },
      "geometry": {
        "type": "Polygon",
        "coordinates": [
          [
            [
              121.5943991,
              25.0555812
            ],
            [
              121.594636,
              25.0551789
            ],
            [
              121.5946843,
              25.0551983
            ],
            [
              121.5946923,
              25.0551764
            ],
            [
              121.5946843,
              25.0551473
            ],
            [
              121.594687,
              25.0551303
            ],
            [
              121.5947111,
              25.055089
            ],
            [
              121.5947592,
              25.055066
            ],
            [
              121.5948157,
              25.0550622
            ],
            [
              121.5948624,
              25.0550988
            ],
            [
              121.5949425,
              25.0550491
            ],
            [
              121.5951605,
              25.0551432
            ],
            [
              121.5949981,
              25.0554361
            ],
            [
              121.5947831,
              25.0553337
            ],
            [
              121.5946929,
              25.0553664
            ],
            [
              121.5945328,
              25.0556448
            ],
            [
              121.5943991,
              25.0555812
            ]
          ]
        ]
      },
      "id": "way/74517269"
    },
    {
      "type": "Feature",
      "properties": {
        "@id": "way/139206228",
        "addr:city": "臺北市",
        "addr:country": "TW",
        "addr:district": "大安區",
        "addr:housenumber": "2",
        "addr:postcode": "106",
        "addr:street": "仁愛路三段",
        "amenity": "police",
        "building": "office",
        "building:levels": "11",
        "name": "大安分局",
        "office": "government"
      },
      "geometry": {
        "type": "Polygon",
        "coordinates": [
          [
            [
              121.5333019,
              25.0376469
            ],
            [
              121.533302,
              25.037652
            ],
            [
              121.5333584,
              25.0376515
            ],
            [
              121.5333589,
              25.0377008
            ],
            [
              121.5333624,
              25.0377007
            ],
            [
              121.5333673,
              25.0377139
            ],
            [
              121.5333709,
              25.0377273
            ],
            [
              121.5333733,
              25.037741
            ],
            [
              121.5333743,
              25.0377549
            ],
            [
              121.533374,
              25.0377687
            ],
            [
              121.5333724,
              25.0377825
            ],
            [
              121.5333695,
              25.0377961
            ],
            [
              121.5333653,
              25.0378095
            ],
            [
              121.5333621,
              25.0378095
            ],
            [
              121.5333627,
              25.0378616
            ],
            [
              121.5331873,
              25.0378632
            ],
            [
              121.5331289,
              25.0378138
            ],
            [
              121.5331271,
              25.0376531
            ],
            [
              121.5332392,
              25.0376521
            ],
            [
              121.5332391,
              25.0376384
            ],
            [
              121.5332604,
              25.0376388
            ],
            [
              121.5332814,
              25.0376417
            ],
            [
              121.5333019,
              25.0376469
            ]
          ]
        ]
      },
      "id": "way/139206228"
    },
    {
      "type": "Feature",
      "properties": {
        "@id": "way/203799180",
        "addr:city": "臺北市",
        "addr:country": "TW",
        "addr:district": "士林區",
        "addr:full": "臺北市士林區文林路235號",
        "addr:housenumber": "235",
        "addr:postcode": "111",
        "addr:street": "文林路",
        "amenity": "police",
        "building": "office",
        "name": "士林分局",
        "office": "government",
        "toilets:wheelchair": "yes",
        "wheelchair": "yes"
      },
      "geometry": {
        "type": "Polygon",
        "coordinates": [
          [
            [
              121.5262205,
              25.0906136
            ],
            [
              121.5262458,
              25.0905346
            ],
            [
              121.526318,
              25.0905536
            ],
            [
              121.5263291,
              25.0905192
            ],
            [
              121.5264131,
              25.0905413
            ],
            [
              121.5264232,
              25.09051
            ],
            [
              121.5264997,
              25.0905302
            ],
            [
              121.5265211,
              25.0904635
            ],
            [
              121.526705,
              25.090512
            ],
            [
              121.5266469,
              25.0906932
            ],
            [
              121.5266372,
              25.0907232
            ],
            [
              121.5264575,
              25.0906759
            ],
            [
              121.5263768,
              25.0906547
            ],
            [
              121.5262205,
              25.0906136
            ]
          ]
        ]
      },
      "id": "way/203799180"
    },
    {
      "type": "Feature",
      "properties": {
        "@id": "way/208362638",
        "addr:city": "臺北市",
        "addr:country": "TW",
        "addr:district": "內湖區",
        "addr:full": "臺北市內湖區民權路六段101號",
        "addr:housenumber": "101",
        "addr:postcode": "114",
        "addr:street": "民權路六段",
        "amenity": "police",
        "building": "office",
        "name": "內湖分局",
        "office": "government",
        "phone": "+886-2-27900505"
      },
      "geometry": {
        "type": "Polygon",
        "coordinates": [
          [
            [
              121.5894663,
              25.0694446
            ],
            [
              121.5894578,
              25.0692307
            ],
            [
              121.5897356,
              25.0692217
            ],
            [
              121.5897441,
              25.0694357
            ],
            [
              121.5894663,
              25.0694446
            ]
          ]
        ]
      },
      "id": "way/208362638"
    },
    {
      "type": "Feature",
      "properties": {
        "@id": "way/226828762",
        "addr:city": "臺北市",
        "addr:country": "TW",
        "addr:district": "北投區",
        "addr:full": "臺北市北投區奇岩里公館路209巷11號",
        "addr:housenumber": "11",
        "addr:postcode": "112",
        "addr:street": "公館路209巷",
        "amenity": "police",
        "building": "yes",
        "name": "奇岩派出所",
        "phone": "+886-2-28954410"
      },
      "geometry": {
        "type": "Polygon",
        "coordinates": [
          [
            [
              121.5078813,
              25.1276853
            ],
            [
              121.5078817,
              25.1276073
            ],
            [
              121.5079748,
              25.1276076
            ],
            [
              121.508069,
              25.1276079
            ],
            [
              121.5080687,
              25.1276859
            ],
            [
              121.5078813,
              25.1276853
            ]
          ]
        ]
      },
      "id": "way/226828762"
    },
    {
      "type": "Feature",
      "properties": {
        "@id": "way/237121381",
        "addr:city": "臺北市",
        "addr:country": "TW",
        "addr:district": "萬華區",
        "addr:full": "10847臺北市萬華區長沙街二段169號",
        "addr:housenumber": "169",
        "addr:postcode": "10847",
        "addr:street": "長沙街二段",
        "amenity": "police",
        "building": "office",
        "fax": "+886-2-2311-9802",
        "name": "臺北市警察局萬華分局警備隊",
        "office": "government",
        "opening_hours": "24/7",
        "operator": "臺北市政府警察局萬華分局",
        "phone": "+886-2-2361-0080"
      },
      "geometry": {
        "type": "Polygon",
        "coordinates": [
          [
            [
              121.5019845,
              25.0405988
            ],
            [
              121.5020109,
              25.0406293
            ],
            [
              121.5020085,
              25.0406576
            ],
            [
              121.50185,
              25.0406858
            ],
            [
              121.5018068,
              25.0405771
            ],
            [
              121.5018717,
              25.0405988
            ],
            [
              121.5019845,
              25.0405988
            ]
          ]
        ]
      },
      "id": "way/237121381"
    },
    {
      "type": "Feature",
      "properties": {
        "@id": "way/245622029",
        "addr:city": "臺北市",
        "addr:country": "TW",
        "addr:district": "中正區",
        "addr:full": "10066臺北市中正區南昌路一段10號",
        "addr:housenumber": "10",
        "addr:postcode": "10066",
        "addr:street": "南昌路一段",
        "amenity": "police",
        "building": "yes",
        "building:levels": "8",
        "building:levels:underground": "2",
        "fax": "+886-2-2397-9990",
        "name": "保安警察第六總隊",
        "name:en": "Secial Police Sixth Headquarters",
        "name:zh": "保安警察第六總隊",
        "official_name": "內政部警政署保安警察第六總隊",
        "operator": "內政部警政署",
        "phone": "+886-2-2393-3364",
        "website": "http://www.spc.gov.tw/"
      },
      "geometry": {
        "type": "Polygon",
        "coordinates": [
          [
            [
              121.515877,
              25.0324821
            ],
            [
              121.5155965,
              25.0328568
            ],
            [
              121.5157416,
              25.032946
            ],
            [
              121.5156858,
              25.0330204
            ],
            [
              121.5155994,
              25.0331359
            ],
            [
              121.5155831,
              25.0331576
            ],
            [
              121.515527,
              25.0331231
            ],
            [
              121.5155432,
              25.0331014
            ],
            [
              121.515447,
              25.0330422
            ],
            [
              121.5154249,
              25.0330286
            ],
            [
              121.515417,
              25.0330391
            ],
            [
              121.5153274,
              25.0329841
            ],
            [
              121.515334,
              25.0329751
            ],
            [
              121.5153283,
              25.0329716
            ],
            [
              121.5153268,
              25.0329707
            ],
            [
              121.5153206,
              25.032979
            ],
            [
              121.5152808,
              25.0329545
            ],
            [
              121.515287,
              25.0329462
            ],
            [
              121.5152637,
              25.0329319
            ],
            [
              121.5152473,
              25.0329218
            ],
            [
              121.5152591,
              25.0329061
            ],
            [
              121.5152838,
              25.0328731
            ],
            [
              121.5152514,
              25.0328532
            ],
            [
              121.5153541,
              25.0327159
            ],
            [
              121.515348,
              25.0327122
            ],
            [
              121.5155845,
              25.0323963
            ],
            [
              121.5156116,
              25.032413
            ],
            [
              121.5156256,
              25.0323943
            ],
            [
              121.5157461,
              25.0324683
            ],
            [
              121.5157741,
              25.032431
            ],
            [
              121.5158616,
              25.0324848
            ],
            [
              121.5158678,
              25.0324764
            ],
            [
              121.515877,
              25.0324821
            ]
          ]
        ]
      },
      "id": "way/245622029"
    },
    {
      "type": "Feature",
      "properties": {
        "@id": "way/247678987",
        "addr:city": "臺北市",
        "addr:country": "TW",
        "addr:district": "大安區",
        "addr:full": "臺北市大安區羅斯福路四段113巷13號",
        "addr:housenumber": "13",
        "addr:postcode": "106",
        "addr:street": "羅斯福路四段113巷",
        "amenity": "police",
        "building": "government",
        "name": "羅斯福路派出所",
        "operator": "臺北市政府警察局",
        "operator:en": "Taipei City Police Department",
        "operator:wikidata": "Q15903297",
        "operator:wikipedia": "zh:臺北市政府警察局",
        "operator:zh": "臺北市政府警察局",
        "phone": "+886 2 2735 5761"
      },
      "geometry": {
        "type": "Polygon",
        "coordinates": [
          [
            [
              121.5379145,
              25.011188
            ],
            [
              121.5379193,
              25.010733
            ],
            [
              121.538172,
              25.0107413
            ],
            [
              121.5381797,
              25.0111926
            ],
            [
              121.5379145,
              25.011188
            ]
          ]
        ]
      },
      "id": "way/247678987"
    },
    {
      "type": "Feature",
      "properties": {
        "@id": "way/251580885",
        "addr:city": "臺北市",
        "addr:country": "TW",
        "addr:district": "中山區",
        "addr:full": "臺北市中山區中山北路二段1號",
        "addr:housenumber": "1",
        "addr:postcode": "10450",
        "addr:street": "中山北路二段",
        "amenity": "police",
        "building": "office",
        "building:levels": "10",
        "name": "臺北市政府警察局中山分局",
        "name:en": "Zhongshan Precinct",
        "name:ja": "中山警察署",
        "name:zh": "中山分局",
        "office": "government",
        "official_name": "臺北市政府警察局中山分局",
        "official_name:en": "Taipei City Police Department Zhongshan Precinct",
        "opening_hours": "24/7",
        "operator": "臺北市政府警察局",
        "phone": "+886 2 25412491",
        "source": "bing",
        "website": "http://cs.police.taipei/",
        "wheelchair": "limited"
      },
      "geometry": {
        "type": "Polygon",
        "coordinates": [
          [
            [
              121.5229361,
              25.0523839
            ],
            [
              121.5229421,
              25.052538
            ],
            [
              121.5229536,
              25.052542
            ],
            [
              121.5229616,
              25.0525621
            ],
            [
              121.5229625,
              25.0525839
            ],
            [
              121.5229527,
              25.0526032
            ],
            [
              121.5229394,
              25.0526153
            ],
            [
              121.5229385,
              25.0526543
            ],
            [
              121.5227847,
              25.0526614
            ],
            [
              121.5227685,
              25.0524481
            ],
            [
              121.5227989,
              25.0524147
            ],
            [
              121.5228205,
              25.0523883
            ],
            [
              121.5229361,
              25.0523839
            ]
          ]
        ]
      },
      "id": "way/251580885"
    },
    {
      "type": "Feature",
      "properties": {
        "@id": "way/262353908",
        "addr:city": "臺北市",
        "addr:country": "TW",
        "addr:district": "士林區",
        "addr:full": "台北市士林區平菁街86號",
        "addr:housenumber": "86",
        "addr:postcode": "111",
        "addr:street": "平菁街",
        "amenity": "police",
        "building": "yes",
        "name": "平等駐在所"
      },
      "geometry": {
        "type": "Polygon",
        "coordinates": [
          [
            [
              121.5764268,
              25.1312896
            ],
            [
              121.5764084,
              25.1312003
            ],
            [
              121.5764453,
              25.1311953
            ],
            [
              121.5764392,
              25.131135
            ],
            [
              121.5765191,
              25.1311474
            ],
            [
              121.5765215,
              25.1311865
            ],
            [
              121.5765374,
              25.1311856
            ],
            [
              121.5765463,
              25.1312728
            ],
            [
              121.5764268,
              25.1312896
            ]
          ]
        ]
      },
      "id": "way/262353908"
    },
    {
      "type": "Feature",
      "properties": {
        "@id": "way/265935416",
        "addr:city": "臺北市",
        "addr:country": "TW",
        "addr:district": "中正區",
        "addr:full": "10066臺北市中正區愛國西路26號",
        "addr:housenumber": "26",
        "addr:postcode": "10066",
        "addr:street": "愛國西路",
        "amenity": "police",
        "building": "commercial",
        "building:levels": "10",
        "building:levels:underground": "3",
        "name": "交通警察大隊",
        "name:en": "Traffic Division",
        "name:zh": "交通警察大隊",
        "office": "government",
        "official_name": "臺北市警察局交通警察大隊",
        "official_name:en": "Traffic Division, Taipei City Police Department",
        "operator": "臺北市政府警察局",
        "phone": "+886-2-2375-2100",
        "website": "http://td.police.taipei/"
      },
      "geometry": {
        "type": "Polygon",
        "coordinates": [
          [
            [
              121.5109288,
              25.034963
            ],
            [
              121.5111,
              25.0349288
            ],
            [
              121.51112,
              25.0350114
            ],
            [
              121.5112979,
              25.0349759
            ],
            [
              121.5113414,
              25.035155
            ],
            [
              121.5110719,
              25.0352088
            ],
            [
              121.5110637,
              25.0351748
            ],
            [
              121.5109842,
              25.0351907
            ],
            [
              121.5109288,
              25.034963
            ]
          ]
        ]
      },
      "id": "way/265935416"
    },
    {
      "type": "Feature",
      "properties": {
        "@id": "way/271409702",
        "addr:city": "臺北市",
        "addr:country": "TW",
        "addr:district": "中正區",
        "addr:housenumber": "69",
        "addr:postcode": "108",
        "addr:street": "武昌街一段",
        "amenity": "police",
        "building": "yes",
        "disused:government": "police",
        "disused:name": "刑事警察大隊",
        "disused:office": "government",
        "disused:official_name": "臺北市政府警察局刑事警察大隊",
        "emergency": "police",
        "name": "博愛路派出所",
        "operator": "台北市警察局",
        "phone": "+886 2 2314 2724",
        "source": "https://www.cna.com.tw/news/aloc/202203030403.aspx",
        "start_date": "2022-02-19",
        "wheelchair": "yes"
      },
      "geometry": {
        "type": "Polygon",
        "coordinates": [
          [
            [
              121.5098891,
              25.0442
            ],
            [
              121.5100715,
              25.0441888
            ],
            [
              121.5100849,
              25.0442118
            ],
            [
              121.5101069,
              25.0442128
            ],
            [
              121.5101513,
              25.0443667
            ],
            [
              121.5101284,
              25.0443998
            ],
            [
              121.5098016,
              25.0444414
            ],
            [
              121.5097949,
              25.0443983
            ],
            [
              121.509894,
              25.0443857
            ],
            [
              121.5098696,
              25.044229
            ],
            [
              121.5098891,
              25.0442
            ]
          ]
        ]
      },
      "id": "way/271409702"
    },
    {
      "type": "Feature",
      "properties": {
        "@id": "way/284788656",
        "addr:city": "臺北市",
        "addr:country": "TW",
        "addr:district": "內湖區",
        "addr:full": "臺北市內湖區內湖里內湖路二段261號",
        "addr:housenumber": "261",
        "addr:postcode": "114",
        "addr:street": "內湖路二段",
        "alt_name": "內湖分局內湖派出所",
        "amenity": "police",
        "building": "yes",
        "name": "內湖派出所",
        "opening_hours": "24/7",
        "operator": "臺北市政府警察局",
        "operator:en": "Taipei City Police Department",
        "operator:wikidata": "Q15903297",
        "operator:zh": "臺北市政府警察局",
        "phone": "+886 2 2790 0571"
      },
      "geometry": {
        "type": "Polygon",
        "coordinates": [
          [
            [
              121.5901706,
              25.082288
            ],
            [
              121.5901427,
              25.0822812
            ],
            [
              121.5901517,
              25.0822508
            ],
            [
              121.5900264,
              25.0822204
            ],
            [
              121.5900867,
              25.0820166
            ],
            [
              121.5902398,
              25.0820537
            ],
            [
              121.5901706,
              25.082288
            ]
          ]
        ]
      },
      "id": "way/284788656"
    },
    {
      "type": "Feature",
      "properties": {
        "@id": "way/296974822",
        "addr:city": "臺北市",
        "addr:country": "TW",
        "addr:district": "萬華區",
        "addr:full": "10848臺北市萬華區康定路22號",
        "addr:housenumber": "22",
        "addr:postcode": "10848",
        "addr:street": "康定路",
        "amenity": "police",
        "building": "yes",
        "disused:government": "police",
        "disused:name": "萬華分局",
        "disused:office": "government",
        "disused:official_name": "臺北市政府警察局萬華分局",
        "disused:phone": "+886 2 2314 0364",
        "name": "西門町派出所",
        "operator": "臺北市政府警察局",
        "phone": "+886 2 2331 2212;+886 2 2314 2723",
        "website": "http://wh.police.taipei/"
      },
      "geometry": {
        "type": "Polygon",
        "coordinates": [
          [
            [
              121.5025936,
              25.0450548
            ],
            [
              121.502776,
              25.0450105
            ],
            [
              121.5028531,
              25.0452704
            ],
            [
              121.5026707,
              25.0453148
            ],
            [
              121.5025936,
              25.0450548
            ]
          ]
        ]
      },
      "id": "way/296974822"
    },
    {
      "type": "Feature",
      "properties": {
        "@id": "way/301902791",
        "addr:city": "臺北市",
        "addr:country": "TW",
        "addr:district": "內湖區",
        "addr:full": "臺北市內湖區大明里成功路五段1號",
        "addr:housenumber": "1",
        "addr:postcode": "114",
        "addr:street": "成功路五段",
        "amenity": "police",
        "building": "office",
        "name": "大湖派出所",
        "office": "government",
        "phone": "+886-2-27909521"
      },
      "geometry": {
        "type": "Polygon",
        "coordinates": [
          [
            [
              121.6012872,
              25.0840549
            ],
            [
              121.6013286,
              25.0839538
            ],
            [
              121.6014092,
              25.0839913
            ],
            [
              121.6014802,
              25.0840675
            ],
            [
              121.6014449,
              25.0840958
            ],
            [
              121.601404,
              25.0841294
            ],
            [
              121.6013395,
              25.0841158
            ],
            [
              121.6012872,
              25.0840549
            ]
          ]
        ]
      },
      "id": "way/301902791"
    },
    {
      "type": "Feature",
      "properties": {
        "@id": "way/306352011",
        "addr:city": "臺北市",
        "addr:country": "TW",
        "addr:district": "士林區",
        "addr:housenumber": "56",
        "addr:postcode": "11144",
        "addr:street": "中社路一段",
        "amenity": "police",
        "building": "yes",
        "name": "翠山派出所",
        "phone": "+886 2 2841-1423;+886 2 2841-3260"
      },
      "geometry": {
        "type": "Polygon",
        "coordinates": [
          [
            [
              121.5603431,
              25.108072
            ],
            [
              121.5602392,
              25.1081844
            ],
            [
              121.5601087,
              25.1080855
            ],
            [
              121.5602125,
              25.1079731
            ],
            [
              121.5603431,
              25.108072
            ]
          ]
        ]
      },
      "id": "way/306352011"
    },
    {
      "type": "Feature",
      "properties": {
        "@id": "way/307155341",
        "addr:city": "臺北市",
        "addr:country": "TW",
        "addr:district": "大同區",
        "addr:housenumber": "320-2",
        "addr:postcode": "10371",
        "addr:street": "重慶北路三段",
        "amenity": "police",
        "building": "yes",
        "building:levels": "2",
        "name": "重慶北路派出所",
        "official_name": "臺北市政府警察局大同分局重慶北路派出所",
        "operator": "臺北市政府警察局大同分局",
        "phone": "+886-2-2594-4741;+886-2-2591-0370"
      },
      "geometry": {
        "type": "Polygon",
        "coordinates": [
          [
            [
              121.5132657,
              25.0753272
            ],
            [
              121.5135928,
              25.0753248
            ],
            [
              121.5135935,
              25.0754016
            ],
            [
              121.5132663,
              25.075404
            ],
            [
              121.5132657,
              25.0753272
            ]
          ]
        ]
      },
      "id": "way/307155341"
    },
    {
      "type": "Feature",
      "properties": {
        "@id": "way/307670172",
        "addr:city": "臺北市",
        "addr:country": "TW",
        "addr:district": "萬華區",
        "addr:full": "臺北市萬華區莒光路171號",
        "addr:housenumber": "171",
        "addr:postcode": "108",
        "addr:street": "莒光路",
        "amenity": "police",
        "building": "yes",
        "name": "莒光派出所",
        "phone": "+886 2 2306 4987;+886 2 2302 9771"
      },
      "geometry": {
        "type": "Polygon",
        "coordinates": [
          [
            [
              121.5026633,
              25.0310987
            ],
            [
              121.5026685,
              25.0309703
            ],
            [
              121.5028834,
              25.0309774
            ],
            [
              121.5028782,
              25.0311059
            ],
            [
              121.5026633,
              25.0310987
            ]
          ]
        ]
      },
      "id": "way/307670172"
    },
    {
      "type": "Feature",
      "properties": {
        "@id": "way/308417780",
        "addr:city": "臺北市",
        "addr:country": "TW",
        "addr:district": "士林區",
        "amenity": "police",
        "building": "yes",
        "building:levels": "4",
        "name": "臺北市政府警察局外事服務站",
        "toilets:wheelchair": "yes",
        "wheelchair": "yes"
      },
      "geometry": {
        "type": "Polygon",
        "coordinates": [
          [
            [
              121.52603,
              25.0905903
            ],
            [
              121.5261751,
              25.0906428
            ],
            [
              121.5261497,
              25.0907006
            ],
            [
              121.5263393,
              25.0907692
            ],
            [
              121.5262825,
              25.090898
            ],
            [
              121.5260929,
              25.0908294
            ],
            [
              121.5260691,
              25.0908833
            ],
            [
              121.525924,
              25.0908308
            ],
            [
              121.5259812,
              25.090701
            ],
            [
              121.52603,
              25.0905903
            ]
          ]
        ]
      },
      "id": "way/308417780"
    },
    {
      "type": "Feature",
      "properties": {
        "@id": "way/314360384",
        "addr:city": "臺北市",
        "addr:country": "TW",
        "addr:district": "大安區",
        "addr:full": "臺北市大安區龍安里和平東路一段143號",
        "addr:housenumber": "143",
        "addr:postcode": "106",
        "addr:street": "和平東路一段",
        "amenity": "police",
        "building": "office",
        "building:levels": "4",
        "name": "和平東路派出所",
        "office": "government",
        "phone": "+886 2 2321 8073",
        "toilets:wheelchair": "no",
        "wheelchair": "yes"
      },
      "geometry": {
        "type": "Polygon",
        "coordinates": [
          [
            [
              121.5304623,
              25.026622
            ],
            [
              121.5305593,
              25.0266165
            ],
            [
              121.5305687,
              25.0267524
            ],
            [
              121.5305414,
              25.0267539
            ],
            [
              121.5305387,
              25.0267148
            ],
            [
              121.530502,
              25.0267169
            ],
            [
              121.5305047,
              25.0267556
            ],
            [
              121.5304716,
              25.0267575
            ],
            [
              121.5304623,
              25.026622
            ]
          ]
        ]
      },
      "id": "way/314360384"
    },
    {
      "type": "Feature",
      "properties": {
        "@id": "way/327127212",
        "addr:city": "臺北市",
        "addr:country": "TW",
        "addr:district": "北投區",
        "addr:full": "11247臺北市北投區泉源路14號",
        "addr:housenumber": "14",
        "addr:postcode": "11247",
        "addr:street": "泉源路",
        "amenity": "police",
        "building": "public",
        "fax": "+886-2-2891-1647",
        "name": "光明派出所",
        "name:zh": "光明派出所",
        "official_name": "臺北市政府警察局北投分局光明派出所",
        "operator": "臺北市政府警察局北投分局",
        "phone": "+886-2-2891-2047",
        "website": "http://pt.police.taipei/"
      },
      "geometry": {
        "type": "Polygon",
        "coordinates": [
          [
            [
              121.5041771,
              25.1372956
            ],
            [
              121.5042747,
              25.1372748
            ],
            [
              121.5042883,
              25.1373268
            ],
            [
              121.5044428,
              25.1372938
            ],
            [
              121.504469,
              25.1373945
            ],
            [
              121.5042169,
              25.1374483
            ],
            [
              121.5041771,
              25.1372956
            ]
          ]
        ]
      },
      "id": "way/327127212"
    },
    {
      "type": "Feature",
      "properties": {
        "@id": "way/327712845",
        "addr:city": "臺北市",
        "addr:country": "TW",
        "addr:district": "信義區",
        "addr:full": "臺北市信義區信義路五段17號",
        "addr:housenumber": "17",
        "addr:postcode": "110",
        "addr:street": "信義路五段",
        "amenity": "police",
        "building": "office",
        "building:colour": "#F5DEB3",
        "building:levels": "8",
        "name": "臺北市政府警察局信義分局",
        "name:en": "Xinyi Police Precinct",
        "name:zh": "臺北市政府警察局信義分局",
        "office": "government"
      },
      "geometry": {
        "type": "Polygon",
        "coordinates": [
          [
            [
              121.5673927,
              25.0333195
            ],
            [
              121.5673861,
              25.0330692
            ],
            [
              121.5677026,
              25.0330601
            ],
            [
              121.5680084,
              25.0330558
            ],
            [
              121.5680114,
              25.0331692
            ],
            [
              121.568015,
              25.0333061
            ],
            [
              121.5673927,
              25.0333195
            ]
          ]
        ]
      },
      "id": "way/327712845"
    },
    {
      "type": "Feature",
      "properties": {
        "@id": "way/330745381",
        "addr:city": "臺北市",
        "addr:country": "TW",
        "addr:district": "北投區",
        "addr:full": "臺北市北投區湖山里紗帽路110號",
        "addr:housenumber": "110",
        "addr:postcode": "112",
        "addr:street": "紗帽路",
        "amenity": "police",
        "building": "office",
        "name": "公園派出所",
        "name:zh": "公園派出所",
        "office": "government",
        "official_name": "台北市政府警察局北投分局公園派出所",
        "operator": "北投分局",
        "phone": "+886 2 2861 0145"
      },
      "geometry": {
        "type": "Polygon",
        "coordinates": [
          [
            [
              121.548597,
              25.1487141
            ],
            [
              121.548679,
              25.1487109
            ],
            [
              121.5487388,
              25.1487086
            ],
            [
              121.5487497,
              25.1489386
            ],
            [
              121.548608,
              25.1489442
            ],
            [
              121.5486036,
              25.1488527
            ],
            [
              121.548597,
              25.1487141
            ]
          ]
        ]
      },
      "id": "way/330745381"
    },
    {
      "type": "Feature",
      "properties": {
        "@id": "way/332875500",
        "addr:city": "臺北市",
        "addr:country": "TW",
        "addr:district": "文山區",
        "addr:full": "11681臺北市文山區羅斯福路五段151號",
        "addr:housenumber": "151",
        "addr:postcode": "11681",
        "addr:street": "羅斯福路五段",
        "amenity": "police",
        "building": "yes",
        "cold_water": "yes",
        "drinking_water": "yes",
        "hot_water": "yes",
        "name": "萬盛派出所",
        "name:en": "Wangsheng Police Station",
        "name:nan": "Bān-sēng Phài-chhut-só͘",
        "name:nan-POJ": "Bān-sēng Phài-chhut-só͘",
        "name:nan-TL": "Bān-sēng Phài-tshut-sóo",
        "name:zh": "萬盛派出所",
        "office": "government",
        "official_name": "臺北市政府警察局文山第二分局萬盛派出所",
        "operator": "臺北市政府警察局文山第二分局",
        "phone": "+886 2 2931 2502;+886 2 2932 7142",
        "warm_water": "yes"
      },
      "geometry": {
        "type": "Polygon",
        "coordinates": [
          [
            [
              121.5389241,
              25.003991
            ],
            [
              121.538918,
              25.0039268
            ],
            [
              121.5388972,
              25.0039296
            ],
            [
              121.5388928,
              25.0038895
            ],
            [
              121.5389109,
              25.003887
            ],
            [
              121.5389027,
              25.0038228
            ],
            [
              121.5389978,
              25.003812
            ],
            [
              121.5390102,
              25.0038955
            ],
            [
              121.5390675,
              25.0038879
            ],
            [
              121.5390554,
              25.0037898
            ],
            [
              121.5391339,
              25.003779
            ],
            [
              121.5391798,
              25.0038642
            ],
            [
              121.5391871,
              25.0039774
            ],
            [
              121.5390172,
              25.0039949
            ],
            [
              121.5389867,
              25.0039876
            ],
            [
              121.5389241,
              25.003991
            ]
          ]
        ]
      },
      "id": "way/332875500"
    },
    {
      "type": "Feature",
      "properties": {
        "@id": "way/334880748",
        "addr:city": "臺北市",
        "addr:country": "TW",
        "addr:district": "中山區",
        "addr:full": "臺北市中山區劍潭里北安路456號",
        "addr:housenumber": "456",
        "addr:postcode": "104",
        "addr:street": "北安路",
        "addr:village": "劍潭里",
        "amenity": "police",
        "building": "yes",
        "name": "大直派出所",
        "phone": "+886 2 2533 2984"
      },
      "geometry": {
        "type": "Polygon",
        "coordinates": [
          [
            [
              121.5440715,
              25.0793968
            ],
            [
              121.5442172,
              25.0794023
            ],
            [
              121.5442242,
              25.0795029
            ],
            [
              121.5441771,
              25.0795496
            ],
            [
              121.5441286,
              25.079548
            ],
            [
              121.5440349,
              25.0795444
            ],
            [
              121.5440375,
              25.0794661
            ],
            [
              121.5440687,
              25.0794655
            ],
            [
              121.5440715,
              25.0793968
            ]
          ]
        ]
      },
      "id": "way/334880748"
    },
    {
      "type": "Feature",
      "properties": {
        "@id": "way/347411637",
        "addr:city": "臺北市",
        "addr:country": "TW",
        "addr:district": "中正區",
        "addr:full": "臺北市中正區幸福里忠孝東路二段10號",
        "addr:housenumber": "10",
        "addr:postcode": "100",
        "addr:street": "忠孝東路二段",
        "addr:village": "幸福里",
        "amenity": "police",
        "building": "yes",
        "name": "忠孝東路派出所",
        "phone": "+886 2 2321 8656"
      },
      "geometry": {
        "type": "Polygon",
        "coordinates": [
          [
            [
              121.5270453,
              25.0437223
            ],
            [
              121.5270077,
              25.0436124
            ],
            [
              121.5270048,
              25.0436131
            ],
            [
              121.5270041,
              25.0436109
            ],
            [
              121.5270023,
              25.0436113
            ],
            [
              121.5269849,
              25.043564
            ],
            [
              121.5270668,
              25.0435436
            ],
            [
              121.5270811,
              25.0435909
            ],
            [
              121.5271241,
              25.0435803
            ],
            [
              121.527123,
              25.0435756
            ],
            [
              121.5271817,
              25.0435635
            ],
            [
              121.5272176,
              25.0436751
            ],
            [
              121.5270453,
              25.0437223
            ]
          ]
        ]
      },
      "id": "way/347411637"
    },
    {
      "type": "Feature",
      "properties": {
        "@id": "way/359202853",
        "addr:city": "臺北市",
        "addr:country": "TW",
        "addr:district": "文山區",
        "addr:full": "11681臺北市文山區萬盛街15號之1",
        "addr:housenumber": "15號之1",
        "addr:postcode": "11681",
        "addr:street": "萬盛街",
        "amenity": "police",
        "building": "office",
        "email": "npta@npta.gov.tw",
        "fax": "+886 2 2934 1276",
        "name": "警察通訊所",
        "office": "government",
        "phone": "+886 2 2931 0572"
      },
      "geometry": {
        "type": "Polygon",
        "coordinates": [
          [
            [
              121.5395961,
              25.0072209
            ],
            [
              121.5396959,
              25.0072769
            ],
            [
              121.5392649,
              25.0079074
            ],
            [
              121.5391651,
              25.0078514
            ],
            [
              121.5395961,
              25.0072209
            ]
          ]
        ]
      },
      "id": "way/359202853"
    },
    {
      "type": "Feature",
      "properties": {
        "@id": "way/360092086",
        "addr:city": "臺北市",
        "addr:country": "TW",
        "addr:district": "大同區",
        "addr:full": "103012臺北市大同區延平北路一段86號",
        "addr:housenumber": "86",
        "addr:postcode": "103012",
        "addr:street": "延平北路一段",
        "amenity": "police",
        "building": "public",
        "fax": "+886 2 2556 7874",
        "name": "延平派出所",
        "official_name": "臺北市政府警察局大同分局延平派出所",
        "operator": "臺北市政府警察局大同分局",
        "phone": "+886 2 2556 4340",
        "wheelchair": "no"
      },
      "geometry": {
        "type": "Polygon",
        "coordinates": [
          [
            [
              121.5116569,
              25.0521359
            ],
            [
              121.5117561,
              25.0521238
            ],
            [
              121.5117937,
              25.0521432
            ],
            [
              121.5118098,
              25.0521845
            ],
            [
              121.5117964,
              25.0523255
            ],
            [
              121.5116542,
              25.0523206
            ],
            [
              121.5116569,
              25.0521359
            ]
          ]
        ]
      },
      "id": "way/360092086"
    },
    {
      "type": "Feature",
      "properties": {
        "@id": "way/374912754",
        "addr:city": "臺北市",
        "addr:country": "TW",
        "addr:district": "北投區",
        "addr:full": "臺北市北投區竹子湖路16號",
        "addr:housenumber": "16",
        "addr:postcode": "112",
        "addr:street": "竹子湖路",
        "amenity": "police",
        "building": "yes",
        "name": "竹子湖派出所",
        "phone": "+886 2 2861 6082"
      },
      "geometry": {
        "type": "Polygon",
        "coordinates": [
          [
            [
              121.5402259,
              25.1677106
            ],
            [
              121.5402201,
              25.1675893
            ],
            [
              121.5402184,
              25.1675476
            ],
            [
              121.5401892,
              25.1675196
            ],
            [
              121.5402718,
              25.167434
            ],
            [
              121.5403304,
              25.1673732
            ],
            [
              121.5404116,
              25.1674641
            ],
            [
              121.5403091,
              25.1675744
            ],
            [
              121.5403197,
              25.1677042
            ],
            [
              121.5402259,
              25.1677106
            ]
          ]
        ]
      },
      "id": "way/374912754"
    },
    {
      "type": "Feature",
      "properties": {
        "@id": "way/378476627",
        "addr:city": "臺北市",
        "addr:country": "TW",
        "addr:district": "中正區",
        "addr:full": "10087臺北市中正區汀州路三段72號",
        "addr:housenumber": "72",
        "addr:postcode": "10087",
        "addr:street": "汀州路三段",
        "amenity": "police",
        "building": "yes",
        "building:levels": "4",
        "fax": "+886 2 2365 0843",
        "name": "思源街派出所",
        "name:zh": "思源街派出所",
        "official_name": "臺北市政府警察局中正第二分局思源街派出所",
        "operator": "臺北市政府警察局中正第二分局",
        "phone": "+886 2 2365 0844",
        "wheelchair": "no"
      },
      "geometry": {
        "type": "Polygon",
        "coordinates": [
          [
            [
              121.532063,
              25.0150832
            ],
            [
              121.532062,
              25.0151031
            ],
            [
              121.5320611,
              25.0151233
            ],
            [
              121.5318959,
              25.0152382
            ],
            [
              121.5318232,
              25.0151698
            ],
            [
              121.5318624,
              25.0151344
            ],
            [
              121.5318177,
              25.0150934
            ],
            [
              121.5318705,
              25.0150462
            ],
            [
              121.5318738,
              25.015049
            ],
            [
              121.5319359,
              25.0149926
            ],
            [
              121.5319338,
              25.014991
            ],
            [
              121.5319528,
              25.0149748
            ],
            [
              121.532063,
              25.0150832
            ]
          ]
        ]
      },
      "id": "way/378476627"
    },
    {
      "type": "Feature",
      "properties": {
        "@id": "way/378892665",
        "addr:city": "臺北市",
        "addr:country": "TW",
        "addr:district": "北投區",
        "addr:full": "臺北市北投區中央北路一段1號",
        "addr:housenumber": "1",
        "addr:postcode": "112",
        "addr:street": "中央北路一段",
        "amenity": "police",
        "building": "office",
        "name": "北投分局",
        "office": "government",
        "operator": "臺北市政府警察局"
      },
      "geometry": {
        "type": "Polygon",
        "coordinates": [
          [
            [
              121.5013596,
              25.1332684
            ],
            [
              121.5013783,
              25.1332737
            ],
            [
              121.5013942,
              25.1332841
            ],
            [
              121.5014056,
              25.1332986
            ],
            [
              121.5014114,
              25.1333155
            ],
            [
              121.501411,
              25.1333333
            ],
            [
              121.5014044,
              25.13335
            ],
            [
              121.5013972,
              25.1333616
            ],
            [
              121.5014155,
              25.1333828
            ],
            [
              121.5011974,
              25.1335368
            ],
            [
              121.5011615,
              25.1334952
            ],
            [
              121.5011273,
              25.1335193
            ],
            [
              121.5010884,
              25.1334725
            ],
            [
              121.5011212,
              25.1334495
            ],
            [
              121.5010833,
              25.1334045
            ],
            [
              121.501214,
              25.1333122
            ],
            [
              121.5012065,
              25.133303
            ],
            [
              121.5012501,
              25.1332727
            ],
            [
              121.5012573,
              25.1332816
            ],
            [
              121.5013014,
              25.1332504
            ],
            [
              121.5013215,
              25.1332746
            ],
            [
              121.50134,
              25.1332687
            ],
            [
              121.5013596,
              25.1332684
            ]
          ]
        ]
      },
      "id": "way/378892665"
    },
    {
      "type": "Feature",
      "properties": {
        "@id": "way/381708690",
        "amenity": "police",
        "building": "yes",
        "name": "陽明山警察隊"
      },
      "geometry": {
        "type": "Polygon",
        "coordinates": [
          [
            [
              121.5468711,
              25.1562093
            ],
            [
              121.5470608,
              25.1560082
            ],
            [
              121.5471677,
              25.1560886
            ],
            [
              121.5471171,
              25.1561499
            ],
            [
              121.5471381,
              25.156168
            ],
            [
              121.5470578,
              25.1562442
            ],
            [
              121.547039,
              25.156228
            ],
            [
              121.5469694,
              25.1562942
            ],
            [
              121.5468711,
              25.1562093
            ]
          ]
        ]
      },
      "id": "way/381708690"
    },
    {
      "type": "Feature",
      "properties": {
        "@id": "way/399421231",
        "addr:city": "臺北市",
        "addr:country": "TW",
        "addr:district": "北投區",
        "addr:housenumber": "11",
        "addr:postcode": "112",
        "addr:street": "新生街",
        "amenity": "police",
        "building": "office",
        "full_name": "保安警察第七總隊刑事警察大隊",
        "name": "保七總隊刑事警察大隊",
        "office": "government",
        "official_name": "內政部警政署保安警察第七總隊刑事警察大隊",
        "old_full_name": "陽明山國家公園警察隊新生小隊"
      },
      "geometry": {
        "type": "Polygon",
        "coordinates": [
          [
            [
              121.5379009,
              25.1547735
            ],
            [
              121.5379971,
              25.1547422
            ],
            [
              121.5380409,
              25.1548522
            ],
            [
              121.5383191,
              25.1547616
            ],
            [
              121.5383723,
              25.1548954
            ],
            [
              121.538326,
              25.1549105
            ],
            [
              121.538353,
              25.1549782
            ],
            [
              121.538157,
              25.155042
            ],
            [
              121.538134,
              25.1549841
            ],
            [
              121.5380903,
              25.1549984
            ],
            [
              121.5381055,
              25.1550364
            ],
            [
              121.5380169,
              25.1550653
            ],
            [
              121.5379009,
              25.1547735
            ]
          ]
        ]
      },
      "id": "way/399421231"
    },
    {
      "type": "Feature",
      "properties": {
        "@id": "way/420085016",
        "addr:city": "臺北市",
        "addr:country": "TW",
        "addr:district": "文山區",
        "addr:full": "臺北市文山區興業里興隆路二段156號",
        "addr:housenumber": "156",
        "addr:postcode": "116",
        "addr:street": "興隆路二段",
        "amenity": "police",
        "building": "office",
        "building:levels": "4",
        "name": "興隆派出所",
        "office": "government",
        "phone": "+886-2-29313842"
      },
      "geometry": {
        "type": "Polygon",
        "coordinates": [
          [
            [
              121.5513462,
              25.0014446
            ],
            [
              121.5512162,
              25.0015858
            ],
            [
              121.5511277,
              25.0015243
            ],
            [
              121.5512559,
              25.0013761
            ],
            [
              121.5513462,
              25.0014446
            ]
          ]
        ]
      },
      "id": "way/420085016"
    },
    {
      "type": "Feature",
      "properties": {
        "@id": "way/447245358",
        "addr:city": "臺北市",
        "addr:country": "TW",
        "addr:district": "中正區",
        "addr:full": "10074臺北市中正區南昌路一段7號",
        "addr:housenumber": "7",
        "addr:postcode": "10074",
        "addr:street": "南昌路一段",
        "amenity": "police",
        "building": "commercial",
        "building:levels": "4",
        "fax": "+886-2-2351-1960",
        "name": "南昌路派出所",
        "name:zh": "南昌路派出所",
        "office": "government",
        "official_name": "臺北市政府警察局中正第二分局南昌路派出所",
        "operator": "臺北市政府警察局中正第二分局",
        "phone": "+886-2-2321-8148",
        "toilets:wheelchair": "no",
        "website": "http://c2.police.taipei/",
        "wheelchair": "limited"
      },
      "geometry": {
        "type": "Polygon",
        "coordinates": [
          [
            [
              121.5165613,
              25.0322548
            ],
            [
              121.5166308,
              25.0322871
            ],
            [
              121.5166214,
              25.0323214
            ],
            [
              121.5166357,
              25.032325
            ],
            [
              121.5166346,
              25.0323287
            ],
            [
              121.5166738,
              25.0323385
            ],
            [
              121.5166658,
              25.0323647
            ],
            [
              121.5166508,
              25.0324127
            ],
            [
              121.5165163,
              25.0323788
            ],
            [
              121.5164994,
              25.0323359
            ],
            [
              121.5165613,
              25.0322548
            ]
          ]
        ]
      },
      "id": "way/447245358"
    },
    {
      "type": "Feature",
      "properties": {
        "@id": "way/452299046",
        "addr:city": "臺北市",
        "addr:country": "TW",
        "addr:district": "中山區",
        "addr:full": "臺北市中山區圓山里中山北路三段62號",
        "addr:housenumber": "62",
        "addr:postcode": "104",
        "addr:street": "中山北路三段",
        "addr:village": "圓山里",
        "amenity": "police",
        "building": "yes",
        "name": "圓山派出所",
        "phone": "+886 2 2594 2750",
        "wheelchair": "yes"
      },
      "geometry": {
        "type": "Polygon",
        "coordinates": [
          [
            [
              121.5234168,
              25.0727272
            ],
            [
              121.5234473,
              25.0727208
            ],
            [
              121.5234406,
              25.0726945
            ],
            [
              121.5237517,
              25.0726287
            ],
            [
              121.5237601,
              25.0726613
            ],
            [
              121.5237857,
              25.0726558
            ],
            [
              121.5238973,
              25.0730884
            ],
            [
              121.5238732,
              25.0730935
            ],
            [
              121.5238826,
              25.0731298
            ],
            [
              121.5237905,
              25.0731493
            ],
            [
              121.5238008,
              25.0731895
            ],
            [
              121.5237416,
              25.073202
            ],
            [
              121.5237305,
              25.0731587
            ],
            [
              121.5236697,
              25.0731716
            ],
            [
              121.5235999,
              25.0729005
            ],
            [
              121.5234686,
              25.0729283
            ],
            [
              121.5234168,
              25.0727272
            ]
          ]
        ]
      },
      "id": "way/452299046"
    },
    {
      "type": "Feature",
      "properties": {
        "@id": "way/462960456",
        "addr:city": "臺北市",
        "addr:country": "TW",
        "addr:district": "大同區",
        "addr:full": "臺北市大同區景興里延平北路三段2號",
        "addr:housenumber": "2",
        "addr:postcode": "104",
        "addr:street": "延平北路三段",
        "amenity": "police",
        "building": "office",
        "building:levels": "4",
        "name": "大橋派出所",
        "office": "government",
        "phone": "+886-2-25945524"
      },
      "geometry": {
        "type": "Polygon",
        "coordinates": [
          [
            [
              121.5108262,
              25.0632217
            ],
            [
              121.5108752,
              25.0632636
            ],
            [
              121.5109067,
              25.063287
            ],
            [
              121.5109298,
              25.0633028
            ],
            [
              121.5109582,
              25.0633181
            ],
            [
              121.510908,
              25.0633878
            ],
            [
              121.5108707,
              25.0633833
            ],
            [
              121.5108413,
              25.0633644
            ],
            [
              121.5108487,
              25.0633561
            ],
            [
              121.5108037,
              25.0633213
            ],
            [
              121.5107951,
              25.0633293
            ],
            [
              121.5107594,
              25.0632987
            ],
            [
              121.5107628,
              25.0632677
            ],
            [
              121.5108262,
              25.0632217
            ]
          ]
        ]
      },
      "id": "way/462960456"
    },
    {
      "type": "Feature",
      "properties": {
        "@id": "way/527538838",
        "addr:city": "臺北市",
        "addr:country": "TW",
        "addr:district": "松山區",
        "addr:full": "10548臺北市松山區敦化北路409號",
        "addr:housenumber": "409",
        "addr:postcode": "10548",
        "addr:street": "敦化北路",
        "amenity": "police",
        "building": "office",
        "email": "tpe@dns.apb.gov.tw",
        "fax": "+886 2 2546 0451",
        "name": "航空警察局台北分局",
        "phone": "+886 2 2713 6049;+886 2 8770 2665",
        "phone:police": "7283104"
      },
      "geometry": {
        "type": "Polygon",
        "coordinates": [
          [
            [
              121.5539445,
              25.063248
            ],
            [
              121.5539466,
              25.062954
            ],
            [
              121.5540407,
              25.0629532
            ],
            [
              121.5540407,
              25.0629337
            ],
            [
              121.5542193,
              25.0629366
            ],
            [
              121.5542193,
              25.0629561
            ],
            [
              121.5543198,
              25.0629561
            ],
            [
              121.5543126,
              25.0632516
            ],
            [
              121.5539445,
              25.063248
            ]
          ]
        ]
      },
      "id": "way/527538838"
    },
    {
      "type": "Feature",
      "properties": {
        "@id": "way/527687890",
        "addr:city": "臺北市",
        "addr:country": "TW",
        "addr:district": "松山區",
        "addr:full": "台北巿松山區敦化北路340-15號",
        "addr:housenumber": "340-15",
        "addr:postcode": "105",
        "addr:street": "敦化北路",
        "amenity": "police",
        "building": "yes",
        "fax": "+886 2 2719 5593",
        "name": "空中勤務總隊第一大隊第一隊",
        "phone": "+886 2 2715 5584"
      },
      "geometry": {
        "type": "Polygon",
        "coordinates": [
          [
            [
              121.5492475,
              25.0640498
            ],
            [
              121.5492638,
              25.0636678
            ],
            [
              121.5494118,
              25.063673
            ],
            [
              121.5493955,
              25.0640549
            ],
            [
              121.5492475,
              25.0640498
            ]
          ]
        ]
      },
      "id": "way/527687890"
    },
    {
      "type": "Feature",
      "properties": {
        "@id": "way/532434768",
        "addr:city": "臺北市",
        "addr:country": "TW",
        "addr:district": "中山區",
        "addr:housenumber": "90",
        "addr:postcode": "104",
        "addr:street": "中山北路二段",
        "amenity": "police",
        "building": "yes",
        "building:levels": "4",
        "name": "中山二派出所",
        "name:en": "Zhongshan 2nd Police Station",
        "name:ja": "中山二交番",
        "name:zh": "中山二派出所",
        "old_name": "宮前町派出所",
        "operator": "臺北市政府警察局",
        "operator:en": "Taipei City Police Department",
        "operator:wikidata": "Q15903297",
        "operator:wikipedia": "zh:臺北市政府警察局",
        "operator:zh": "臺北市政府警察局",
        "phone": "+886 2 2551-7771"
      },
      "geometry": {
        "type": "Polygon",
        "coordinates": [
          [
            [
              121.5224745,
              25.0577401
            ],
            [
              121.5225019,
              25.0575291
            ],
            [
              121.5226445,
              25.0575412
            ],
            [
              121.5226449,
              25.057699
            ],
            [
              121.5225767,
              25.0577485
            ],
            [
              121.5224745,
              25.0577401
            ]
          ]
        ]
      },
      "id": "way/532434768"
    },
    {
      "type": "Feature",
      "properties": {
        "@id": "way/541805771",
        "amenity": "police",
        "building": "yes",
        "name": "國家公園駐警隊"
      },
      "geometry": {
        "type": "Polygon",
        "coordinates": [
          [
            [
              121.5385905,
              25.1546908
            ],
            [
              121.5385614,
              25.1546189
            ],
            [
              121.538728,
              25.15457
            ],
            [
              121.5387348,
              25.1545935
            ],
            [
              121.5387568,
              25.154589
            ],
            [
              121.5387694,
              25.1546352
            ],
            [
              121.5385905,
              25.1546908
            ]
          ]
        ]
      },
      "id": "way/541805771"
    },
    {
      "type": "Feature",
      "properties": {
        "@id": "way/542931822",
        "amenity": "police",
        "building": "yes",
        "name": "民防管制中心"
      },
      "geometry": {
        "type": "Polygon",
        "coordinates": [
          [
            [
              121.5295831,
              25.0898511
            ],
            [
              121.5296447,
              25.0897345
            ],
            [
              121.5302201,
              25.0900054
            ],
            [
              121.530149,
              25.0901171
            ],
            [
              121.5295831,
              25.0898511
            ]
          ]
        ]
      },
      "id": "way/542931822"
    },
    {
      "type": "Feature",
      "properties": {
        "@id": "way/601934070",
        "addr:city": "臺北市",
        "addr:country": "TW",
        "addr:district": "文山區",
        "addr:full": "臺北市木柵路二段202號",
        "addr:housenumber": "202",
        "addr:postcode": "116",
        "addr:street": "木柵路二段",
        "amenity": "police",
        "building": "office",
        "name": "文山一分局"
      },
      "geometry": {
        "type": "Polygon",
        "coordinates": [
          [
            [
              121.5637927,
              24.9886976
            ],
            [
              121.5633693,
              24.9888572
            ],
            [
              121.5632238,
              24.9885401
            ],
            [
              121.5636472,
              24.9883805
            ],
            [
              121.5637927,
              24.9886976
            ]
          ]
        ]
      },
      "id": "way/601934070"
    },
    {
      "type": "Feature",
      "properties": {
        "@id": "way/602345837",
        "addr:city": "臺北市",
        "addr:country": "TW",
        "addr:district": "萬華區",
        "addr:full": "臺北市萬華區日善里東園街17號",
        "addr:housenumber": "17",
        "addr:postcode": "108",
        "addr:street": "東園街",
        "amenity": "police",
        "building": "office",
        "name": "西園路派出所",
        "office": "government",
        "phone": "+886 2 2303 2943"
      },
      "geometry": {
        "type": "Polygon",
        "coordinates": [
          [
            [
              121.4956348,
              25.0282734
            ],
            [
              121.4956158,
              25.0282725
            ],
            [
              121.495616,
              25.0282688
            ],
            [
              121.4956079,
              25.0282684
            ],
            [
              121.4956206,
              25.0280509
            ],
            [
              121.495834,
              25.0280608
            ],
            [
              121.4958303,
              25.0281258
            ],
            [
              121.4958596,
              25.0281268
            ],
            [
              121.4958587,
              25.0281502
            ],
            [
              121.4958544,
              25.0281501
            ],
            [
              121.4958533,
              25.028179
            ],
            [
              121.4958524,
              25.0281957
            ],
            [
              121.4958504,
              25.0282315
            ],
            [
              121.4958573,
              25.0282318
            ],
            [
              121.4958887,
              25.0282331
            ],
            [
              121.4959081,
              25.028305
            ],
            [
              121.4959061,
              25.0283452
            ],
            [
              121.4959059,
              25.0283487
            ],
            [
              121.4958413,
              25.028346
            ],
            [
              121.4958415,
              25.0283428
            ],
            [
              121.4958427,
              25.02832
            ],
            [
              121.495843,
              25.0283142
            ],
            [
              121.4958432,
              25.0283091
            ],
            [
              121.4958534,
              25.0283095
            ],
            [
              121.4958544,
              25.0282895
            ],
            [
              121.4958333,
              25.0282886
            ],
            [
              121.4958355,
              25.028244
            ],
            [
              121.4958223,
              25.0282435
            ],
            [
              121.4958203,
              25.02828
            ],
            [
              121.4956349,
              25.0282715
            ],
            [
              121.4956348,
              25.0282734
            ]
          ]
        ]
      },
      "id": "way/602345837"
    },
    {
      "type": "Feature",
      "properties": {
        "@id": "way/621951050",
        "addr:city": "臺北市",
        "addr:country": "TW",
        "addr:district": "萬華區",
        "addr:full": "臺北市萬華區西門里漢中街122號",
        "addr:housenumber": "122",
        "addr:postcode": "108",
        "addr:street": "漢中街",
        "addr:village": "西門里",
        "amenity": "police",
        "building": "yes",
        "disused:name": "漢中街派出所",
        "name": "西門町機動派出所",
        "phone": "+886 2 2331 2790",
        "toilets:wheelchair": "no",
        "wheelchair": "yes"
      },
      "geometry": {
        "type": "Polygon",
        "coordinates": [
          [
            [
              121.5072233,
              25.0420527
            ],
            [
              121.5072859,
              25.0419984
            ],
            [
              121.5073589,
              25.0420675
            ],
            [
              121.5073281,
              25.0420942
            ],
            [
              121.5072962,
              25.0421218
            ],
            [
              121.5072233,
              25.0420527
            ]
          ]
        ]
      },
      "id": "way/621951050"
    },
    {
      "type": "Feature",
      "properties": {
        "@id": "way/649360600",
        "amenity": "police",
        "building": "public",
        "building:levels": "1",
        "name": "青年公園駐警隊"
      },
      "geometry": {
        "type": "Polygon",
        "coordinates": [
          [
            [
              121.5065905,
              25.0218615
            ],
            [
              121.5066181,
              25.021788
            ],
            [
              121.506738,
              25.021825
            ],
            [
              121.5067104,
              25.0218984
            ],
            [
              121.5065905,
              25.0218615
            ]
          ]
        ]
      },
      "id": "way/649360600"
    },
    {
      "type": "Feature",
      "properties": {
        "@id": "way/818862611",
        "addr:city": "臺北市",
        "addr:country": "TW",
        "addr:district": "大安區",
        "addr:full": "臺北市大安區住安里瑞安街23巷17號",
        "addr:housenumber": "17",
        "addr:postcode": "106",
        "addr:street": "瑞安街23巷",
        "addr:village": "住安里",
        "amenity": "police",
        "building": "yes",
        "name": "瑞安街派出所",
        "phone": "+886 2 2705 4164"
      },
      "geometry": {
        "type": "Polygon",
        "coordinates": [
          [
            [
              121.5449706,
              25.0311175
            ],
            [
              121.5450552,
              25.0311142
            ],
            [
              121.545078,
              25.0311372
            ],
            [
              121.5450767,
              25.0312381
            ],
            [
              121.544968,
              25.0312405
            ],
            [
              121.5449706,
              25.0311175
            ]
          ]
        ]
      },
      "id": "way/818862611"
    },
    {
      "type": "Feature",
      "properties": {
        "@id": "way/863312057",
        "addr:city": "臺北市",
        "addr:country": "TW",
        "addr:district": "中山區",
        "addr:full": "10472台北市中山區濱江街95號",
        "addr:housenumber": "95",
        "addr:postcode": "10472",
        "addr:street": "濱江街",
        "amenity": "police",
        "building": "yes",
        "fax": "+886 2 2501 8136",
        "name": "第一公路警察大隊濱江小隊",
        "official_name": "國道公路警察局第一公路警察大隊濱江小隊",
        "operator": "內政部警政署國道公路警察局",
        "phone": "+886 2 2501 8068"
      },
      "geometry": {
        "type": "Polygon",
        "coordinates": [
          [
            [
              121.5327319,
              25.0740146
            ],
            [
              121.5327334,
              25.0739576
            ],
            [
              121.5328055,
              25.0739052
            ],
            [
              121.5331204,
              25.0739124
            ],
            [
              121.533117,
              25.0740353
            ],
            [
              121.5329305,
              25.0740311
            ],
            [
              121.5329308,
              25.0740191
            ],
            [
              121.5327319,
              25.0740146
            ]
          ]
        ]
      },
      "id": "way/863312057"
    },
    {
      "type": "Feature",
      "properties": {
        "@id": "way/967123638",
        "amenity": "police",
        "building": "yes",
        "name": "駐衛警"
      },
      "geometry": {
        "type": "Polygon",
        "coordinates": [
          [
            [
              121.5212497,
              25.1193591
            ],
            [
              121.5213086,
              25.1192482
            ],
            [
              121.5213951,
              25.1192761
            ],
            [
              121.5213498,
              25.1193741
            ],
            [
              121.5212497,
              25.1193591
            ]
          ]
        ]
      },
      "id": "way/967123638"
    },
    {
      "type": "Feature",
      "properties": {
        "@id": "way/1002545266",
        "amenity": "police",
        "building": "yes",
        "building:levels": "14",
        "building:levels:underground": "3",
        "name": "南港派出所"
      },
      "geometry": {
        "type": "Polygon",
        "coordinates": [
          [
            [
              121.6146595,
              25.0611558
            ],
            [
              121.6145,
              25.0610019
            ],
            [
              121.6146627,
              25.0608635
            ],
            [
              121.6148009,
              25.0609969
            ],
            [
              121.6146981,
              25.0610843
            ],
            [
              121.6147194,
              25.0611049
            ],
            [
              121.6146595,
              25.0611558
            ]
          ]
        ]
      },
      "id": "way/1002545266"
    },
    {
      "type": "Feature",
      "properties": {
        "@id": "way/1050624643",
        "amenity": "police"
      },
      "geometry": {
        "type": "Polygon",
        "coordinates": [
          [
            [
              121.5154379,
              25.0400704
            ],
            [
              121.5154439,
              25.040091
            ],
            [
              121.5153919,
              25.0401032
            ],
            [
              121.5153756,
              25.040047
            ],
            [
              121.5154074,
              25.0400403
            ],
            [
              121.5154285,
              25.0400357
            ],
            [
              121.5154379,
              25.0400704
            ]
          ]
        ]
      },
      "id": "way/1050624643"
    },
    {
      "type": "Feature",
      "properties": {
        "@id": "way/1050624644",
        "addr:city": "臺北市",
        "addr:country": "TW",
        "addr:district": "中正區",
        "addr:full": "10048臺北市中正區公園路54號",
        "addr:housenumber": "54",
        "addr:postcode": "10048",
        "addr:street": "公園路",
        "amenity": "police",
        "building": "yes",
        "fax": "+886-2-2371-0352",
        "name": "介壽路派出所",
        "name:zh": "介壽路派出所",
        "official_name": "臺北市政府警察局中正第一分局介壽路派出所",
        "operator": "臺北市政府警察局中正第一分局",
        "phone": "+886-2-2311-3081",
        "website": "http://c1.police.taipei/"
      },
      "geometry": {
        "type": "Polygon",
        "coordinates": [
          [
            [
              121.5154379,
              25.0400704
            ],
            [
              121.5154285,
              25.0400357
            ],
            [
              121.5154074,
              25.0400403
            ],
            [
              121.515396,
              25.0399996
            ],
            [
              121.5154245,
              25.0399434
            ],
            [
              121.5154875,
              25.0399285
            ],
            [
              121.5155238,
              25.0400497
            ],
            [
              121.5154379,
              25.0400704
            ]
          ]
        ]
      },
      "id": "way/1050624644"
    },
    {
      "type": "Feature",
      "properties": {
        "@id": "node/995692085",
        "addr:city": "臺北市",
        "addr:country": "TW",
        "addr:district": "大安區",
        "addr:full": "臺北市大安區信義路四段216號",
        "addr:housenumber": "216",
        "addr:postcode": "106",
        "addr:street": "信義路四段",
        "amenity": "police",
        "fax": "+886 2 2755 2722",
        "name": "安和路派出所",
        "phone": "+886 2 2702 5232"
      },
      "geometry": {
        "type": "Point",
        "coordinates": [
          121.5522257,
          25.0329465
        ]
      },
      "id": "node/995692085"
    },
    {
      "type": "Feature",
      "properties": {
        "@id": "node/1195384271",
        "addr:city": "臺北市",
        "addr:country": "TW",
        "addr:district": "松山區",
        "addr:full": "臺北市松山區敦化北路199巷5之1號",
        "addr:housenumber": "5之1",
        "addr:postcode": "105",
        "addr:street": "敦化北路199巷",
        "amenity": "police",
        "fax": "+886 2 2713 3043",
        "name": "東社派出所",
        "phone": "+886 2 2713 5253"
      },
      "geometry": {
        "type": "Point",
        "coordinates": [
          121.5514793,
          25.0567494
        ]
      },
      "id": "node/1195384271"
    },
    {
      "type": "Feature",
      "properties": {
        "@id": "node/1437144466",
        "addr:city": "臺北市",
        "addr:country": "TW",
        "addr:district": "南港區",
        "addr:full": "臺北市南港區舊莊街一段213號",
        "addr:housenumber": "213",
        "addr:postcode": "115",
        "addr:street": "舊莊街一段",
        "amenity": "police",
        "fax": "+886 2 2782 4262",
        "name": "舊莊派出所",
        "phone": "+886 2 2782 2492"
      },
      "geometry": {
        "type": "Point",
        "coordinates": [
          121.6225357,
          25.038507
        ]
      },
      "id": "node/1437144466"
    },
    {
      "type": "Feature",
      "properties": {
        "@id": "node/1839317298",
        "addr:city": "臺北市",
        "addr:country": "TW",
        "addr:district": "內湖區",
        "addr:floor": "5",
        "addr:full": "11444臺北市內湖區內湖路一段285號5樓",
        "addr:housenumber": "285",
        "addr:postcode": "114",
        "addr:street": "內湖路一段",
        "amenity": "police",
        "name": "台北市捷運警察隊第三分隊",
        "phone": "+886 2 8797 5390"
      },
      "geometry": {
        "type": "Point",
        "coordinates": [
          121.566519,
          25.0824952
        ]
      },
      "id": "node/1839317298"
    },
    {
      "type": "Feature",
      "properties": {
        "@id": "node/1839477017",
        "addr:city": "臺北市",
        "addr:country": "TW",
        "addr:district": "士林區",
        "addr:full": "臺北市士林區岩山里仰德大道一段16號",
        "addr:housenumber": "16",
        "addr:postcode": "111",
        "addr:street": "仰德大道一段",
        "addr:village": "岩山里",
        "amenity": "police",
        "name": "芝山岩派出所",
        "phone": "+886 2 2881 3194"
      },
      "geometry": {
        "type": "Point",
        "coordinates": [
          121.5378369,
          25.1010698
        ]
      },
      "id": "node/1839477017"
    },
    {
      "type": "Feature",
      "properties": {
        "@id": "node/1929984671",
        "addr:city": "臺北市",
        "addr:country": "TW",
        "addr:district": "中正區",
        "addr:floor": "1;2",
        "addr:full": "臺北市中正區文北里仁愛路二段3號1、2樓",
        "addr:housenumber": "3",
        "addr:postcode": "100",
        "addr:street": "仁愛路二段",
        "addr:village": "文北里",
        "amenity": "police",
        "name": "仁愛路派出所",
        "phone": "+886 2 2321 2067"
      },
      "geometry": {
        "type": "Point",
        "coordinates": [
          121.5226642,
          25.0389215
        ]
      },
      "id": "node/1929984671"
    },
    {
      "type": "Feature",
      "properties": {
        "@id": "node/1996967326",
        "addr:city": "臺北市",
        "addr:country": "TW",
        "addr:district": "士林區",
        "addr:full": "臺北市士林區仰德大道三段49號",
        "addr:housenumber": "49",
        "addr:postcode": "111",
        "addr:street": "仰德大道三段",
        "amenity": "police",
        "name": "永福派出所",
        "phone": "+886 2 2861 6353"
      },
      "geometry": {
        "type": "Point",
        "coordinates": [
          121.552336,
          25.118427
        ]
      },
      "id": "node/1996967326"
    },
    {
      "type": "Feature",
      "properties": {
        "@id": "node/2062547638",
        "addr:city": "臺北市",
        "addr:country": "TW",
        "addr:district": "士林區",
        "addr:full": "臺北市士林區陽明里格致路39號",
        "addr:housenumber": "39",
        "addr:postcode": "111",
        "addr:street": "格致路",
        "addr:village": "陽明里",
        "amenity": "police",
        "name": "山仔后派出所",
        "phone": "+886 2 2861 1295"
      },
      "geometry": {
        "type": "Point",
        "coordinates": [
          121.5463939,
          25.1373602
        ]
      },
      "id": "node/2062547638"
    },
    {
      "type": "Feature",
      "properties": {
        "@id": "node/2172963453",
        "addr:city": "臺北市",
        "addr:country": "TW",
        "addr:district": "松山區",
        "addr:full": "臺北市松山區民有里民權東路三段162號",
        "addr:housenumber": "162",
        "addr:postcode": "105",
        "addr:street": "民權東路三段",
        "addr:village": "民有里",
        "amenity": "police",
        "name": "民有派出所",
        "phone": "+886 2 2712 3638"
      },
      "geometry": {
        "type": "Point",
        "coordinates": [
          121.5480315,
          25.0617733
        ]
      },
      "id": "node/2172963453"
    },
    {
      "type": "Feature",
      "properties": {
        "@id": "node/2269585355",
        "addr:city": "臺北市",
        "addr:country": "TW",
        "addr:district": "萬華區",
        "addr:full": "臺北市萬華區萬大路423巷112號",
        "addr:housenumber": "112",
        "addr:postcode": "108",
        "addr:street": "萬大路423巷",
        "amenity": "police",
        "name": "青年路派出所",
        "phone": "+886 2 2305 4219"
      },
      "geometry": {
        "type": "Point",
        "coordinates": [
          121.5024805,
          25.0220051
        ]
      },
      "id": "node/2269585355"
    },
    {
      "type": "Feature",
      "properties": {
        "@id": "node/2383851107",
        "addr:city": "臺北市",
        "addr:country": "TW",
        "addr:district": "萬華區",
        "addr:full": "臺北市萬華區華江里環河南路二段196號",
        "addr:housenumber": "196",
        "addr:postcode": "108",
        "addr:street": "環河南路二段",
        "addr:village": "華江里",
        "amenity": "police",
        "name": "華江派出所",
        "phone": "+886 2 2306 1531",
        "source": "local knowledge"
      },
      "geometry": {
        "type": "Point",
        "coordinates": [
          121.4932057,
          25.0342318
        ]
      },
      "id": "node/2383851107"
    },
    {
      "type": "Feature",
      "properties": {
        "@id": "node/2456412694",
        "addr:city": "臺北市",
        "addr:country": "TW",
        "addr:district": "中山區",
        "addr:full": "臺北市中山區力行里長安東路二段165號",
        "addr:housenumber": "165",
        "addr:postcode": "104",
        "addr:street": "長安東路二段",
        "addr:village": "力行里",
        "amenity": "police",
        "name": "長安東路派出所",
        "phone": "+886 2 2771 1932"
      },
      "geometry": {
        "type": "Point",
        "coordinates": [
          121.5405301,
          25.0484399
        ]
      },
      "id": "node/2456412694"
    },
    {
      "type": "Feature",
      "properties": {
        "@id": "node/2514705886",
        "addr:city": "臺北市",
        "addr:country": "TW",
        "addr:district": "內湖區",
        "addr:full": "臺北市內湖區內湖路一段550號",
        "addr:housenumber": "550",
        "addr:postcode": "114",
        "addr:street": "內湖路一段",
        "amenity": "police",
        "name": "港墘派出所",
        "phone": "+886 2 8751 8690"
      },
      "geometry": {
        "type": "Point",
        "coordinates": [
          121.5768051,
          25.0787963
        ]
      },
      "id": "node/2514705886"
    },
    {
      "type": "Feature",
      "properties": {
        "@id": "node/2529516240",
        "addr:city": "臺北市",
        "addr:country": "TW",
        "addr:district": "文山區",
        "addr:full": "臺北市文山區試院里木柵路一段54號",
        "addr:housenumber": "54",
        "addr:postcode": "116",
        "addr:street": "木柵路一段",
        "amenity": "police",
        "name": "復興派出所",
        "phone": "+886-2-22367140"
      },
      "geometry": {
        "type": "Point",
        "coordinates": [
          121.5470349,
          24.9867741
        ]
      },
      "id": "node/2529516240"
    },
    {
      "type": "Feature",
      "properties": {
        "@id": "node/2536763052",
        "addr:city": "臺北市",
        "addr:country": "TW",
        "addr:district": "松山區",
        "addr:full": "臺北市松山區三民里民生東路五段163之1號",
        "addr:housenumber": "163之1",
        "addr:postcode": "105",
        "addr:street": "民生東路五段",
        "addr:village": "三民里",
        "amenity": "police",
        "name": "三民派出所",
        "phone": "+886 2 2762 1708",
        "wheelchair": "no"
      },
      "geometry": {
        "type": "Point",
        "coordinates": [
          121.5627762,
          25.0591296
        ]
      },
      "id": "node/2536763052"
    },
    {
      "type": "Feature",
      "properties": {
        "@id": "node/2536763202",
        "addr:city": "臺北市",
        "addr:country": "TW",
        "addr:district": "松山區",
        "addr:floor": "1;2",
        "addr:full": "臺北市松山區南京東路四段12號1.2樓",
        "addr:housenumber": "12",
        "addr:postcode": "105",
        "addr:street": "南京東路四段",
        "amenity": "police",
        "name": "中崙派出所",
        "operator": "臺北市政府警察局松山分局",
        "phone": "+886 2 2579 0718"
      },
      "geometry": {
        "type": "Point",
        "coordinates": [
          121.5525137,
          25.051116
        ]
      },
      "id": "node/2536763202"
    },
    {
      "type": "Feature",
      "properties": {
        "@id": "node/2536763375",
        "addr:city": "臺北市",
        "addr:country": "TW",
        "addr:district": "信義區",
        "addr:full": "臺北市信義區四育里永吉路333號",
        "addr:housenumber": "333",
        "addr:postcode": "110",
        "addr:street": "永吉路",
        "addr:village": "四育里",
        "amenity": "police",
        "name": "五分埔派出所",
        "phone": "+886 2 2765 3349"
      },
      "geometry": {
        "type": "Point",
        "coordinates": [
          121.5758458,
          25.0456638
        ]
      },
      "id": "node/2536763375"
    },
    {
      "type": "Feature",
      "properties": {
        "@id": "node/2536763866",
        "addr:city": "臺北市",
        "addr:country": "TW",
        "addr:district": "南港區",
        "addr:full": "臺北市南港區萬福里同德路83號",
        "addr:housenumber": "83",
        "addr:postcode": "115",
        "addr:street": "同德路",
        "addr:village": "萬福里",
        "amenity": "police",
        "name": "同德派出所",
        "phone": "+886 2 2786 7201"
      },
      "geometry": {
        "type": "Point",
        "coordinates": [
          121.5856583,
          25.0460671
        ]
      },
      "id": "node/2536763866"
    },
    {
      "type": "Feature",
      "properties": {
        "@id": "node/2536763885",
        "addr:city": "臺北市",
        "addr:country": "TW",
        "addr:district": "信義區",
        "addr:full": "臺北市信義區吳興街262號",
        "addr:housenumber": "262",
        "addr:postcode": "110",
        "addr:street": "吳興街",
        "amenity": "police",
        "name": "吳興街派出所",
        "phone": "+886 2 2739 8997"
      },
      "geometry": {
        "type": "Point",
        "coordinates": [
          121.5639192,
          25.0265524
        ]
      },
      "id": "node/2536763885"
    },
    {
      "type": "Feature",
      "properties": {
        "@id": "node/2536764167",
        "addr:city": "臺北市",
        "addr:country": "TW",
        "addr:district": "北投區",
        "addr:full": "臺北市北投區中和里中和街534號",
        "addr:housenumber": "534",
        "addr:postcode": "112",
        "addr:street": "中和街",
        "addr:village": "中和里",
        "amenity": "police",
        "name": "大屯派出所",
        "phone": "+886 2 2891 3971"
      },
      "geometry": {
        "type": "Point",
        "coordinates": [
          121.4933213,
          25.1455671
        ]
      },
      "id": "node/2536764167"
    },
    {
      "type": "Feature",
      "properties": {
        "@id": "node/2536764293",
        "addr:city": "臺北市",
        "addr:country": "TW",
        "addr:district": "萬華區",
        "addr:full": "臺北市萬華區糖廓里大理街99號",
        "addr:housenumber": "99",
        "addr:postcode": "108",
        "addr:street": "大理街",
        "addr:village": "糖廓里",
        "amenity": "police",
        "name": "大理街派出所",
        "phone": "+886 2 2306 3468"
      },
      "geometry": {
        "type": "Point",
        "coordinates": [
          121.4983618,
          25.0344782
        ]
      },
      "id": "node/2536764293"
    },
    {
      "type": "Feature",
      "properties": {
        "@id": "node/2536764337",
        "addr:city": "臺北市",
        "addr:country": "TW",
        "addr:district": "士林區",
        "addr:full": "臺北市士林區天和里中山北路七段192號",
        "addr:housenumber": "192",
        "addr:postcode": "111",
        "addr:street": "中山北路七段",
        "addr:village": "天和里",
        "amenity": "police",
        "name": "天母派出所",
        "phone": "+886 2 2871 4110"
      },
      "geometry": {
        "type": "Point",
        "coordinates": [
          121.5329896,
          25.1250397
        ]
      },
      "id": "node/2536764337"
    },
    {
      "type": "Feature",
      "properties": {
        "@id": "node/2536764517",
        "addr:city": "臺北市",
        "addr:country": "TW",
        "addr:district": "萬華區",
        "addr:full": "臺北市萬華區富福里和平西路三段112號",
        "addr:housenumber": "112",
        "addr:postcode": "108",
        "addr:street": "和平西路三段",
        "addr:village": "富福里",
        "amenity": "police",
        "name": "康定路派出所",
        "phone": "+886 2 2306 4226"
      },
      "geometry": {
        "type": "Point",
        "coordinates": [
          121.5004402,
          25.0350412
        ]
      },
      "id": "node/2536764517"
    },
    {
      "type": "Feature",
      "properties": {
        "@id": "node/2536764521",
        "addr:city": "臺北市",
        "addr:country": "TW",
        "addr:district": "內湖區",
        "addr:full": "臺北市內湖區清白里金湖路83號",
        "addr:housenumber": "83",
        "addr:postcode": "114",
        "addr:street": "金湖路",
        "addr:village": "清白里",
        "amenity": "police",
        "name": "康寧派出所",
        "phone": "+886 2 8792 0061"
      },
      "geometry": {
        "type": "Point",
        "coordinates": [
          121.5975132,
          25.0811666
        ]
      },
      "id": "node/2536764521"
    },
    {
      "type": "Feature",
      "properties": {
        "@id": "node/2536764524",
        "addr:city": "臺北市",
        "addr:country": "TW",
        "addr:district": "內湖區",
        "addr:full": "臺北市內湖區樂康里康樂街110巷16弄20號",
        "addr:housenumber": "20",
        "addr:postcode": "114",
        "addr:street": "康樂街110巷16弄",
        "addr:village": "樂康里",
        "amenity": "police",
        "name": "康樂派出所",
        "phone": "+886 2 2634 2237"
      },
      "geometry": {
        "type": "Point",
        "coordinates": [
          121.6189232,
          25.0703196
        ]
      },
      "id": "node/2536764524"
    },
    {
      "type": "Feature",
      "properties": {
        "@id": "node/2536764528",
        "addr:city": "臺北市",
        "addr:country": "TW",
        "addr:district": "中正區",
        "addr:full": "臺北市中正區螢圃里廈門街43號",
        "addr:housenumber": "43",
        "addr:postcode": "100",
        "addr:street": "廈門街",
        "addr:village": "螢圃里",
        "amenity": "police",
        "name": "廈門街派出所",
        "phone": "+886 2 2368 4427",
        "toilets:wheelchair": "yes",
        "wheelchair": "no"
      },
      "geometry": {
        "type": "Point",
        "coordinates": [
          121.5177012,
          25.025813
        ]
      },
      "id": "node/2536764528"
    },
    {
      "type": "Feature",
      "properties": {
        "@id": "node/2536764598",
        "addr:city": "臺北市",
        "addr:country": "TW",
        "addr:district": "中山區",
        "addr:full": "臺北市中山區民族東路284號",
        "addr:housenumber": "284",
        "addr:postcode": "104",
        "addr:street": "民族東路",
        "amenity": "police",
        "name": "建國派出所",
        "phone": "+886 2 2509 1990"
      },
      "geometry": {
        "type": "Point",
        "coordinates": [
          121.5359947,
          25.0679949
        ]
      },
      "id": "node/2536764598"
    },
    {
      "type": "Feature",
      "properties": {
        "@id": "node/2536764609",
        "addr:city": "臺北市",
        "addr:country": "TW",
        "addr:district": "大同區",
        "addr:full": "臺北市大同區建泰里承德路一段80號",
        "addr:housenumber": "80",
        "addr:postcode": "104",
        "addr:street": "承德路一段",
        "addr:village": "建泰里",
        "amenity": "police",
        "name": "建成派出所",
        "phone": "+886 2 2558 5463"
      },
      "geometry": {
        "type": "Point",
        "coordinates": [
          121.5173257,
          25.0527495
        ]
      },
      "id": "node/2536764609"
    },
    {
      "type": "Feature",
      "properties": {
        "@id": "node/2536764911",
        "addr:city": "臺北市",
        "addr:country": "TW",
        "addr:district": "文山區",
        "addr:full": "臺北市文山區萬興里指南路二段177號",
        "addr:housenumber": "177",
        "addr:postcode": "116",
        "addr:street": "指南路二段",
        "addr:village": "萬興里",
        "amenity": "police",
        "name": "指南派出所",
        "phone": "+886 2 2938 2712"
      },
      "geometry": {
        "type": "Point",
        "coordinates": [
          121.5779113,
          24.9872894
        ]
      },
      "id": "node/2536764911"
    },
    {
      "type": "Feature",
      "properties": {
        "@id": "node/2536764948",
        "addr:city": "臺北市",
        "addr:country": "TW",
        "addr:district": "內湖區",
        "addr:full": "臺北市內湖區民權東路六段26號",
        "addr:housenumber": "26",
        "addr:postcode": "114",
        "addr:street": "民權東路六段",
        "amenity": "police",
        "name": "文德派出所",
        "phone": "+886 2 2794 4946"
      },
      "geometry": {
        "type": "Point",
        "coordinates": [
          121.5789172,
          25.0665969
        ]
      },
      "id": "node/2536764948"
    },
    {
      "type": "Feature",
      "properties": {
        "@id": "node/2536765217",
        "addr:city": "臺北市",
        "addr:country": "TW",
        "addr:district": "萬華區",
        "addr:full": "臺北市萬華區仁德里昆明街245號",
        "addr:housenumber": "245",
        "addr:postcode": "108",
        "addr:street": "昆明街",
        "addr:village": "仁德里",
        "amenity": "police",
        "name": "龍山機動派出所",
        "old_name": "昆明街派出所",
        "phone": "+886 2 2308 2353",
        "toilets:wheelchair": "yes",
        "wheelchair": "limited"
      },
      "geometry": {
        "type": "Point",
        "coordinates": [
          121.5038654,
          25.0378543
        ]
      },
      "id": "node/2536765217"
    },
    {
      "type": "Feature",
      "properties": {
        "@id": "node/2536765328",
        "addr:city": "臺北市",
        "addr:country": "TW",
        "addr:district": "文山區",
        "addr:full": "臺北市文山區恆光街45號",
        "addr:housenumber": "45",
        "addr:postcode": "116",
        "addr:street": "恆光街",
        "amenity": "police",
        "name": "木新派出所",
        "phone": "+886 2 2937 2488"
      },
      "geometry": {
        "type": "Point",
        "coordinates": [
          121.5672808,
          24.982431
        ]
      },
      "id": "node/2536765328"
    },
    {
      "type": "Feature",
      "properties": {
        "@id": "node/2536765340",
        "addr:city": "臺北市",
        "addr:country": "TW",
        "addr:district": "萬華區",
        "addr:full": "臺北市萬華區全德里長泰街130號",
        "addr:housenumber": "130",
        "addr:postcode": "108",
        "addr:street": "長泰街",
        "addr:village": "全德里",
        "amenity": "police",
        "name": "東園街派出所",
        "phone": "+886 2 2303 3247"
      },
      "geometry": {
        "type": "Point",
        "coordinates": [
          121.4981941,
          25.0224082
        ]
      },
      "id": "node/2536765340"
    },
    {
      "type": "Feature",
      "properties": {
        "@id": "node/2536765381",
        "addr:city": "臺北市",
        "addr:country": "TW",
        "addr:district": "內湖區",
        "addr:full": "臺北市內湖區五分里五分街10號",
        "addr:housenumber": "10",
        "addr:postcode": "114",
        "addr:street": "五分街",
        "addr:village": "五分里",
        "amenity": "police",
        "name": "東湖派出所",
        "phone": "+886 2 2631 3350"
      },
      "geometry": {
        "type": "Point",
        "coordinates": [
          121.6130151,
          25.0674097
        ]
      },
      "id": "node/2536765381"
    },
    {
      "type": "Feature",
      "properties": {
        "@id": "node/2536765392",
        "addr:city": "臺北市",
        "addr:country": "TW",
        "addr:district": "松山區",
        "addr:full": "10566臺北市松山區八德路四段692號",
        "addr:housenumber": "692",
        "addr:postcode": "10566",
        "addr:street": "八德路四段",
        "amenity": "police",
        "fax": "+886 2 2767 5465",
        "name": "松山派出所",
        "name:en": "Songshan Police Station",
        "name:zh": "松山派出所",
        "official_name": "臺北市政府警察局松山分局松山派出所",
        "operator": "臺北市政府警察局松山分局",
        "phone": "+886 2 2767 0446"
      },
      "geometry": {
        "type": "Point",
        "coordinates": [
          121.5772601,
          25.0497653
        ]
      },
      "id": "node/2536765392"
    },
    {
      "type": "Feature",
      "properties": {
        "@id": "node/2536765463",
        "addr:city": "臺北市",
        "addr:country": "TW",
        "addr:district": "大同區",
        "addr:full": "臺北市大同區國慶里重慶北路三段168號",
        "addr:housenumber": "168",
        "addr:postcode": "104",
        "addr:street": "重慶北路三段",
        "addr:village": "國慶里",
        "amenity": "police",
        "name": "民族路派出所",
        "name:zh": "民族路派出所",
        "phone": "+886 2 2592 6204"
      },
      "geometry": {
        "type": "Point",
        "coordinates": [
          121.5135075,
          25.0687876
        ]
      },
      "id": "node/2536765463"
    },
    {
      "type": "Feature",
      "properties": {
        "@id": "node/2536765465",
        "addr:city": "臺北市",
        "addr:country": "TW",
        "addr:district": "中山區",
        "addr:full": "臺北市中山區中庄里新生北路二段127之1號",
        "addr:housenumber": "127之1",
        "addr:postcode": "104",
        "addr:street": "新生北路二段",
        "addr:village": "中庄里",
        "amenity": "police",
        "name": "民權一派出所",
        "phone": "+886 2 2531 4671"
      },
      "geometry": {
        "type": "Point",
        "coordinates": [
          121.527951,
          25.0598894
        ]
      },
      "id": "node/2536765465"
    },
    {
      "type": "Feature",
      "properties": {
        "@id": "node/2536765471",
        "addr:city": "臺北市",
        "addr:country": "TW",
        "addr:district": "大同區",
        "addr:full": "103010臺北市大同區保安街47之1號",
        "addr:housenumber": "47-1",
        "addr:postcode": "103010",
        "addr:street": "保安街",
        "addr:village": "延平里",
        "amenity": "police",
        "fax": "+886 2 2557 3573",
        "name": "民生西路派出所",
        "name:zh": "民生西路派出所",
        "official_name": "臺北市政府警察局大同分局民生西路派出所",
        "opening_hours": "24/7",
        "operator": "臺北市政府警察局",
        "operator:en": "Taipei City Police Department",
        "operator:wikidata": "Q15903297",
        "operator:wikipedia": "zh:臺北市政府警察局",
        "operator:zh": "臺北市政府警察局",
        "phone": "+886 2 2553 8587",
        "website": "https://police.gov.taipei/"
      },
      "geometry": {
        "type": "Point",
        "coordinates": [
          121.5120342,
          25.0594525
        ]
      },
      "id": "node/2536765471"
    },
    {
      "type": "Feature",
      "properties": {
        "@id": "node/2536765497",
        "addr:city": "臺北市",
        "addr:country": "TW",
        "addr:district": "北投區",
        "addr:full": "臺北市北投區永明里石牌路二段10號",
        "addr:housenumber": "10",
        "addr:postcode": "112",
        "addr:street": "石牌路二段",
        "addr:village": "永明里",
        "amenity": "police",
        "name": "永明派出所",
        "phone": "+886 2 2821 3110"
      },
      "geometry": {
        "type": "Point",
        "coordinates": [
          121.5169032,
          25.1179607
        ]
      },
      "id": "node/2536765497"
    },
    {
      "type": "Feature",
      "properties": {
        "@id": "node/2536765520",
        "addr:city": "臺北市",
        "addr:country": "TW",
        "addr:district": "中正區",
        "addr:full": "臺北市中正區中華路二段503號",
        "addr:housenumber": "503",
        "addr:postcode": "100",
        "addr:street": "中華路二段",
        "amenity": "police",
        "name": "泉州街派出所",
        "phone": "+886 2 2303 9915"
      },
      "geometry": {
        "type": "Point",
        "coordinates": [
          121.5121726,
          25.0242295
        ]
      },
      "id": "node/2536765520"
    },
    {
      "type": "Feature",
      "properties": {
        "@id": "node/2536765571",
        "addr:city": "臺北市",
        "addr:country": "TW",
        "addr:district": "士林區",
        "addr:full": "臺北市士林區溪山里至善路三段263號",
        "addr:housenumber": "263",
        "addr:postcode": "111",
        "addr:street": "至善路三段",
        "addr:village": "溪山里",
        "amenity": "police",
        "name": "溪山派出所",
        "phone": "+886 2 2841 1110"
      },
      "geometry": {
        "type": "Point",
        "coordinates": [
          121.5845317,
          25.1196954
        ]
      },
      "id": "node/2536765571"
    },
    {
      "type": "Feature",
      "properties": {
        "@id": "node/2536765584",
        "addr:city": "臺北市",
        "addr:country": "TW",
        "addr:district": "內湖區",
        "addr:full": "臺北市內湖區週美里新明路324號",
        "addr:housenumber": "324",
        "addr:postcode": "114",
        "addr:street": "新明路",
        "addr:village": "週美里",
        "amenity": "police",
        "name": "潭美派出所",
        "phone": "+886 2 2791 7233"
      },
      "geometry": {
        "type": "Point",
        "coordinates": [
          121.5815697,
          25.0552834
        ]
      },
      "id": "node/2536765584"
    },
    {
      "type": "Feature",
      "properties": {
        "@id": "node/2536765731",
        "addr:city": "臺北市",
        "addr:country": "TW",
        "addr:district": "北投區",
        "addr:full": "臺北市北投區文林里文林北路296號",
        "addr:housenumber": "296",
        "addr:postcode": "112",
        "addr:street": "文林北路",
        "addr:village": "文林里",
        "amenity": "police",
        "name": "石牌派出所",
        "phone": "+886 2 2823 1513"
      },
      "geometry": {
        "type": "Point",
        "coordinates": [
          121.5124991,
          25.1098867
        ]
      },
      "id": "node/2536765731"
    },
    {
      "type": "Feature",
      "properties": {
        "@id": "node/2536765803",
        "addr:city": "臺北市",
        "addr:country": "TW",
        "addr:district": "信義區",
        "addr:full": "臺北市信義區松德路66號",
        "addr:housenumber": "66",
        "addr:postcode": "110",
        "addr:street": "松德路",
        "addr:village": "大仁里",
        "amenity": "police",
        "disused:addr:housenumber": "198",
        "disused:addr:street": "福德街",
        "name": "福德街派出所",
        "old_addr:full": "臺北市信義區大仁里福德街198號",
        "phone": "+886 2 2727 3424"
      },
      "geometry": {
        "type": "Point",
        "coordinates": [
          121.5761106,
          25.038529
        ]
      },
      "id": "node/2536765803"
    },
    {
      "type": "Feature",
      "properties": {
        "@id": "node/2536765875",
        "addr:city": "臺北市",
        "addr:country": "TW",
        "addr:district": "大安區",
        "addr:full": "臺北市大安區臥龍街185號",
        "addr:housenumber": "185",
        "addr:postcode": "106",
        "addr:street": "臥龍街",
        "amenity": "police",
        "name": "臥龍街派出所",
        "phone": "+886 2 2733 4439"
      },
      "geometry": {
        "type": "Point",
        "coordinates": [
          121.5519383,
          25.0179346
        ]
      },
      "id": "node/2536765875"
    },
    {
      "type": "Feature",
      "properties": {
        "@id": "node/2536766027",
        "addr:city": "臺北市",
        "addr:country": "TW",
        "addr:district": "文山區",
        "addr:full": "臺北市文山區萬芳里萬美街一段50號",
        "addr:housenumber": "50",
        "addr:postcode": "116",
        "addr:street": "萬美街一段",
        "addr:village": "萬芳里",
        "amenity": "police",
        "name": "萬芳派出所",
        "phone": "+886 2 2239 1753"
      },
      "geometry": {
        "type": "Point",
        "coordinates": [
          121.5667965,
          25.0022465
        ]
      },
      "id": "node/2536766027"
    },
    {
      "type": "Feature",
      "properties": {
        "@id": "node/2536766039",
        "addr:city": "臺北市",
        "addr:country": "TW",
        "addr:district": "士林區",
        "addr:full": "11155臺北市士林區中山北路六段153號",
        "addr:housenumber": "153",
        "addr:postcode": "111",
        "addr:street": "中山北路六段",
        "addr:village": "蘭興里",
        "amenity": "police",
        "name": "蘭雅派出所",
        "phone": "+886 2 2831 5001",
        "wheelchair": "yes"
      },
      "geometry": {
        "type": "Point",
        "coordinates": [
          121.5247507,
          25.1066479
        ]
      },
      "id": "node/2536766039"
    },
    {
      "type": "Feature",
      "properties": {
        "@id": "node/2536766055",
        "addr:city": "臺北市",
        "addr:country": "TW",
        "addr:district": "內湖區",
        "addr:floor": "1",
        "addr:full": "臺北市內湖區瑞光路515號",
        "addr:housenumber": "515",
        "addr:postcode": "11492",
        "addr:street": "瑞光路",
        "amenity": "police",
        "name": "西湖派出所",
        "opening_hours": "24/7",
        "operator": "臺北市政府警察局",
        "phone": "+886 2 2798 7505",
        "wheelchair": "yes"
      },
      "geometry": {
        "type": "Point",
        "coordinates": [
          121.5693109,
          25.0791107
        ]
      },
      "id": "node/2536766055"
    },
    {
      "type": "Feature",
      "properties": {
        "@id": "node/2536766152",
        "addr:city": "臺北市",
        "addr:country": "TW",
        "addr:district": "中山區",
        "addr:full": "臺北市中山區中央里長春路206號",
        "addr:housenumber": "206",
        "addr:postcode": "104",
        "addr:street": "長春路",
        "amenity": "police",
        "name": "長春路派出所",
        "phone": "+886-2-25062289"
      },
      "geometry": {
        "type": "Point",
        "coordinates": [
          121.5360258,
          25.0546167
        ]
      },
      "id": "node/2536766152"
    },
    {
      "type": "Feature",
      "properties": {
        "@id": "node/2536766172",
        "addr:city": "臺北市",
        "addr:country": "TW",
        "addr:district": "北投區",
        "addr:full": "臺北市北投區關渡里大度路三段305號",
        "addr:housenumber": "305",
        "addr:postcode": "112",
        "addr:street": "大度路三段",
        "addr:village": "關渡里",
        "amenity": "police",
        "name": "關渡派出所",
        "phone": "+886 2 2858 3864"
      },
      "geometry": {
        "type": "Point",
        "coordinates": [
          121.465946,
          25.1229685
        ]
      },
      "id": "node/2536766172"
    },
    {
      "type": "Feature",
      "properties": {
        "@id": "node/2598094444",
        "addr:city": "臺北市",
        "addr:country": "TW",
        "addr:district": "文山區",
        "addr:full": "臺北市文山區景中街2號",
        "addr:housenumber": "2",
        "addr:postcode": "116",
        "addr:street": "景中街",
        "amenity": "police",
        "name": "文山二分局警備隊",
        "phone": "+886 2 2932 4291",
        "toilets:wheelchair": "yes",
        "wheelchair": "yes"
      },
      "geometry": {
        "type": "Point",
        "coordinates": [
          121.5411136,
          24.9926752
        ]
      },
      "id": "node/2598094444"
    },
    {
      "type": "Feature",
      "properties": {
        "@id": "node/2598094449",
        "addr:city": "臺北市",
        "addr:country": "TW",
        "addr:district": "文山區",
        "addr:full": "臺北市文山區景中街2號",
        "addr:housenumber": "2",
        "addr:postcode": "116",
        "addr:street": "景中街",
        "amenity": "police",
        "name": "景美派出所",
        "phone": "+886 2 2931 3459;+886 2 2932 5732",
        "toilets:wheelchair": "yes",
        "wheelchair": "yes"
      },
      "geometry": {
        "type": "Point",
        "coordinates": [
          121.5410587,
          24.9926877
        ]
      },
      "id": "node/2598094449"
    },
    {
      "type": "Feature",
      "properties": {
        "@id": "node/2598708681",
        "addr:city": "臺北市",
        "addr:country": "TW",
        "addr:district": "中正區",
        "addr:full": "10066臺北市中正區南海路35號",
        "addr:housenumber": "35",
        "addr:postcode": "10066",
        "addr:street": "南海路",
        "amenity": "police",
        "fax": "+886-2-2375-2836",
        "name": "南海路派出所",
        "official_name": "臺北市政府警察局中正第二分局南海路派出所",
        "operator": "臺北市政府警察局中正第二分局",
        "phone": "+886 2 2375 2835"
      },
      "geometry": {
        "type": "Point",
        "coordinates": [
          121.5139625,
          25.032035
        ]
      },
      "id": "node/2598708681"
    },
    {
      "type": "Feature",
      "properties": {
        "@id": "node/2599899100",
        "addr:city": "臺北市",
        "addr:country": "TW",
        "addr:district": "士林區",
        "addr:full": "臺北市士林區文林路235號",
        "addr:housenumber": "235",
        "addr:postcode": "111",
        "addr:street": "文林路",
        "amenity": "police",
        "name": "文林派出所",
        "phone": "+886 2 2881 2211;+886 2 2881 7138",
        "wheelchair": "yes"
      },
      "geometry": {
        "type": "Point",
        "coordinates": [
          121.5265986,
          25.090616
        ]
      },
      "id": "node/2599899100"
    },
    {
      "type": "Feature",
      "properties": {
        "@id": "node/2608102228",
        "addr:city": "臺北市",
        "addr:country": "TW",
        "addr:district": "中正區",
        "addr:full": "10041臺北市中正區公園路15號",
        "addr:housenumber": "15",
        "addr:postcode": "10041",
        "addr:street": "公園路",
        "amenity": "police",
        "fax": "+886 2 2331 4225",
        "name": "忠孝西路派出所",
        "official_name": "臺北市政府警察局中正第一分局忠孝西路派出所",
        "operator": "臺北市政府警察局中正第一分局",
        "phone": "+886 2 2314 2722"
      },
      "geometry": {
        "type": "Point",
        "coordinates": [
          121.5174148,
          25.0451126
        ]
      },
      "id": "node/2608102228"
    },
    {
      "type": "Feature",
      "properties": {
        "@id": "node/2713744948",
        "addr:city": "臺北市",
        "addr:country": "TW",
        "addr:district": "中山區",
        "addr:housenumber": "11",
        "addr:postcode": "104",
        "addr:street": "長安東路二段",
        "amenity": "police",
        "name": "中山分局警備隊"
      },
      "geometry": {
        "type": "Point",
        "coordinates": [
          121.5305367,
          25.0485685
        ]
      },
      "id": "node/2713744948"
    },
    {
      "type": "Feature",
      "properties": {
        "@id": "node/2952382795",
        "addr:city": "臺北市",
        "addr:country": "TW",
        "addr:district": "大安區",
        "addr:full": "臺北市大安區仁愛路三段18號",
        "addr:housenumber": "18",
        "addr:postcode": "106",
        "addr:street": "仁愛路三段",
        "amenity": "police",
        "name": "新生南路派出所",
        "phone": "+886 2 2325 8611;+886 2 2325 8612"
      },
      "geometry": {
        "type": "Point",
        "coordinates": [
          121.5340728,
          25.0376711
        ]
      },
      "id": "node/2952382795"
    },
    {
      "type": "Feature",
      "properties": {
        "@id": "node/3157650600",
        "addr:city": "臺北市",
        "addr:country": "TW",
        "addr:district": "南港區",
        "addr:full": "臺北市南港區興中路12巷2號",
        "addr:housenumber": "2",
        "addr:postcode": "115",
        "addr:street": "興中路12巷",
        "amenity": "police",
        "name": "南港派出所"
      },
      "geometry": {
        "type": "Point",
        "coordinates": [
          121.6070822,
          25.0548982
        ]
      },
      "id": "node/3157650600"
    },
    {
      "type": "Feature",
      "properties": {
        "@id": "node/3353592628",
        "addr:city": "臺北市",
        "addr:country": "TW",
        "addr:district": "信義區",
        "addr:full": "臺北市信義區信義路五段17號",
        "addr:housenumber": "17",
        "addr:postcode": "110",
        "addr:street": "信義路五段",
        "amenity": "police",
        "name": "三張犁派出所",
        "phone": "+886 2 2729 5561"
      },
      "geometry": {
        "type": "Point",
        "coordinates": [
          121.567937,
          25.0331635
        ]
      },
      "id": "node/3353592628"
    },
    {
      "type": "Feature",
      "properties": {
        "@id": "node/3823837121",
        "addr:city": "臺北市",
        "addr:country": "TW",
        "addr:district": "萬華區",
        "addr:housenumber": "24",
        "addr:postcode": "108",
        "addr:street": "大埔街",
        "amenity": "police",
        "name": "莒光民防中隊"
      },
      "geometry": {
        "type": "Point",
        "coordinates": [
          121.5042226,
          25.0324706
        ]
      },
      "id": "node/3823837121"
    },
    {
      "type": "Feature",
      "properties": {
        "@id": "node/3835834094",
        "addr:city": "臺北市",
        "addr:country": "TW",
        "addr:district": "士林區",
        "addr:floor": "1",
        "addr:full": "臺北市士林區福港街151號",
        "addr:housenumber": "151",
        "addr:postcode": "111",
        "addr:street": "福港街",
        "amenity": "police",
        "name": "後港派出所",
        "phone": "+886 2 2882 9373;+886 2 2881 2212"
      },
      "geometry": {
        "type": "Point",
        "coordinates": [
          121.5180103,
          25.0873254
        ]
      },
      "id": "node/3835834094"
    },
    {
      "type": "Feature",
      "properties": {
        "@id": "node/3881369161",
        "abandoned": "yes",
        "addr:city": "臺北市",
        "addr:country": "TW",
        "addr:district": "士林區",
        "addr:full": "臺北市士林區社園里延平北路六段92號;臺北市士林區延平北路六段237號",
        "addr:housenumber": "237",
        "addr:postcode": "111",
        "addr:street": "延平北路六段",
        "amenity": "police",
        "disused:amenity": "police",
        "disused:name": "社子派出所",
        "name": "社子派出所",
        "phone": "+886 2 2812 2720;+886 2 2811 1134"
      },
      "geometry": {
        "type": "Point",
        "coordinates": [
          121.5055558,
          25.0895982
        ]
      },
      "id": "node/3881369161"
    },
    {
      "type": "Feature",
      "properties": {
        "@id": "node/3929888459",
        "addr:city": "臺北市",
        "addr:country": "TW",
        "addr:district": "中正區",
        "amenity": "police",
        "name": "義交中正二中隊"
      },
      "geometry": {
        "type": "Point",
        "coordinates": [
          121.5285362,
          25.0119691
        ]
      },
      "id": "node/3929888459"
    },
    {
      "type": "Feature",
      "properties": {
        "@id": "node/4031296858",
        "addr:city": "臺北市",
        "addr:country": "TW",
        "addr:district": "中正區",
        "amenity": "police",
        "name": "民防義警協勤中心"
      },
      "geometry": {
        "type": "Point",
        "coordinates": [
          121.5299888,
          25.0434232
        ]
      },
      "id": "node/4031296858"
    },
    {
      "type": "Feature",
      "properties": {
        "@id": "node/4043621675",
        "addr:city": "臺北市",
        "addr:country": "TW",
        "addr:district": "中正區",
        "addr:full": "10069台北市中正區中華路二段281號",
        "addr:housenumber": "281",
        "addr:postcode": "10069",
        "addr:street": "中華路二段",
        "amenity": "police",
        "email": "ap@tvpb.gov.tw",
        "fax": "+886 2 2303 6008;+886 2 2337 6019",
        "name": "義勇警察大隊",
        "official_name": "臺北市義勇警察大隊",
        "phone": "+886 2 2303 5909"
      },
      "geometry": {
        "type": "Point",
        "coordinates": [
          121.5043158,
          25.0298502
        ]
      },
      "id": "node/4043621675"
    },
    {
      "type": "Feature",
      "properties": {
        "@id": "node/4078673436",
        "addr:city": "臺北市",
        "addr:country": "TW",
        "addr:district": "松山區",
        "addr:full": "臺北市松山區延壽街339號",
        "addr:housenumber": "339",
        "addr:postcode": "105",
        "addr:street": "延壽街",
        "amenity": "police",
        "name": "臺北市警局保安警察大隊"
      },
      "geometry": {
        "type": "Point",
        "coordinates": [
          121.5596919,
          25.0567111
        ]
      },
      "id": "node/4078673436"
    },
    {
      "type": "Feature",
      "properties": {
        "@id": "node/4548084885",
        "addr:city": "臺北市",
        "addr:country": "TW",
        "addr:district": "文山區",
        "addr:full": "11681臺北市文山區萬盛街15號",
        "addr:housenumber": "15",
        "addr:postcode": "11681",
        "addr:street": "萬盛街",
        "amenity": "police",
        "full_name": "內政部警政署保安警察戲第七總隊",
        "name": "保七總隊",
        "name:en": "The Seventh Special Police Corps",
        "name:zh": "保七總隊",
        "official_name": "保安警察第七總隊",
        "phone": "+886 2 2933 3942",
        "website": "https://www.7spc.gov.tw/"
      },
      "geometry": {
        "type": "Point",
        "coordinates": [
          121.5396031,
          25.0073926
        ]
      },
      "id": "node/4548084885"
    },
    {
      "type": "Feature",
      "properties": {
        "@id": "node/4596786945",
        "addr:city": "臺北市",
        "addr:country": "TW",
        "addr:district": "大安區",
        "addr:full": "臺北市大安區復興南路一段219之1號",
        "addr:housenumber": "219之1",
        "addr:postcode": "106",
        "addr:street": "復興南路一段",
        "amenity": "police",
        "name": "敦化南路派出所",
        "phone": "+886 2 2771 0400",
        "proposed:leisure": "park"
      },
      "geometry": {
        "type": "Point",
        "coordinates": [
          121.5439827,
          25.0389179
        ]
      },
      "id": "node/4596786945"
    },
    {
      "type": "Feature",
      "properties": {
        "@id": "node/4777315497",
        "amenity": "police",
        "name": "交通大隊大安分隊"
      },
      "geometry": {
        "type": "Point",
        "coordinates": [
          121.5356943,
          25.0351678
        ]
      },
      "id": "node/4777315497"
    },
    {
      "type": "Feature",
      "properties": {
        "@id": "node/4927497171",
        "addr:city": "臺北市",
        "addr:country": "TW",
        "addr:district": "士林區",
        "addr:floor": "6",
        "addr:full": "11169臺北市士林區福港街151號6樓",
        "addr:housenumber": "151",
        "addr:postcode": "11169",
        "addr:street": "福港街",
        "amenity": "police",
        "email": "slpptra@police.taipei",
        "name": "士林分局交通分隊",
        "phone": "+886 2 2888 1995;+886 2 2888 1996"
      },
      "geometry": {
        "type": "Point",
        "coordinates": [
          121.5180393,
          25.0872599
        ]
      },
      "id": "node/4927497171"
    },
    {
      "type": "Feature",
      "properties": {
        "@id": "node/5110348792",
        "addr:city": "臺北市",
        "addr:country": "TW",
        "addr:district": "南港區",
        "addr:floor": "1",
        "addr:full": "臺北市南港區向陽路150號1樓",
        "addr:housenumber": "150",
        "addr:postcode": "115",
        "addr:street": "向陽路",
        "amenity": "police",
        "fax": "+886 2 2788 6959",
        "name": "玉成派出所",
        "name:en": "Yucheng Police Station",
        "name:zh": "玉成派出所",
        "phone": "+886 2 2788 6958"
      },
      "geometry": {
        "type": "Point",
        "coordinates": [
          121.5947914,
          25.0551358
        ]
      },
      "id": "node/5110348792"
    },
    {
      "type": "Feature",
      "properties": {
        "@id": "node/5110489275",
        "addr:city": "臺北市",
        "addr:country": "TW",
        "addr:district": "大同區",
        "addr:floor": "B2",
        "addr:full": "10351臺北市大同區華陰街32號地下2樓",
        "addr:housenumber": "32",
        "addr:postcode": "10351",
        "addr:street": "華陰街",
        "amenity": "police",
        "name": "捷運警察隊",
        "toilets:wheelchair": "yes",
        "wheelchair": "yes"
      },
      "geometry": {
        "type": "Point",
        "coordinates": [
          121.5188517,
          25.0493257
        ]
      },
      "id": "node/5110489275"
    },
    {
      "type": "Feature",
      "properties": {
        "@id": "node/5110489725",
        "addr:city": "臺北市",
        "addr:country": "TW",
        "addr:district": "中山區",
        "amenity": "police",
        "name": "民防協勤中心"
      },
      "geometry": {
        "type": "Point",
        "coordinates": [
          121.5279305,
          25.0602514
        ]
      },
      "id": "node/5110489725"
    },
    {
      "type": "Feature",
      "properties": {
        "@id": "node/5780708961",
        "addr:city": "臺北市",
        "addr:country": "TW",
        "addr:district": "大同區",
        "addr:full": "10359臺北市大同區錦西街200號",
        "addr:housenumber": "200",
        "addr:postcode": "10359",
        "addr:street": "錦西街",
        "amenity": "police",
        "fax": "+886 2 2557 1593",
        "name": "寧夏派出所",
        "phone": "+886 2 2557 5011"
      },
      "geometry": {
        "type": "Point",
        "coordinates": [
          121.5154999,
          25.0593832
        ]
      },
      "id": "node/5780708961"
    },
    {
      "type": "Feature",
      "properties": {
        "@id": "node/5798395805",
        "addr:city": "臺北市",
        "addr:country": "TW",
        "addr:district": "文山區",
        "addr:floor": "1",
        "addr:full": "臺北市木柵路二段202號1樓",
        "addr:housenumber": "202",
        "addr:postcode": "116",
        "addr:street": "木柵路二段",
        "amenity": "police",
        "email": "w1ppmc@police.taipei",
        "fax": "+886 2 2939 3608",
        "name": "木柵派出所",
        "phone": "+886 2 2939 7141"
      },
      "geometry": {
        "type": "Point",
        "coordinates": [
          121.563533,
          24.988713
        ]
      },
      "id": "node/5798395805"
    },
    {
      "type": "Feature",
      "properties": {
        "@id": "node/6795607647",
        "amenity": "police",
        "name": "臺北市警察局婦幼隊及少年隊",
        "name:zh": "臺北市警察局女警隊及少年隊",
        "operator": "臺北市警察局"
      },
      "geometry": {
        "type": "Point",
        "coordinates": [
          121.5742957,
          25.0330977
        ]
      },
      "id": "node/6795607647"
    },
    {
      "type": "Feature",
      "properties": {
        "@id": "node/8922564129",
        "addr:city": "臺北市",
        "addr:country": "TW",
        "addr:district": "文山區",
        "addr:full": "116069臺北市興隆路二段95巷8號",
        "addr:housenumber": "8",
        "addr:postcode": "116069",
        "addr:street": "興隆路二段95巷",
        "amenity": "police",
        "name": "文山第二分局交通分隊",
        "office": "government",
        "phone": "+886 2 2935 0868"
      },
      "geometry": {
        "type": "Point",
        "coordinates": [
          121.5468853,
          25.0000109
        ]
      },
      "id": "node/8922564129"
    },
    {
      "type": "Feature",
      "properties": {
        "@id": "node/8922564130",
        "addr:city": "臺北市",
        "addr:country": "TW",
        "addr:district": "中正區",
        "addr:floor": "4",
        "addr:full": "臺北市中正區羅斯福路四段92號4樓",
        "addr:housenumber": "92",
        "addr:street": "羅斯福路四段",
        "amenity": "police",
        "name": "交通警察大隊直屬第一分隊",
        "office": "government"
      },
      "geometry": {
        "type": "Point",
        "coordinates": [
          121.5349236,
          25.0135631
        ]
      },
      "id": "node/8922564130"
    },
    {
      "type": "Feature",
      "properties": {
        "@id": "node/9030568079",
        "addr:city": "臺北市",
        "addr:country": "TW",
        "addr:district": "萬華區",
        "addr:full": "臺北市萬華區桂林路135號",
        "addr:housenumber": "135",
        "addr:street": "桂林路",
        "amenity": "police",
        "name": "龍山派出所",
        "phone": "+886 2 2331 4823;+886 2 2361 7592"
      },
      "geometry": {
        "type": "Point",
        "coordinates": [
          121.4993616,
          25.0385883
        ]
      },
      "id": "node/9030568079"
    },
    {
      "type": "Feature",
      "properties": {
        "@id": "node/9340816091",
        "addr:city": "臺北市",
        "addr:country": "TW",
        "addr:district": "中山區",
        "addr:full": "臺北市中山區民安里中山北路一段110號",
        "addr:housenumber": "110",
        "addr:postcode": "104",
        "addr:street": "中山北路一段",
        "amenity": "police",
        "name": "中山一派出所",
        "operator": "臺北市政府警察局",
        "operator:en": "Taipei City Police Department",
        "operator:wikidata": "Q15903297",
        "operator:wikipedia": "zh:臺北市政府警察局",
        "operator:zh": "臺北市政府警察局",
        "phone": "+886-2-25519321"
      },
      "geometry": {
        "type": "Point",
        "coordinates": [
          121.5214334,
          25.0499859
        ]
      },
      "id": "node/9340816091"
    }
  ]
}