{
"type": "FeatureCollection",
"name": "library_a_TYN",
"crs": { "type": "name", "properties": { "name": "urn:ogc:def:crs:OGC:1.3:CRS84" } },
"features": [
{ "type": "Feature", "properties": { "full_id": "w114430018", "osm_id": "114430018", "osm_type": "way", "amenity": "library", "start_date": null, "air_conditioning": null, "addr:place": null, "height": null, "old_official_name": null, "old_name": null, "fax": null, "addr:full": null, "addr:floor": null, "alt_name": null, "opening_hours": null, "internet_access:fee": null, "internet_access": null, "official_name": null, "addr:country": null, "website": null, "addr:postcode": null, "toilets:wheelchair": null, "wheelchair": null, "operator:type": null, "operator": null, "name:zh": null, "name:en": null, "phone": "+886 3 457 2402", "name": "桃園市立圖書館平鎮分館", "building:levels": "4", "building": "public", "addr:street": "環南路三段", "addr:housenumber": "88", "addr:district": "平鎮區", "addr:city": "桃園市" }, "geometry": { "type": "MultiPolygon", "coordinates": [ [ [ [ 121.2174037, 24.9393147 ], [ 121.2175836, 24.9393103 ], [ 121.217581, 24.9392238 ], [ 121.2179027, 24.9392159 ], [ 121.2179055, 24.93931 ], [ 121.2180902, 24.9393055 ], [ 121.2181037, 24.9398152 ], [ 121.2179239, 24.9398232 ], [ 121.2179271, 24.9398687 ], [ 121.21768, 24.9398748 ], [ 121.2176771, 24.9397761 ], [ 121.2174177, 24.9397825 ], [ 121.2174037, 24.9393147 ] ] ] ] } },
{ "type": "Feature", "properties": { "full_id": "w114430020", "osm_id": "114430020", "osm_type": "way", "amenity": "library", "start_date": null, "air_conditioning": null, "addr:place": null, "height": null, "old_official_name": null, "old_name": null, "fax": null, "addr:full": null, "addr:floor": null, "alt_name": null, "opening_hours": null, "internet_access:fee": null, "internet_access": null, "official_name": null, "addr:country": null, "website": null, "addr:postcode": null, "toilets:wheelchair": null, "wheelchair": null, "operator:type": "government", "operator": "桃園市政府", "name:zh": "桃園市立圖書館中壢分館", "name:en": "Taoyuan Public Library Chungli Branch", "phone": "+886 3 422 4597", "name": "桃園市立圖書館中壢分館", "building:levels": "4", "building": "yes", "addr:street": "中美路", "addr:housenumber": "76", "addr:district": "中壢區", "addr:city": "桃園市" }, "geometry": { "type": "MultiPolygon", "coordinates": [ [ [ [ 121.2257579, 24.9588672 ], [ 121.2261813, 24.9586954 ], [ 121.2263903, 24.959119 ], [ 121.22619, 24.9592002 ], [ 121.2260185, 24.9588528 ], [ 121.2257955, 24.9589433 ], [ 121.2257579, 24.9588672 ] ] ] ] } },
{ "type": "Feature", "properties": { "full_id": "w202681713", "osm_id": "202681713", "osm_type": "way", "amenity": "library", "start_date": null, "air_conditioning": null, "addr:place": null, "height": null, "old_official_name": null, "old_name": null, "fax": null, "addr:full": null, "addr:floor": null, "alt_name": null, "opening_hours": null, "internet_access:fee": null, "internet_access": null, "official_name": null, "addr:country": null, "website": null, "addr:postcode": null, "toilets:wheelchair": null, "wheelchair": null, "operator:type": null, "operator": "桃園市立圖書館", "name:zh": null, "name:en": null, "phone": "+886 3 455 6186", "name": "桃園市立圖書館內壢分館", "building:levels": "3", "building": "yes", "addr:street": "光華三街", "addr:housenumber": "10", "addr:district": "中壢區", "addr:city": "桃園市" }, "geometry": { "type": "MultiPolygon", "coordinates": [ [ [ [ 121.2575835, 24.9778034 ], [ 121.2576494, 24.9776615 ], [ 121.2580025, 24.9777963 ], [ 121.2579366, 24.9779381 ], [ 121.2575835, 24.9778034 ] ] ] ] } },
{ "type": "Feature", "properties": { "full_id": "w202806571", "osm_id": "202806571", "osm_type": "way", "amenity": "library", "start_date": null, "air_conditioning": null, "addr:place": null, "height": null, "old_official_name": null, "old_name": null, "fax": null, "addr:full": null, "addr:floor": null, "alt_name": null, "opening_hours": null, "internet_access:fee": null, "internet_access": null, "official_name": null, "addr:country": null, "website": null, "addr:postcode": null, "toilets:wheelchair": null, "wheelchair": "yes", "operator:type": null, "operator": null, "name:zh": null, "name:en": null, "phone": null, "name": "中正圖書館", "building:levels": null, "building": "university", "addr:street": null, "addr:housenumber": null, "addr:district": null, "addr:city": null }, "geometry": { "type": "MultiPolygon", "coordinates": [ [ [ [ 121.1933152, 24.96856 ], [ 121.1933152, 24.9680104 ], [ 121.1939268, 24.9680202 ], [ 121.1939214, 24.96856 ], [ 121.1933152, 24.96856 ] ] ] ] } },
{ "type": "Feature", "properties": { "full_id": "w202806573", "osm_id": "202806573", "osm_type": "way", "amenity": "library", "start_date": null, "air_conditioning": null, "addr:place": null, "height": null, "old_official_name": null, "old_name": null, "fax": null, "addr:full": null, "addr:floor": null, "alt_name": null, "opening_hours": null, "internet_access:fee": null, "internet_access": null, "official_name": null, "addr:country": null, "website": null, "addr:postcode": null, "toilets:wheelchair": "yes", "wheelchair": "yes", "operator:type": null, "operator": null, "name:zh": null, "name:en": null, "phone": null, "name": "總圖書館", "building:levels": null, "building": "university", "addr:street": null, "addr:housenumber": null, "addr:district": null, "addr:city": null }, "geometry": { "type": "MultiPolygon", "coordinates": [ [ [ [ 121.1941628, 24.9685454 ], [ 121.1941682, 24.9679667 ], [ 121.1944096, 24.9679715 ], [ 121.1944096, 24.9685502 ], [ 121.1941628, 24.9685454 ] ] ] ] } },
{ "type": "Feature", "properties": { "full_id": "w241926391", "osm_id": "241926391", "osm_type": "way", "amenity": "library", "start_date": null, "air_conditioning": null, "addr:place": null, "height": null, "old_official_name": null, "old_name": null, "fax": null, "addr:full": null, "addr:floor": null, "alt_name": null, "opening_hours": null, "internet_access:fee": null, "internet_access": null, "official_name": null, "addr:country": null, "website": null, "addr:postcode": null, "toilets:wheelchair": null, "wheelchair": null, "operator:type": null, "operator": null, "name:zh": null, "name:en": null, "phone": "+886 3 362 0435", "name": "桃園市立圖書館大林分館", "building:levels": "2", "building": "yes", "addr:street": "樹仁二街", "addr:housenumber": "37", "addr:district": "桃園區", "addr:city": "桃園市" }, "geometry": { "type": "MultiPolygon", "coordinates": [ [ [ [ 121.3206661, 24.9779957 ], [ 121.3206723, 24.9779326 ], [ 121.3206396, 24.9779299 ], [ 121.320661, 24.9777125 ], [ 121.3209026, 24.977732 ], [ 121.320887, 24.9778904 ], [ 121.3209339, 24.9778942 ], [ 121.3209261, 24.9779738 ], [ 121.3208052, 24.9779641 ], [ 121.320801, 24.9780066 ], [ 121.3206661, 24.9779957 ] ] ] ] } },
{ "type": "Feature", "properties": { "full_id": "w258414077", "osm_id": "258414077", "osm_type": "way", "amenity": "library", "start_date": null, "air_conditioning": null, "addr:place": null, "height": null, "old_official_name": null, "old_name": null, "fax": null, "addr:full": null, "addr:floor": null, "alt_name": null, "opening_hours": null, "internet_access:fee": null, "internet_access": null, "official_name": null, "addr:country": null, "website": "https://www.yzu.edu.tw/library/", "addr:postcode": "32003", "toilets:wheelchair": null, "wheelchair": null, "operator:type": null, "operator": "元智大學", "name:zh": "圖書館", "name:en": "Yuan-Ze University Library", "phone": null, "name": "圖書館", "building:levels": "2", "building": "university", "addr:street": "遠東路", "addr:housenumber": "135", "addr:district": null, "addr:city": "桃園市" }, "geometry": { "type": "MultiPolygon", "coordinates": [ [ [ [ 121.2681261, 24.969974 ], [ 121.2683534, 24.9699769 ], [ 121.2683586, 24.9696343 ], [ 121.2681313, 24.9696315 ], [ 121.2681261, 24.969974 ] ] ] ] } },
{ "type": "Feature", "properties": { "full_id": "w313792013", "osm_id": "313792013", "osm_type": "way", "amenity": "library", "start_date": null, "air_conditioning": null, "addr:place": null, "height": null, "old_official_name": null, "old_name": null, "fax": null, "addr:full": null, "addr:floor": null, "alt_name": null, "opening_hours": null, "internet_access:fee": null, "internet_access": null, "official_name": "桃園市立圖書館中路分館", "addr:country": "TW", "website": null, "addr:postcode": null, "toilets:wheelchair": null, "wheelchair": null, "operator:type": null, "operator": null, "name:zh": null, "name:en": null, "phone": "+886 3 220 4807", "name": "桃園市立圖書館中路分館", "building:levels": "3", "building": "yes", "addr:street": "宏昌七街", "addr:housenumber": "166", "addr:district": "桃園區", "addr:city": "桃園市" }, "geometry": { "type": "MultiPolygon", "coordinates": [ [ [ [ 121.2915949, 24.9866639 ], [ 121.2917738, 24.9866775 ], [ 121.2918005, 24.9863885 ], [ 121.2916215, 24.9863749 ], [ 121.2915949, 24.9866639 ] ] ] ] } },
{ "type": "Feature", "properties": { "full_id": "w324821144", "osm_id": "324821144", "osm_type": "way", "amenity": "library", "start_date": null, "air_conditioning": null, "addr:place": null, "height": null, "old_official_name": null, "old_name": null, "fax": null, "addr:full": null, "addr:floor": null, "alt_name": null, "opening_hours": null, "internet_access:fee": null, "internet_access": null, "official_name": null, "addr:country": null, "website": null, "addr:postcode": null, "toilets:wheelchair": null, "wheelchair": null, "operator:type": null, "operator": null, "name:zh": null, "name:en": null, "phone": "+886 3 335 6165", "name": "桃園市立圖書館會稽分館", "building:levels": "2", "building": "yes", "addr:street": "自強路", "addr:housenumber": "217", "addr:district": "桃園區", "addr:city": "桃園市" }, "geometry": { "type": "MultiPolygon", "coordinates": [ [ [ [ 121.3158432, 25.0008348 ], [ 121.3158793, 25.0004991 ], [ 121.3162587, 25.0005326 ], [ 121.3162226, 25.0008683 ], [ 121.3158432, 25.0008348 ] ] ] ] } },
{ "type": "Feature", "properties": { "full_id": "w330244522", "osm_id": "330244522", "osm_type": "way", "amenity": "library", "start_date": null, "air_conditioning": null, "addr:place": null, "height": null, "old_official_name": null, "old_name": null, "fax": null, "addr:full": null, "addr:floor": null, "alt_name": null, "opening_hours": null, "internet_access:fee": null, "internet_access": null, "official_name": null, "addr:country": "TW", "website": null, "addr:postcode": null, "toilets:wheelchair": null, "wheelchair": null, "operator:type": null, "operator": "桃園市政府文化局", "name:zh": null, "name:en": null, "phone": "+886 3 368 8751", "name": "桃園市立圖書館八德分館", "building:levels": "3", "building": "public", "addr:street": "興豐路", "addr:housenumber": "264", "addr:district": "八德區", "addr:city": "桃園市" }, "geometry": { "type": "MultiPolygon", "coordinates": [ [ [ [ 121.2847561, 24.9291129 ], [ 121.2848862, 24.9291251 ], [ 121.2848956, 24.9289147 ], [ 121.2847655, 24.9289062 ], [ 121.2847561, 24.9291129 ] ] ] ] } },
{ "type": "Feature", "properties": { "full_id": "w330318570", "osm_id": "330318570", "osm_type": "way", "amenity": "library", "start_date": null, "air_conditioning": null, "addr:place": null, "height": null, "old_official_name": null, "old_name": null, "fax": null, "addr:full": null, "addr:floor": null, "alt_name": null, "opening_hours": null, "internet_access:fee": null, "internet_access": null, "official_name": null, "addr:country": null, "website": null, "addr:postcode": null, "toilets:wheelchair": null, "wheelchair": null, "operator:type": null, "operator": null, "name:zh": null, "name:en": null, "phone": "+886 3 366 4614", "name": "桃園市立圖書館大湳分館", "building:levels": "2", "building": "yes", "addr:street": "重慶街53巷", "addr:housenumber": "2", "addr:district": "八德區", "addr:city": "桃園市" }, "geometry": { "type": "MultiPolygon", "coordinates": [ [ [ [ 121.3018609, 24.956933 ], [ 121.3019605, 24.956893 ], [ 121.3019884, 24.9569501 ], [ 121.3021609, 24.9568809 ], [ 121.3020654, 24.9566853 ], [ 121.3017933, 24.9567945 ], [ 121.3018609, 24.956933 ] ] ] ] } },
{ "type": "Feature", "properties": { "full_id": "w343930150", "osm_id": "343930150", "osm_type": "way", "amenity": "library", "start_date": null, "air_conditioning": null, "addr:place": null, "height": null, "old_official_name": null, "old_name": null, "fax": null, "addr:full": null, "addr:floor": null, "alt_name": null, "opening_hours": "Tu-Sa 08:30-21:00 Su-Mo 08:30-17:00", "internet_access:fee": "no", "internet_access": "wlan", "official_name": null, "addr:country": null, "website": null, "addr:postcode": "320", "toilets:wheelchair": null, "wheelchair": null, "operator:type": null, "operator": null, "name:zh": null, "name:en": null, "phone": "+886 3 286 8500", "name": "桃園市立圖書館龍岡分館", "building:levels": "4", "building": "yes", "addr:street": "台貿一街", "addr:housenumber": "100", "addr:district": "中壢區", "addr:city": "桃園市" }, "geometry": { "type": "MultiPolygon", "coordinates": [ [ [ [ 121.2556365, 24.9376783 ], [ 121.2560901, 24.9374444 ], [ 121.2561096, 24.9374344 ], [ 121.2562509, 24.9376598 ], [ 121.2557778, 24.9379036 ], [ 121.2557073, 24.9377912 ], [ 121.2556365, 24.9376783 ] ] ] ] } },
{ "type": "Feature", "properties": { "full_id": "w380533903", "osm_id": "380533903", "osm_type": "way", "amenity": "library", "start_date": null, "air_conditioning": null, "addr:place": null, "height": null, "old_official_name": null, "old_name": null, "fax": null, "addr:full": null, "addr:floor": null, "alt_name": null, "opening_hours": null, "internet_access:fee": null, "internet_access": null, "official_name": null, "addr:country": null, "website": null, "addr:postcode": null, "toilets:wheelchair": null, "wheelchair": null, "operator:type": null, "operator": null, "name:zh": null, "name:en": null, "phone": null, "name": "圖書館", "building:levels": null, "building": "school", "addr:street": null, "addr:housenumber": null, "addr:district": null, "addr:city": null }, "geometry": { "type": "MultiPolygon", "coordinates": [ [ [ [ 121.3220085, 24.994961 ], [ 121.3219926, 24.9949371 ], [ 121.3217885, 24.994875 ], [ 121.321769, 24.99488 ], [ 121.3217481, 24.9948924 ], [ 121.321714, 24.9949823 ], [ 121.321683, 24.9950087 ], [ 121.3216946, 24.9950456 ], [ 121.3216607, 24.9951456 ], [ 121.3216229, 24.9951632 ], [ 121.3216413, 24.9951913 ], [ 121.321619, 24.9952501 ], [ 121.3216285, 24.9952649 ], [ 121.3216355, 24.9952782 ], [ 121.3218522, 24.9953422 ], [ 121.3218695, 24.9953357 ], [ 121.3218844, 24.9953279 ], [ 121.3219375, 24.9951744 ], [ 121.3219559, 24.9951798 ], [ 121.3219891, 24.9950867 ], [ 121.3219755, 24.9950827 ], [ 121.3220199, 24.9949764 ], [ 121.3220085, 24.994961 ] ] ] ] } },
{ "type": "Feature", "properties": { "full_id": "w387287747", "osm_id": "387287747", "osm_type": "way", "amenity": "library", "start_date": null, "air_conditioning": null, "addr:place": null, "height": null, "old_official_name": null, "old_name": null, "fax": null, "addr:full": null, "addr:floor": null, "alt_name": null, "opening_hours": null, "internet_access:fee": null, "internet_access": null, "official_name": null, "addr:country": null, "website": null, "addr:postcode": null, "toilets:wheelchair": null, "wheelchair": null, "operator:type": null, "operator": null, "name:zh": null, "name:en": null, "phone": null, "name": "開南大學圖書館", "building:levels": null, "building": "yes", "addr:street": null, "addr:housenumber": null, "addr:district": null, "addr:city": null }, "geometry": { "type": "MultiPolygon", "coordinates": [ [ [ [ 121.2684752, 25.0126188 ], [ 121.2686882, 25.0127777 ], [ 121.2687754, 25.0126907 ], [ 121.2688169, 25.0127265 ], [ 121.2688816, 25.0127823 ], [ 121.2688181, 25.0128515 ], [ 121.2690506, 25.0130265 ], [ 121.2687791, 25.0133228 ], [ 121.2682175, 25.0129001 ], [ 121.2684752, 25.0126188 ] ] ] ] } },
{ "type": "Feature", "properties": { "full_id": "w392023426", "osm_id": "392023426", "osm_type": "way", "amenity": "library", "start_date": null, "air_conditioning": null, "addr:place": null, "height": null, "old_official_name": null, "old_name": null, "fax": null, "addr:full": null, "addr:floor": null, "alt_name": null, "opening_hours": null, "internet_access:fee": null, "internet_access": null, "official_name": null, "addr:country": null, "website": null, "addr:postcode": null, "toilets:wheelchair": null, "wheelchair": null, "operator:type": null, "operator": null, "name:zh": null, "name:en": null, "phone": null, "name": "張靜愚紀念圖書館", "building:levels": null, "building": "public", "addr:street": null, "addr:housenumber": null, "addr:district": null, "addr:city": null }, "geometry": { "type": "MultiPolygon", "coordinates": [ [ [ [ 121.2404138, 24.9584271 ], [ 121.2407913, 24.9584407 ], [ 121.2407889, 24.9585204 ], [ 121.2408745, 24.9585062 ], [ 121.2409086, 24.9584812 ], [ 121.2409181, 24.9584396 ], [ 121.2409904, 24.9584413 ], [ 121.2410003, 24.9581114 ], [ 121.2404238, 24.9580971 ], [ 121.2404138, 24.9584271 ] ] ] ] } },
{ "type": "Feature", "properties": { "full_id": "w405959861", "osm_id": "405959861", "osm_type": "way", "amenity": "library", "start_date": null, "air_conditioning": null, "addr:place": null, "height": null, "old_official_name": null, "old_name": null, "fax": null, "addr:full": null, "addr:floor": null, "alt_name": null, "opening_hours": null, "internet_access:fee": null, "internet_access": null, "official_name": "桃園市立圖書館大溪分館", "addr:country": null, "website": null, "addr:postcode": null, "toilets:wheelchair": null, "wheelchair": null, "operator:type": null, "operator": null, "name:zh": null, "name:en": null, "phone": "+886 3 388 5501", "name": "桃園市立圖書館大溪分館", "building:levels": "4", "building": "yes", "addr:street": "普濟路", "addr:housenumber": "33", "addr:district": "大溪區", "addr:city": "桃園市" }, "geometry": { "type": "MultiPolygon", "coordinates": [ [ [ [ 121.2862949, 24.8810931 ], [ 121.2864058, 24.8810299 ], [ 121.2863655, 24.8809716 ], [ 121.2862546, 24.8810348 ], [ 121.2862949, 24.8810931 ] ] ] ] } },
{ "type": "Feature", "properties": { "full_id": "w415670672", "osm_id": "415670672", "osm_type": "way", "amenity": "library", "start_date": null, "air_conditioning": null, "addr:place": null, "height": null, "old_official_name": null, "old_name": null, "fax": null, "addr:full": null, "addr:floor": null, "alt_name": "國立體育大學圖書館", "opening_hours": null, "internet_access:fee": null, "internet_access": null, "official_name": null, "addr:country": null, "website": null, "addr:postcode": null, "toilets:wheelchair": null, "wheelchair": null, "operator:type": null, "operator": "國立體育大學", "name:zh": null, "name:en": null, "phone": null, "name": "圖書館", "building:levels": null, "building": "university", "addr:street": null, "addr:housenumber": null, "addr:district": null, "addr:city": null }, "geometry": { "type": "MultiPolygon", "coordinates": [ [ [ [ 121.3865224, 25.0316146 ], [ 121.3861909, 25.0312399 ], [ 121.3863588, 25.0311153 ], [ 121.386449, 25.0310451 ], [ 121.3865003, 25.0310064 ], [ 121.3867209, 25.0312413 ], [ 121.3867676, 25.0312557 ], [ 121.3868324, 25.0313161 ], [ 121.3867604, 25.0313553 ], [ 121.3868239, 25.0313944 ], [ 121.3865224, 25.0316146 ] ] ] ] } },
{ "type": "Feature", "properties": { "full_id": "w416515608", "osm_id": "416515608", "osm_type": "way", "amenity": "library", "start_date": null, "air_conditioning": null, "addr:place": null, "height": null, "old_official_name": null, "old_name": null, "fax": null, "addr:full": null, "addr:floor": null, "alt_name": null, "opening_hours": null, "internet_access:fee": null, "internet_access": null, "official_name": null, "addr:country": null, "website": null, "addr:postcode": null, "toilets:wheelchair": null, "wheelchair": null, "operator:type": null, "operator": null, "name:zh": null, "name:en": null, "phone": null, "name": null, "building:levels": null, "building": "university", "addr:street": null, "addr:housenumber": null, "addr:district": null, "addr:city": null }, "geometry": { "type": "MultiPolygon", "coordinates": [ [ [ [ 121.350445, 25.0467083 ], [ 121.3504693, 25.046575 ], [ 121.3502482, 25.046542 ], [ 121.3502917, 25.0463028 ], [ 121.3502541, 25.0462972 ], [ 121.3502647, 25.0462389 ], [ 121.3501492, 25.0462216 ], [ 121.3501383, 25.0462816 ], [ 121.3500536, 25.0462689 ], [ 121.3500184, 25.0464623 ], [ 121.3500688, 25.0464698 ], [ 121.3500482, 25.0465829 ], [ 121.3500887, 25.046589 ], [ 121.3500751, 25.046664 ], [ 121.3501509, 25.0466753 ], [ 121.350146, 25.0467023 ], [ 121.3502206, 25.0467135 ], [ 121.3502275, 25.0466758 ], [ 121.350445, 25.0467083 ] ] ] ] } },
{ "type": "Feature", "properties": { "full_id": "w421396012", "osm_id": "421396012", "osm_type": "way", "amenity": "library", "start_date": null, "air_conditioning": null, "addr:place": null, "height": null, "old_official_name": null, "old_name": null, "fax": null, "addr:full": null, "addr:floor": null, "alt_name": null, "opening_hours": null, "internet_access:fee": null, "internet_access": null, "official_name": null, "addr:country": null, "website": null, "addr:postcode": null, "toilets:wheelchair": null, "wheelchair": null, "operator:type": null, "operator": null, "name:zh": null, "name:en": null, "phone": null, "name": "健行科技大學圖書館", "building:levels": null, "building": "university", "addr:street": null, "addr:housenumber": null, "addr:district": null, "addr:city": null }, "geometry": { "type": "MultiPolygon", "coordinates": [ [ [ [ 121.2284217, 24.9477429 ], [ 121.2284202, 24.9475095 ], [ 121.2284766, 24.9475111 ], [ 121.2284782, 24.9474658 ], [ 121.2285244, 24.9474671 ], [ 121.2285253, 24.9474422 ], [ 121.22876, 24.9474488 ], [ 121.228759, 24.9474788 ], [ 121.2288051, 24.9474801 ], [ 121.2288046, 24.9474939 ], [ 121.2288373, 24.9474947 ], [ 121.2288298, 24.947738 ], [ 121.228766, 24.9477364 ], [ 121.2287275, 24.9477692 ], [ 121.2286773, 24.947783 ], [ 121.2286414, 24.9477788 ], [ 121.2286393, 24.947793 ], [ 121.2285734, 24.9477851 ], [ 121.2285711, 24.9477724 ], [ 121.2285139, 24.9477428 ], [ 121.2284217, 24.9477429 ] ] ] ] } },
{ "type": "Feature", "properties": { "full_id": "w421618057", "osm_id": "421618057", "osm_type": "way", "amenity": "library", "start_date": null, "air_conditioning": null, "addr:place": null, "height": null, "old_official_name": null, "old_name": null, "fax": null, "addr:full": null, "addr:floor": null, "alt_name": null, "opening_hours": null, "internet_access:fee": null, "internet_access": null, "official_name": null, "addr:country": null, "website": null, "addr:postcode": null, "toilets:wheelchair": null, "wheelchair": null, "operator:type": null, "operator": null, "name:zh": null, "name:en": null, "phone": null, "name": "縣立大成國小圖書館", "building:levels": null, "building": "school", "addr:street": null, "addr:housenumber": null, "addr:district": null, "addr:city": null }, "geometry": { "type": "MultiPolygon", "coordinates": [ [ [ [ 121.2977187, 24.9583734 ], [ 121.2976914, 24.9582906 ], [ 121.297693, 24.9582473 ], [ 121.2979027, 24.958232 ], [ 121.2979183, 24.9582795 ], [ 121.2979437, 24.9583393 ], [ 121.2977187, 24.9583734 ] ] ] ] } },
{ "type": "Feature", "properties": { "full_id": "w522009213", "osm_id": "522009213", "osm_type": "way", "amenity": "library", "start_date": null, "air_conditioning": null, "addr:place": null, "height": null, "old_official_name": null, "old_name": null, "fax": null, "addr:full": null, "addr:floor": null, "alt_name": null, "opening_hours": null, "internet_access:fee": null, "internet_access": null, "official_name": null, "addr:country": null, "website": null, "addr:postcode": null, "toilets:wheelchair": null, "wheelchair": null, "operator:type": null, "operator": null, "name:zh": null, "name:en": null, "phone": null, "name": "圖書館", "building:levels": null, "building": "construction", "addr:street": null, "addr:housenumber": null, "addr:district": null, "addr:city": null }, "geometry": { "type": "MultiPolygon", "coordinates": [ [ [ [ 121.2097134, 24.8323329 ], [ 121.2101693, 24.8320334 ], [ 121.2104358, 24.8323675 ], [ 121.2099799, 24.832667 ], [ 121.2097134, 24.8323329 ] ] ] ] } },
{ "type": "Feature", "properties": { "full_id": "w540108534", "osm_id": "540108534", "osm_type": "way", "amenity": "library", "start_date": null, "air_conditioning": null, "addr:place": null, "height": null, "old_official_name": null, "old_name": null, "fax": null, "addr:full": null, "addr:floor": null, "alt_name": null, "opening_hours": null, "internet_access:fee": null, "internet_access": null, "official_name": null, "addr:country": null, "website": null, "addr:postcode": null, "toilets:wheelchair": null, "wheelchair": null, "operator:type": null, "operator": null, "name:zh": null, "name:en": null, "phone": null, "name": "新民大樓", "building:levels": "7", "building": "yes", "addr:street": null, "addr:housenumber": null, "addr:district": null, "addr:city": null }, "geometry": { "type": "MultiPolygon", "coordinates": [ [ [ [ 121.3107117, 24.9933962 ], [ 121.3106741, 24.9933401 ], [ 121.3106498, 24.9932881 ], [ 121.3108376, 24.9927335 ], [ 121.3111557, 24.9928276 ], [ 121.3110917, 24.9930318 ], [ 121.3110453, 24.9930158 ], [ 121.3109613, 24.993272 ], [ 121.3109216, 24.9933441 ], [ 121.3108928, 24.9933942 ], [ 121.3108354, 24.9934222 ], [ 121.3107956, 24.9934262 ], [ 121.3107117, 24.9933962 ] ] ] ] } },
{ "type": "Feature", "properties": { "full_id": "w540424582", "osm_id": "540424582", "osm_type": "way", "amenity": "library", "start_date": null, "air_conditioning": null, "addr:place": null, "height": null, "old_official_name": null, "old_name": null, "fax": null, "addr:full": null, "addr:floor": null, "alt_name": null, "opening_hours": null, "internet_access:fee": null, "internet_access": null, "official_name": null, "addr:country": null, "website": null, "addr:postcode": null, "toilets:wheelchair": null, "wheelchair": null, "operator:type": null, "operator": null, "name:zh": null, "name:en": null, "phone": null, "name": "圖書館", "building:levels": null, "building": "university", "addr:street": null, "addr:housenumber": null, "addr:district": null, "addr:city": null }, "geometry": { "type": "MultiPolygon", "coordinates": [ [ [ [ 121.3895998, 25.0295724 ], [ 121.3897095, 25.0297946 ], [ 121.3897687, 25.0297706 ], [ 121.389777, 25.0297872 ], [ 121.3900501, 25.0296765 ], [ 121.3900369, 25.0296498 ], [ 121.3902119, 25.0295788 ], [ 121.3902032, 25.0295612 ], [ 121.3902604, 25.0295381 ], [ 121.3901642, 25.0293435 ], [ 121.3895998, 25.0295724 ] ] ] ] } },
{ "type": "Feature", "properties": { "full_id": "w582425139", "osm_id": "582425139", "osm_type": "way", "amenity": "library", "start_date": null, "air_conditioning": null, "addr:place": null, "height": null, "old_official_name": null, "old_name": null, "fax": null, "addr:full": null, "addr:floor": null, "alt_name": null, "opening_hours": null, "internet_access:fee": null, "internet_access": null, "official_name": null, "addr:country": null, "website": null, "addr:postcode": null, "toilets:wheelchair": null, "wheelchair": null, "operator:type": null, "operator": null, "name:zh": null, "name:en": null, "phone": null, "name": "舊新坡分館", "building:levels": "2", "building": "yes", "addr:street": null, "addr:housenumber": null, "addr:district": null, "addr:city": null }, "geometry": { "type": "MultiPolygon", "coordinates": [ [ [ [ 121.1370804, 25.0130079 ], [ 121.1371636, 25.0129459 ], [ 121.1370627, 25.0128346 ], [ 121.1370254, 25.0128624 ], [ 121.1369795, 25.0128966 ], [ 121.1370804, 25.0130079 ] ] ] ] } },
{ "type": "Feature", "properties": { "full_id": "w633739013", "osm_id": "633739013", "osm_type": "way", "amenity": "library", "start_date": null, "air_conditioning": null, "addr:place": null, "height": null, "old_official_name": null, "old_name": null, "fax": null, "addr:full": null, "addr:floor": null, "alt_name": null, "opening_hours": null, "internet_access:fee": null, "internet_access": null, "official_name": "桃園市立圖書館兒童玩具圖書館", "addr:country": null, "website": null, "addr:postcode": null, "toilets:wheelchair": null, "wheelchair": null, "operator:type": null, "operator": null, "name:zh": null, "name:en": null, "phone": null, "name": "兒童玩具圖書館", "building:levels": null, "building": "yes", "addr:street": null, "addr:housenumber": null, "addr:district": null, "addr:city": null }, "geometry": { "type": "MultiPolygon", "coordinates": [ [ [ [ 121.3005525, 24.9554078 ], [ 121.3005509, 24.9554721 ], [ 121.3008788, 24.9554787 ], [ 121.3008779, 24.9555162 ], [ 121.3012311, 24.9555233 ], [ 121.3012336, 24.9554215 ], [ 121.3005525, 24.9554078 ] ] ] ] } },
{ "type": "Feature", "properties": { "full_id": "w644794972", "osm_id": "644794972", "osm_type": "way", "amenity": "library", "start_date": null, "air_conditioning": null, "addr:place": null, "height": null, "old_official_name": null, "old_name": null, "fax": null, "addr:full": null, "addr:floor": null, "alt_name": null, "opening_hours": null, "internet_access:fee": null, "internet_access": null, "official_name": null, "addr:country": null, "website": null, "addr:postcode": null, "toilets:wheelchair": null, "wheelchair": null, "operator:type": null, "operator": null, "name:zh": null, "name:en": null, "phone": "+886 3 477 3552", "name": "桃園市立圖書館新屋分館", "building:levels": "4", "building": "public", "addr:street": "中興路91巷", "addr:housenumber": "11", "addr:district": "新屋區", "addr:city": "桃園市" }, "geometry": { "type": "MultiPolygon", "coordinates": [ [ [ [ 121.1026509, 24.9708439 ], [ 121.1026179, 24.9708031 ], [ 121.1025515, 24.9708471 ], [ 121.102495, 24.970777 ], [ 121.1026986, 24.970642 ], [ 121.1027423, 24.9706962 ], [ 121.1028947, 24.9705951 ], [ 121.1029405, 24.9706519 ], [ 121.1026509, 24.9708439 ] ] ] ] } },
{ "type": "Feature", "properties": { "full_id": "w664515273", "osm_id": "664515273", "osm_type": "way", "amenity": "library", "start_date": null, "air_conditioning": null, "addr:place": null, "height": null, "old_official_name": null, "old_name": null, "fax": null, "addr:full": null, "addr:floor": null, "alt_name": null, "opening_hours": null, "internet_access:fee": null, "internet_access": null, "official_name": null, "addr:country": null, "website": null, "addr:postcode": null, "toilets:wheelchair": null, "wheelchair": null, "operator:type": null, "operator": null, "name:zh": null, "name:en": null, "phone": null, "name": "資訊圖書館", "building:levels": null, "building": "college", "addr:street": null, "addr:housenumber": null, "addr:district": null, "addr:city": null }, "geometry": { "type": "MultiPolygon", "coordinates": [ [ [ [ 121.2508922, 24.9357989 ], [ 121.2508419, 24.9355976 ], [ 121.2512248, 24.935519 ], [ 121.251275, 24.9357202 ], [ 121.2508922, 24.9357989 ] ] ] ] } },
{ "type": "Feature", "properties": { "full_id": "w676273981", "osm_id": "676273981", "osm_type": "way", "amenity": "library", "start_date": null, "air_conditioning": null, "addr:place": null, "height": null, "old_official_name": null, "old_name": null, "fax": null, "addr:full": null, "addr:floor": "4", "alt_name": null, "opening_hours": null, "internet_access:fee": null, "internet_access": null, "official_name": "桃園市立圖書館觀音分館", "addr:country": null, "website": null, "addr:postcode": null, "toilets:wheelchair": null, "wheelchair": null, "operator:type": null, "operator": null, "name:zh": null, "name:en": null, "phone": "+886 3 473 2134", "name": "桃園市立圖書館觀音分館", "building:levels": null, "building": "yes", "addr:street": "文化路", "addr:housenumber": "2", "addr:district": "觀音區", "addr:city": "桃園市" }, "geometry": { "type": "MultiPolygon", "coordinates": [ [ [ [ 121.083398, 25.0347725 ], [ 121.0833846, 25.0350321 ], [ 121.0829999, 25.0350157 ], [ 121.0830133, 25.0347561 ], [ 121.083398, 25.0347725 ] ] ] ] } },
{ "type": "Feature", "properties": { "full_id": "w699920157", "osm_id": "699920157", "osm_type": "way", "amenity": "library", "start_date": null, "air_conditioning": null, "addr:place": null, "height": null, "old_official_name": "桃園市立圖書館龍潭分館", "old_name": "龍潭鄉圖書館;龍潭分館", "fax": "+886 3 4708697", "addr:full": "桃園市龍潭區中正路210號", "addr:floor": null, "alt_name": "龍潭區圖書館", "opening_hours": null, "internet_access:fee": null, "internet_access": null, "official_name": "桃園市立圖書館龍潭閱覽室", "addr:country": "TW", "website": "http://www.typl.gov.tw/sp.asp?xdurl=libinfo/libinfo.asp&mp=1&ctNode=865", "addr:postcode": null, "toilets:wheelchair": null, "wheelchair": null, "operator:type": null, "operator": null, "name:zh": null, "name:en": null, "phone": "+886 3 4794544", "name": "龍潭閱覽室", "building:levels": null, "building": "yes", "addr:street": "中正路", "addr:housenumber": "210", "addr:district": "龍潭區", "addr:city": "桃園市" }, "geometry": { "type": "MultiPolygon", "coordinates": [ [ [ [ 121.2162624, 24.8638706 ], [ 121.2160752, 24.8638011 ], [ 121.2160523, 24.8638519 ], [ 121.2160199, 24.8639236 ], [ 121.2162071, 24.8639932 ], [ 121.2162624, 24.8638706 ] ] ] ] } },
{ "type": "Feature", "properties": { "full_id": "w731974671", "osm_id": "731974671", "osm_type": "way", "amenity": "library", "start_date": null, "air_conditioning": null, "addr:place": null, "height": "10", "old_official_name": null, "old_name": null, "fax": null, "addr:full": null, "addr:floor": null, "alt_name": null, "opening_hours": null, "internet_access:fee": null, "internet_access": null, "official_name": null, "addr:country": null, "website": null, "addr:postcode": null, "toilets:wheelchair": null, "wheelchair": null, "operator:type": null, "operator": null, "name:zh": null, "name:en": null, "phone": null, "name": "圖書館", "building:levels": "3", "building": "university", "addr:street": null, "addr:housenumber": null, "addr:district": null, "addr:city": null }, "geometry": { "type": "MultiPolygon", "coordinates": [ [ [ [ 121.2680993, 24.8771032 ], [ 121.2678804, 24.8772818 ], [ 121.2675006, 24.8768988 ], [ 121.2677195, 24.8767202 ], [ 121.2680993, 24.8771032 ] ] ] ] } },
{ "type": "Feature", "properties": { "full_id": "w760233782", "osm_id": "760233782", "osm_type": "way", "amenity": "library", "start_date": null, "air_conditioning": null, "addr:place": null, "height": null, "old_official_name": null, "old_name": null, "fax": null, "addr:full": null, "addr:floor": null, "alt_name": null, "opening_hours": null, "internet_access:fee": null, "internet_access": null, "official_name": null, "addr:country": null, "website": null, "addr:postcode": null, "toilets:wheelchair": null, "wheelchair": null, "operator:type": null, "operator": null, "name:zh": null, "name:en": null, "phone": "+886 3 313 8034", "name": "桃園市立圖書館大竹分館", "building:levels": "4", "building": "yes", "addr:street": "興仁路", "addr:housenumber": "330", "addr:district": "蘆竹區", "addr:city": "桃園市" }, "geometry": { "type": "MultiPolygon", "coordinates": [ [ [ [ 121.2614842, 25.0143405 ], [ 121.2618381, 25.0140198 ], [ 121.2621389, 25.0142988 ], [ 121.2617921, 25.0145971 ], [ 121.2614842, 25.0143405 ] ] ] ] } },
{ "type": "Feature", "properties": { "full_id": "w782268939", "osm_id": "782268939", "osm_type": "way", "amenity": "library", "start_date": null, "air_conditioning": null, "addr:place": null, "height": null, "old_official_name": null, "old_name": null, "fax": null, "addr:full": null, "addr:floor": null, "alt_name": null, "opening_hours": null, "internet_access:fee": null, "internet_access": null, "official_name": null, "addr:country": null, "website": null, "addr:postcode": null, "toilets:wheelchair": null, "wheelchair": null, "operator:type": null, "operator": null, "name:zh": null, "name:en": null, "phone": "+886 3 286 6189", "name": "桃園市立圖書館龍潭分館", "building:levels": null, "building": "yes", "addr:street": "中興路", "addr:housenumber": "680", "addr:district": "龍潭區", "addr:city": "桃園市" }, "geometry": { "type": "MultiPolygon", "coordinates": [ [ [ [ 121.2223326, 24.8721963 ], [ 121.221863, 24.8719972 ], [ 121.2218955, 24.8719363 ], [ 121.2218244, 24.8718976 ], [ 121.2218589, 24.8718478 ], [ 121.2217654, 24.8718164 ], [ 121.2217979, 24.8717574 ], [ 121.2216699, 24.8716836 ], [ 121.2218569, 24.8714863 ], [ 121.2218889, 24.8715273 ], [ 121.2219951, 24.8716634 ], [ 121.2220215, 24.8717205 ], [ 121.2222838, 24.871833 ], [ 121.2225419, 24.8718404 ], [ 121.2223326, 24.8721963 ] ] ] ] } },
{ "type": "Feature", "properties": { "full_id": "w817106804", "osm_id": "817106804", "osm_type": "way", "amenity": "library", "start_date": null, "air_conditioning": null, "addr:place": null, "height": null, "old_official_name": null, "old_name": null, "fax": null, "addr:full": null, "addr:floor": null, "alt_name": null, "opening_hours": null, "internet_access:fee": null, "internet_access": null, "official_name": null, "addr:country": "TW", "website": null, "addr:postcode": null, "toilets:wheelchair": null, "wheelchair": null, "operator:type": null, "operator": null, "name:zh": null, "name:en": null, "phone": "+886 3 478 2341", "name": "桃園市立圖書館楊梅分館", "building:levels": "2", "building": "yes", "addr:street": "光華街", "addr:housenumber": "26", "addr:district": "楊梅區", "addr:city": "桃園市" }, "geometry": { "type": "MultiPolygon", "coordinates": [ [ [ [ 121.1451629, 24.9083719 ], [ 121.1452658, 24.9084063 ], [ 121.1453454, 24.90821 ], [ 121.1452425, 24.9081757 ], [ 121.1451629, 24.9083719 ] ] ] ] } },
{ "type": "Feature", "properties": { "full_id": "w857730313", "osm_id": "857730313", "osm_type": "way", "amenity": "library", "start_date": "2014-11-06", "air_conditioning": "yes", "addr:place": "大湖", "height": null, "old_official_name": null, "old_name": null, "fax": null, "addr:full": null, "addr:floor": "2", "alt_name": null, "opening_hours": "Mo-Sa 08:00-21:00 Su 08:00-17:00", "internet_access:fee": null, "internet_access": null, "official_name": null, "addr:country": null, "website": null, "addr:postcode": "333", "toilets:wheelchair": null, "wheelchair": null, "operator:type": "government", "operator": "桃園市立圖書館", "name:zh": null, "name:en": null, "phone": "+886 03 3270682", "name": "桃園市立圖書館大崗分館", "building:levels": null, "building": "public", "addr:street": null, "addr:housenumber": "55", "addr:district": "龜山區", "addr:city": "桃園市" }, "geometry": { "type": "MultiPolygon", "coordinates": [ [ [ [ 121.3576431, 25.0518398 ], [ 121.3576679, 25.0515849 ], [ 121.3582324, 25.0516554 ], [ 121.3581227, 25.0519264 ], [ 121.3578466, 25.0518943 ], [ 121.3576431, 25.0518398 ] ] ] ] } },
{ "type": "Feature", "properties": { "full_id": "w858159423", "osm_id": "858159423", "osm_type": "way", "amenity": "library", "start_date": null, "air_conditioning": null, "addr:place": null, "height": null, "old_official_name": null, "old_name": null, "fax": null, "addr:full": null, "addr:floor": null, "alt_name": null, "opening_hours": "Mo-Fr 08:00-17:00", "internet_access:fee": null, "internet_access": "yes", "official_name": null, "addr:country": null, "website": null, "addr:postcode": null, "toilets:wheelchair": null, "wheelchair": null, "operator:type": null, "operator": null, "name:zh": null, "name:en": null, "phone": null, "name": "桃高圖書館", "building:levels": null, "building": "school", "addr:street": null, "addr:housenumber": null, "addr:district": null, "addr:city": null }, "geometry": { "type": "MultiPolygon", "coordinates": [ [ [ [ 121.3272455, 25.0001077 ], [ 121.3274276, 25.0001124 ], [ 121.3274302, 25.0000319 ], [ 121.3273442, 25.0000272 ], [ 121.3273456, 24.9999369 ], [ 121.3271608, 24.9999341 ], [ 121.3271548, 25.0001053 ], [ 121.3272455, 25.0001077 ] ] ] ] } },
{ "type": "Feature", "properties": { "full_id": "w884084081", "osm_id": "884084081", "osm_type": "way", "amenity": "library", "start_date": null, "air_conditioning": null, "addr:place": null, "height": null, "old_official_name": null, "old_name": null, "fax": null, "addr:full": "桃園市平鎮區坤慶路88號", "addr:floor": null, "alt_name": null, "opening_hours": "Tu-Sa 08:30-21:00, Su-Mo 08:30-17:00", "internet_access:fee": null, "internet_access": null, "official_name": "桃園市立山仔頂分館", "addr:country": "TW", "website": null, "addr:postcode": "324", "toilets:wheelchair": null, "wheelchair": null, "operator:type": null, "operator": null, "name:zh": null, "name:en": null, "phone": "+886 3 469 6158", "name": "桃園市立圖書館山仔頂分館", "building:levels": null, "building": "public", "addr:street": "坤慶路", "addr:housenumber": "88", "addr:district": "平鎮區", "addr:city": "桃園市" }, "geometry": { "type": "MultiPolygon", "coordinates": [ [ [ [ 121.213116, 24.9012315 ], [ 121.2131513, 24.901347 ], [ 121.2131139, 24.9013564 ], [ 121.213137, 24.9014318 ], [ 121.2132309, 24.9014082 ], [ 121.2132208, 24.9013751 ], [ 121.2133688, 24.9013379 ], [ 121.213337, 24.901234 ], [ 121.2131943, 24.9012699 ], [ 121.2131778, 24.9012159 ], [ 121.213116, 24.9012315 ] ] ] ] } },
{ "type": "Feature", "properties": { "full_id": "w965305394", "osm_id": "965305394", "osm_type": "way", "amenity": "library", "start_date": null, "air_conditioning": null, "addr:place": null, "height": null, "old_official_name": null, "old_name": null, "fax": null, "addr:full": null, "addr:floor": null, "alt_name": null, "opening_hours": null, "internet_access:fee": "no", "internet_access": "yes", "official_name": null, "addr:country": null, "website": null, "addr:postcode": null, "toilets:wheelchair": null, "wheelchair": null, "operator:type": null, "operator": null, "name:zh": null, "name:en": null, "phone": "+886 3 482 4329", "name": "桃園市立圖書館埔心分館", "building:levels": "4", "building": "yes", "addr:street": "中興路", "addr:housenumber": "145", "addr:district": "楊梅區", "addr:city": "桃園市" }, "geometry": { "type": "MultiPolygon", "coordinates": [ [ [ [ 121.186246, 24.9151842 ], [ 121.1864893, 24.9152394 ], [ 121.1864965, 24.9149482 ], [ 121.1864686, 24.9148759 ], [ 121.1864265, 24.9148589 ], [ 121.186404, 24.9149107 ], [ 121.186246, 24.9151842 ] ] ] ] } },
{ "type": "Feature", "properties": { "full_id": "w1002693930", "osm_id": "1002693930", "osm_type": "way", "amenity": "library", "start_date": null, "air_conditioning": null, "addr:place": null, "height": null, "old_official_name": null, "old_name": null, "fax": null, "addr:full": null, "addr:floor": null, "alt_name": null, "opening_hours": null, "internet_access:fee": null, "internet_access": null, "official_name": null, "addr:country": null, "website": null, "addr:postcode": null, "toilets:wheelchair": null, "wheelchair": null, "operator:type": null, "operator": null, "name:zh": null, "name:en": null, "phone": "+886 3 317 6480", "name": "桃園市立圖書館埔子分館", "building:levels": "2", "building": "yes", "addr:street": "同安街", "addr:housenumber": "601", "addr:district": "桃園區", "addr:city": "桃園市" }, "geometry": { "type": "MultiPolygon", "coordinates": [ [ [ [ 121.2971206, 25.023539 ], [ 121.2970502, 25.0236839 ], [ 121.2972765, 25.0237711 ], [ 121.2972683, 25.0237871 ], [ 121.2975787, 25.0239037 ], [ 121.297622, 25.0238706 ], [ 121.2976695, 25.0237797 ], [ 121.297664, 25.0237355 ], [ 121.297618, 25.0236839 ], [ 121.2976058, 25.0236643 ], [ 121.2975868, 25.0236483 ], [ 121.2975638, 25.0236385 ], [ 121.2975367, 25.0236385 ], [ 121.2975082, 25.0236422 ], [ 121.2974865, 25.0236495 ], [ 121.2974662, 25.023668 ], [ 121.2971206, 25.023539 ] ] ] ] } },
{ "type": "Feature", "properties": { "full_id": "w1002693932", "osm_id": "1002693932", "osm_type": "way", "amenity": "library", "start_date": null, "air_conditioning": null, "addr:place": null, "height": null, "old_official_name": null, "old_name": null, "fax": null, "addr:full": null, "addr:floor": null, "alt_name": null, "opening_hours": null, "internet_access:fee": null, "internet_access": null, "official_name": null, "addr:country": null, "website": null, "addr:postcode": null, "toilets:wheelchair": null, "wheelchair": null, "operator:type": null, "operator": null, "name:zh": null, "name:en": null, "phone": null, "name": "桃園市立圖書館自強分館", "building:levels": null, "building": "yes", "addr:street": "強國路", "addr:housenumber": "60", "addr:district": "中壢區", "addr:city": "桃園市" }, "geometry": { "type": "MultiPolygon", "coordinates": [ [ [ [ 121.2585981, 24.9680676 ], [ 121.2586042, 24.9677801 ], [ 121.2588677, 24.9677299 ], [ 121.2588684, 24.96807 ], [ 121.2585981, 24.9680676 ] ] ] ] } },
{ "type": "Feature", "properties": { "full_id": "w1002693935", "osm_id": "1002693935", "osm_type": "way", "amenity": "library", "start_date": null, "air_conditioning": null, "addr:place": null, "height": null, "old_official_name": null, "old_name": null, "fax": null, "addr:full": null, "addr:floor": null, "alt_name": null, "opening_hours": null, "internet_access:fee": null, "internet_access": null, "official_name": null, "addr:country": null, "website": null, "addr:postcode": null, "toilets:wheelchair": null, "wheelchair": null, "operator:type": null, "operator": null, "name:zh": null, "name:en": null, "phone": "+886 3 322 1093", "name": "桃園市立圖書館南崁分館", "building:levels": "3", "building": "yes", "addr:street": "南崁路", "addr:housenumber": "138", "addr:district": "蘆竹區", "addr:city": "桃園市" }, "geometry": { "type": "MultiPolygon", "coordinates": [ [ [ [ 121.2950883, 25.0466524 ], [ 121.2949365, 25.0465296 ], [ 121.2950076, 25.0464576 ], [ 121.2951593, 25.0465804 ], [ 121.2950883, 25.0466524 ] ] ] ] } },
{ "type": "Feature", "properties": { "full_id": "w1002693936", "osm_id": "1002693936", "osm_type": "way", "amenity": "library", "start_date": null, "air_conditioning": null, "addr:place": null, "height": null, "old_official_name": null, "old_name": null, "fax": null, "addr:full": null, "addr:floor": null, "alt_name": null, "opening_hours": null, "internet_access:fee": null, "internet_access": null, "official_name": null, "addr:country": null, "website": null, "addr:postcode": null, "toilets:wheelchair": null, "wheelchair": null, "operator:type": null, "operator": null, "name:zh": null, "name:en": null, "phone": "+886 3 352 6811", "name": "桃園市立圖書館蘆竹分館", "building:levels": "5", "building": "yes", "addr:street": "五福一路", "addr:housenumber": "255", "addr:district": "蘆竹區", "addr:city": "桃園市" }, "geometry": { "type": "MultiPolygon", "coordinates": [ [ [ [ 121.296532, 25.0534562 ], [ 121.2962775, 25.0534168 ], [ 121.2963215, 25.0531836 ], [ 121.296576, 25.0532229 ], [ 121.296532, 25.0534562 ] ] ] ] } },
{ "type": "Feature", "properties": { "full_id": "w1002693938", "osm_id": "1002693938", "osm_type": "way", "amenity": "library", "start_date": null, "air_conditioning": null, "addr:place": null, "height": null, "old_official_name": null, "old_name": null, "fax": null, "addr:full": null, "addr:floor": "2", "alt_name": null, "opening_hours": null, "internet_access:fee": null, "internet_access": null, "official_name": null, "addr:country": null, "website": null, "addr:postcode": null, "toilets:wheelchair": null, "wheelchair": null, "operator:type": null, "operator": null, "name:zh": null, "name:en": null, "phone": "+886 3 483 7650", "name": "桃園市立圖書館草漯分館", "building:levels": null, "building": "public", "addr:street": "大觀路一段", "addr:housenumber": "579-1", "addr:district": "觀音區", "addr:city": "桃園市" }, "geometry": { "type": "MultiPolygon", "coordinates": [ [ [ [ 121.1447725, 25.0482265 ], [ 121.1449312, 25.0480739 ], [ 121.1451015, 25.0482254 ], [ 121.1450595, 25.0482598 ], [ 121.1451189, 25.0483149 ], [ 121.1452606, 25.0481926 ], [ 121.1452562, 25.0483756 ], [ 121.1450067, 25.0485559 ], [ 121.1449566, 25.0485142 ], [ 121.1450353, 25.048451 ], [ 121.1447725, 25.0482265 ] ] ] ] } },
{ "type": "Feature", "properties": { "full_id": "w1002693940", "osm_id": "1002693940", "osm_type": "way", "amenity": "library", "start_date": null, "air_conditioning": null, "addr:place": null, "height": null, "old_official_name": null, "old_name": null, "fax": null, "addr:full": null, "addr:floor": null, "alt_name": null, "opening_hours": null, "internet_access:fee": null, "internet_access": null, "official_name": null, "addr:country": null, "website": null, "addr:postcode": null, "toilets:wheelchair": null, "wheelchair": null, "operator:type": null, "operator": null, "name:zh": null, "name:en": null, "phone": "+886 3 472 8992", "name": "桃園市立圖書館富岡分館", "building:levels": null, "building": "public", "addr:street": "中華街66巷", "addr:housenumber": "45", "addr:district": "楊梅區", "addr:city": "桃園市" }, "geometry": { "type": "MultiPolygon", "coordinates": [ [ [ [ 121.0812303, 24.9349347 ], [ 121.0809615, 24.9348642 ], [ 121.0810396, 24.9346193 ], [ 121.0813084, 24.9346897 ], [ 121.0812303, 24.9349347 ] ] ] ] } }
]
}
