{
"type": "FeatureCollection",
"name": "fastfood_a_TPE",
"crs": { "type": "name", "properties": { "name": "urn:ogc:def:crs:OGC:1.3:CRS84" } },
"features": [
{ "type": "Feature", "properties": { "full_id": "w256810928", "osm_id": "256810928", "osm_type": "way", "amenity": "fast_food", "name:ja": null, "brand:ja": null, "outdoor_seating": null, "opening_hours": null, "drive_through": null, "delivery": null, "ref": null, "building:levels": null, "takeaway": null, "smoking": null, "name:zh-Hant": null, "name:zh": null, "name:lzh": null, "name:en": null, "brand:zh-Hant": null, "brand:lzh": null, "addr:street": null, "addr:postcode": null, "addr:housenumber": null, "addr:district": null, "addr:country": null, "addr:city": null, "name": "麥當勞", "cuisine": "burger", "building": "yes", "brand:zh": "麥當勞", "brand:wikipedia": "zh:麥當勞", "brand:wikidata": "Q38076", "brand:en": "McDonald's", "brand": "麥當勞" }, "geometry": { "type": "MultiPolygon", "coordinates": [ [ [ [ 121.5057905, 25.116237 ], [ 121.5056521, 25.1161117 ], [ 121.5057905, 25.11599 ], [ 121.5059368, 25.1161153 ], [ 121.5057905, 25.116237 ] ] ] ] } },
{ "type": "Feature", "properties": { "full_id": "w287035715", "osm_id": "287035715", "osm_type": "way", "amenity": "fast_food", "name:ja": null, "brand:ja": null, "outdoor_seating": null, "opening_hours": null, "drive_through": null, "delivery": null, "ref": null, "building:levels": null, "takeaway": "yes", "smoking": "no", "name:zh-Hant": "麥當勞", "name:zh": "麥當勞", "name:lzh": "麥當勞", "name:en": "McDonald's", "brand:zh-Hant": "麥當勞", "brand:lzh": "麥當勞", "addr:street": "萬大路", "addr:postcode": "108", "addr:housenumber": "215", "addr:district": "萬華區", "addr:country": "TW", "addr:city": "台北市", "name": "麥當勞", "cuisine": "burger", "building": "yes", "brand:zh": "麥當勞", "brand:wikipedia": "zh:麥當勞", "brand:wikidata": "Q38076", "brand:en": "McDonald's", "brand": "麥當勞" }, "geometry": { "type": "MultiPolygon", "coordinates": [ [ [ [ 121.5006114, 25.0268698 ], [ 121.500612, 25.0267285 ], [ 121.5007921, 25.0267291 ], [ 121.5007915, 25.0268704 ], [ 121.5006114, 25.0268698 ] ] ] ] } },
{ "type": "Feature", "properties": { "full_id": "w347314156", "osm_id": "347314156", "osm_type": "way", "amenity": "fast_food", "name:ja": null, "brand:ja": null, "outdoor_seating": null, "opening_hours": null, "drive_through": null, "delivery": null, "ref": "0156", "building:levels": "3", "takeaway": "yes", "smoking": null, "name:zh-Hant": null, "name:zh": "麥當勞", "name:lzh": "麥當勞", "name:en": "McDonald's", "brand:zh-Hant": null, "brand:lzh": "麥當勞", "addr:street": "新生南路一段", "addr:postcode": "100", "addr:housenumber": "66", "addr:district": "中正區", "addr:country": "TW", "addr:city": "臺北市", "name": "麥當勞", "cuisine": "burger", "building": "yes", "brand:zh": "麥當勞", "brand:wikipedia": "zh:麥當勞", "brand:wikidata": "Q38076", "brand:en": "McDonald's", "brand": "麥當勞" }, "geometry": { "type": "MultiPolygon", "coordinates": [ [ [ [ 121.5324039, 25.0401247 ], [ 121.5324023, 25.0400239 ], [ 121.5324096, 25.0400243 ], [ 121.5325336, 25.0400239 ], [ 121.5325335, 25.0400191 ], [ 121.5325625, 25.040019 ], [ 121.5325751, 25.0400189 ], [ 121.5325756, 25.0400799 ], [ 121.5325344, 25.0401198 ], [ 121.5324039, 25.0401247 ] ] ] ] } },
{ "type": "Feature", "properties": { "full_id": "w372150102", "osm_id": "372150102", "osm_type": "way", "amenity": "fast_food", "name:ja": null, "brand:ja": null, "outdoor_seating": null, "opening_hours": null, "drive_through": null, "delivery": null, "ref": null, "building:levels": null, "takeaway": null, "smoking": null, "name:zh-Hant": null, "name:zh": "頂呱呱", "name:lzh": null, "name:en": "TKK Fried Chicken", "brand:zh-Hant": null, "brand:lzh": null, "addr:street": "忠孝東路六段", "addr:postcode": "11558", "addr:housenumber": "392", "addr:district": "南港區", "addr:country": "TW", "addr:city": "臺北市", "name": "頂呱呱", "cuisine": null, "building": "yes", "brand:zh": null, "brand:wikipedia": null, "brand:wikidata": null, "brand:en": null, "brand": "頂呱呱" }, "geometry": { "type": "MultiPolygon", "coordinates": [ [ [ [ 121.5923954, 25.0498821 ], [ 121.5924406, 25.0497288 ], [ 121.5924503, 25.0496959 ], [ 121.5923972, 25.0496834 ], [ 121.5923453, 25.0498707 ], [ 121.5923954, 25.0498821 ] ] ] ] } },
{ "type": "Feature", "properties": { "full_id": "w501700695", "osm_id": "501700695", "osm_type": "way", "amenity": "fast_food", "name:ja": null, "brand:ja": null, "outdoor_seating": "no", "opening_hours": "24/7", "drive_through": "yes", "delivery": "yes", "ref": null, "building:levels": null, "takeaway": "yes", "smoking": null, "name:zh-Hant": "麥當勞", "name:zh": "麥當勞", "name:lzh": null, "name:en": "McDonald's", "brand:zh-Hant": "麥當勞", "brand:lzh": null, "addr:street": null, "addr:postcode": null, "addr:housenumber": null, "addr:district": null, "addr:country": null, "addr:city": null, "name": "麥當勞", "cuisine": "burger", "building": "yes", "brand:zh": "麥當勞", "brand:wikipedia": "zh:麥當勞", "brand:wikidata": "Q38076", "brand:en": "McDonald's", "brand": "麥當勞" }, "geometry": { "type": "MultiPolygon", "coordinates": [ [ [ [ 121.5792334, 25.0606033 ], [ 121.5795271, 25.060773 ], [ 121.5794769, 25.0608444 ], [ 121.5792545, 25.0607159 ], [ 121.5792424, 25.0607336 ], [ 121.5791737, 25.0606924 ], [ 121.5792104, 25.060636 ], [ 121.5792334, 25.0606033 ] ] ] ] } },
{ "type": "Feature", "properties": { "full_id": "w538034008", "osm_id": "538034008", "osm_type": "way", "amenity": "fast_food", "name:ja": "モスバーガー", "brand:ja": "モスバーガー", "outdoor_seating": null, "opening_hours": null, "drive_through": null, "delivery": null, "ref": null, "building:levels": null, "takeaway": "yes", "smoking": null, "name:zh-Hant": null, "name:zh": "摩斯漢堡", "name:lzh": null, "name:en": "MOS Burger", "brand:zh-Hant": null, "brand:lzh": null, "addr:street": "吳興街", "addr:postcode": "110", "addr:housenumber": "243", "addr:district": "信義區", "addr:country": "TW", "addr:city": "臺北市", "name": "摩斯漢堡", "cuisine": "burger", "building": "residential", "brand:zh": "摩斯漢堡", "brand:wikipedia": "zh:摩斯漢堡", "brand:wikidata": "Q1204169", "brand:en": "MOS Burger", "brand": "摩斯漢堡" }, "geometry": { "type": "MultiPolygon", "coordinates": [ [ [ [ 121.563433, 25.0274533 ], [ 121.5634706, 25.0274071 ], [ 121.5635979, 25.0274923 ], [ 121.5635603, 25.0275385 ], [ 121.563433, 25.0274533 ] ] ] ] } },
{ "type": "Feature", "properties": { "full_id": "w730667595", "osm_id": "730667595", "osm_type": "way", "amenity": "fast_food", "name:ja": null, "brand:ja": null, "outdoor_seating": null, "opening_hours": null, "drive_through": null, "delivery": null, "ref": null, "building:levels": null, "takeaway": "yes", "smoking": null, "name:zh-Hant": null, "name:zh": null, "name:lzh": null, "name:en": null, "brand:zh-Hant": null, "brand:lzh": null, "addr:street": null, "addr:postcode": null, "addr:housenumber": null, "addr:district": null, "addr:country": null, "addr:city": null, "name": "Subway", "cuisine": "sandwich", "building": "yes", "brand:zh": null, "brand:wikipedia": "en:Subway (restaurant)", "brand:wikidata": "Q244457", "brand:en": null, "brand": "Subway" }, "geometry": { "type": "MultiPolygon", "coordinates": [ [ [ [ 121.5025448, 25.1381545 ], [ 121.5024908, 25.1381563 ], [ 121.5025614, 25.1380988 ], [ 121.502585, 25.13812 ], [ 121.5025448, 25.1381545 ] ] ] ] } },
{ "type": "Feature", "properties": { "full_id": "w1036430352", "osm_id": "1036430352", "osm_type": "way", "amenity": "fast_food", "name:ja": null, "brand:ja": null, "outdoor_seating": null, "opening_hours": null, "drive_through": null, "delivery": null, "ref": null, "building:levels": null, "takeaway": "yes", "smoking": null, "name:zh-Hant": null, "name:zh": "摩斯漢堡", "name:lzh": null, "name:en": "MOS Burger", "brand:zh-Hant": null, "brand:lzh": null, "addr:street": null, "addr:postcode": null, "addr:housenumber": null, "addr:district": null, "addr:country": null, "addr:city": null, "name": "摩斯漢堡", "cuisine": "burger", "building": "yes", "brand:zh": "摩斯漢堡", "brand:wikipedia": "zh:摩斯漢堡", "brand:wikidata": "Q1204169", "brand:en": "MOS Burger", "brand": "摩斯漢堡" }, "geometry": { "type": "MultiPolygon", "coordinates": [ [ [ [ 121.5402224, 25.0517575 ], [ 121.5403021, 25.0517559 ], [ 121.5402969, 25.0515462 ], [ 121.5402441, 25.0515473 ], [ 121.5402172, 25.0515478 ], [ 121.5402224, 25.0517575 ] ] ] ] } }
]
}
