{
"type": "FeatureCollection",
"name": "fastfood_p_KEL",
"crs": { "type": "name", "properties": { "name": "urn:ogc:def:crs:OGC:1.3:CRS84" } },
"features": [
{ "type": "Feature", "properties": { "full_id": "n2435274344", "osm_id": "2435274344", "osm_type": "node", "amenity": "fast_food", "smoking": null, "addr:country": null, "website": null, "phone": null, "operator": null, "opening_hours:covid19": null, "name:ja_rm": null, "level": null, "drive_through": null, "cuisine:ja": null, "brand:ja": null, "addr:postcode": null, "addr:full": null, "addr:floor": null, "wheelchair": null, "alt_name": null, "name:zh-Hant": null, "brand:zh-Hant": null, "addr:street": null, "addr:housenumber": null, "addr:district": null, "addr:city": null, "opening_hours": null, "brand:zh": null, "takeaway": "yes", "name:zh": "肯德基", "name:ja": "ケンタッキーフライドチキン", "name:en": "KFC", "name": "肯德基", "cuisine": "chicken", "brand:wikipedia": "zh:肯德基", "brand:wikidata": "Q524757", "brand:en": "KFC", "brand": "肯德基", "branch:en": "Keelung Ren 1st Rd. Branch", "branch": "基隆仁一門市" }, "geometry": { "type": "Point", "coordinates": [ 121.7509855, 25.1280225 ] } },
{ "type": "Feature", "properties": { "full_id": "n3740816446", "osm_id": "3740816446", "osm_type": "node", "amenity": "fast_food", "smoking": null, "addr:country": null, "website": null, "phone": null, "operator": null, "opening_hours:covid19": null, "name:ja_rm": null, "level": null, "drive_through": null, "cuisine:ja": null, "brand:ja": null, "addr:postcode": null, "addr:full": null, "addr:floor": null, "wheelchair": null, "alt_name": null, "name:zh-Hant": null, "brand:zh-Hant": null, "addr:street": null, "addr:housenumber": null, "addr:district": null, "addr:city": null, "opening_hours": null, "brand:zh": "摩斯漢堡", "takeaway": "yes", "name:zh": "摩斯漢堡", "name:ja": "モスバーガー", "name:en": "MOS Burger", "name": "摩斯漢堡", "cuisine": "burger", "brand:wikipedia": "zh:摩斯漢堡", "brand:wikidata": "Q1204169", "brand:en": "MOS Burger", "brand": "摩斯漢堡", "branch:en": null, "branch": null }, "geometry": { "type": "Point", "coordinates": [ 121.7444123, 25.1290375 ] } },
{ "type": "Feature", "properties": { "full_id": "n4172859412", "osm_id": "4172859412", "osm_type": "node", "amenity": "fast_food", "smoking": null, "addr:country": null, "website": null, "phone": null, "operator": null, "opening_hours:covid19": null, "name:ja_rm": null, "level": null, "drive_through": null, "cuisine:ja": null, "brand:ja": null, "addr:postcode": null, "addr:full": null, "addr:floor": null, "wheelchair": null, "alt_name": null, "name:zh-Hant": null, "brand:zh-Hant": null, "addr:street": null, "addr:housenumber": null, "addr:district": null, "addr:city": null, "opening_hours": "Mo-Su 17:00-22:00", "brand:zh": null, "takeaway": null, "name:zh": null, "name:ja": null, "name:en": null, "name": "三姐妹水煎包", "cuisine": null, "brand:wikipedia": null, "brand:wikidata": null, "brand:en": null, "brand": null, "branch:en": null, "branch": null }, "geometry": { "type": "Point", "coordinates": [ 121.7446394, 25.1300041 ] } },
{ "type": "Feature", "properties": { "full_id": "n4172869389", "osm_id": "4172869389", "osm_type": "node", "amenity": "fast_food", "smoking": null, "addr:country": null, "website": null, "phone": null, "operator": null, "opening_hours:covid19": null, "name:ja_rm": null, "level": null, "drive_through": null, "cuisine:ja": null, "brand:ja": null, "addr:postcode": null, "addr:full": null, "addr:floor": null, "wheelchair": null, "alt_name": null, "name:zh-Hant": null, "brand:zh-Hant": null, "addr:street": null, "addr:housenumber": null, "addr:district": null, "addr:city": null, "opening_hours": null, "brand:zh": null, "takeaway": null, "name:zh": null, "name:ja": null, "name:en": null, "name": "愛玉冰", "cuisine": null, "brand:wikipedia": null, "brand:wikidata": null, "brand:en": null, "brand": null, "branch:en": null, "branch": null }, "geometry": { "type": "Point", "coordinates": [ 121.743424, 25.1281155 ] } },
{ "type": "Feature", "properties": { "full_id": "n4172874389", "osm_id": "4172874389", "osm_type": "node", "amenity": "fast_food", "smoking": null, "addr:country": null, "website": null, "phone": null, "operator": null, "opening_hours:covid19": null, "name:ja_rm": null, "level": null, "drive_through": null, "cuisine:ja": null, "brand:ja": null, "addr:postcode": null, "addr:full": null, "addr:floor": null, "wheelchair": null, "alt_name": null, "name:zh-Hant": null, "brand:zh-Hant": null, "addr:street": null, "addr:housenumber": null, "addr:district": null, "addr:city": null, "opening_hours": null, "brand:zh": null, "takeaway": null, "name:zh": null, "name:ja": null, "name:en": null, "name": "沈記泡泡冰", "cuisine": null, "brand:wikipedia": null, "brand:wikidata": null, "brand:en": null, "brand": null, "branch:en": null, "branch": null }, "geometry": { "type": "Point", "coordinates": [ 121.7433742, 25.1282501 ] } },
{ "type": "Feature", "properties": { "full_id": "n4524864096", "osm_id": "4524864096", "osm_type": "node", "amenity": "fast_food", "smoking": null, "addr:country": null, "website": null, "phone": null, "operator": null, "opening_hours:covid19": null, "name:ja_rm": null, "level": null, "drive_through": null, "cuisine:ja": null, "brand:ja": null, "addr:postcode": null, "addr:full": null, "addr:floor": null, "wheelchair": null, "alt_name": null, "name:zh-Hant": "麥當勞", "brand:zh-Hant": "麥當勞", "addr:street": "基金一路", "addr:housenumber": "206-1", "addr:district": "安樂區", "addr:city": "基隆市", "opening_hours": "Mo-Su 06:00-24:00", "brand:zh": "麥當勞", "takeaway": "yes", "name:zh": "麥當勞", "name:ja": null, "name:en": "McDonald's", "name": "麥當勞", "cuisine": "burger", "brand:wikipedia": "zh:麦当劳", "brand:wikidata": "Q38076", "brand:en": "McDonald's", "brand": "麥當勞", "branch:en": null, "branch": null }, "geometry": { "type": "Point", "coordinates": [ 121.7101853, 25.1419621 ] } },
{ "type": "Feature", "properties": { "full_id": "n5172614550", "osm_id": "5172614550", "osm_type": "node", "amenity": "fast_food", "smoking": null, "addr:country": null, "website": null, "phone": null, "operator": null, "opening_hours:covid19": null, "name:ja_rm": null, "level": null, "drive_through": null, "cuisine:ja": null, "brand:ja": null, "addr:postcode": null, "addr:full": null, "addr:floor": null, "wheelchair": null, "alt_name": null, "name:zh-Hant": null, "brand:zh-Hant": null, "addr:street": null, "addr:housenumber": null, "addr:district": null, "addr:city": null, "opening_hours": null, "brand:zh": "呷尚寶", "takeaway": "yes", "name:zh": "呷尚寶", "name:ja": null, "name:en": "JSP", "name": "呷尚寶", "cuisine": "burger", "brand:wikipedia": null, "brand:wikidata": "Q109996570", "brand:en": "JSP", "brand": "呷尚寶", "branch:en": null, "branch": "基隆西定店" }, "geometry": { "type": "Point", "coordinates": [ 121.734557, 25.1346476 ] } },
{ "type": "Feature", "properties": { "full_id": "n5173078967", "osm_id": "5173078967", "osm_type": "node", "amenity": "fast_food", "smoking": null, "addr:country": null, "website": null, "phone": null, "operator": null, "opening_hours:covid19": null, "name:ja_rm": null, "level": null, "drive_through": null, "cuisine:ja": null, "brand:ja": null, "addr:postcode": null, "addr:full": null, "addr:floor": null, "wheelchair": null, "alt_name": "小麥", "name:zh-Hant": "麥當勞", "brand:zh-Hant": "麥當勞", "addr:street": null, "addr:housenumber": null, "addr:district": null, "addr:city": null, "opening_hours": null, "brand:zh": "麥當勞", "takeaway": "yes", "name:zh": "麥當勞", "name:ja": "マクドナルド", "name:en": "McDonald's", "name": "麥當勞", "cuisine": "burger", "brand:wikipedia": "zh:麥當勞", "brand:wikidata": "Q38076", "brand:en": "McDonald's", "brand": "麥當勞", "branch:en": null, "branch": "基隆信一門市" }, "geometry": { "type": "Point", "coordinates": [ 121.7446463, 25.1307866 ] } },
{ "type": "Feature", "properties": { "full_id": "n5283407376", "osm_id": "5283407376", "osm_type": "node", "amenity": "fast_food", "smoking": null, "addr:country": null, "website": null, "phone": null, "operator": null, "opening_hours:covid19": null, "name:ja_rm": null, "level": null, "drive_through": null, "cuisine:ja": null, "brand:ja": null, "addr:postcode": null, "addr:full": null, "addr:floor": null, "wheelchair": null, "alt_name": null, "name:zh-Hant": null, "brand:zh-Hant": null, "addr:street": null, "addr:housenumber": null, "addr:district": null, "addr:city": null, "opening_hours": null, "brand:zh": null, "takeaway": null, "name:zh": "頂呱呱愛二店", "name:ja": null, "name:en": "TKK Fried Chichen (Keelung Ai 2nd Store)", "name": "頂呱呱", "cuisine": null, "brand:wikipedia": null, "brand:wikidata": null, "brand:en": null, "brand": "頂呱呱", "branch:en": null, "branch": null }, "geometry": { "type": "Point", "coordinates": [ 121.7421515, 25.1290295 ] } },
{ "type": "Feature", "properties": { "full_id": "n5349036706", "osm_id": "5349036706", "osm_type": "node", "amenity": "fast_food", "smoking": null, "addr:country": null, "website": null, "phone": null, "operator": null, "opening_hours:covid19": null, "name:ja_rm": null, "level": null, "drive_through": null, "cuisine:ja": null, "brand:ja": null, "addr:postcode": null, "addr:full": null, "addr:floor": null, "wheelchair": "yes", "alt_name": null, "name:zh-Hant": null, "brand:zh-Hant": null, "addr:street": null, "addr:housenumber": null, "addr:district": null, "addr:city": null, "opening_hours": null, "brand:zh": null, "takeaway": null, "name:zh": "胖老爹美式炸雞基隆中山店", "name:ja": null, "name:en": null, "name": "胖老爹美式炸雞", "cuisine": "fast_food;chinese", "brand:wikipedia": null, "brand:wikidata": null, "brand:en": null, "brand": null, "branch:en": null, "branch": null }, "geometry": { "type": "Point", "coordinates": [ 121.7258788, 25.1438423 ] } },
{ "type": "Feature", "properties": { "full_id": "n7211425587", "osm_id": "7211425587", "osm_type": "node", "amenity": "fast_food", "smoking": null, "addr:country": null, "website": null, "phone": null, "operator": null, "opening_hours:covid19": null, "name:ja_rm": null, "level": null, "drive_through": null, "cuisine:ja": null, "brand:ja": null, "addr:postcode": null, "addr:full": null, "addr:floor": null, "wheelchair": null, "alt_name": null, "name:zh-Hant": null, "brand:zh-Hant": null, "addr:street": null, "addr:housenumber": null, "addr:district": null, "addr:city": null, "opening_hours": null, "brand:zh": null, "takeaway": null, "name:zh": null, "name:ja": null, "name:en": null, "name": "胖老爹美式炸雞", "cuisine": null, "brand:wikipedia": null, "brand:wikidata": null, "brand:en": null, "brand": "胖老爹美式炸雞", "branch:en": null, "branch": "七堵店" }, "geometry": { "type": "Point", "coordinates": [ 121.6964606, 25.0855307 ] } },
{ "type": "Feature", "properties": { "full_id": "n8399777238", "osm_id": "8399777238", "osm_type": "node", "amenity": "fast_food", "smoking": null, "addr:country": null, "website": null, "phone": null, "operator": null, "opening_hours:covid19": null, "name:ja_rm": null, "level": null, "drive_through": null, "cuisine:ja": null, "brand:ja": null, "addr:postcode": null, "addr:full": null, "addr:floor": null, "wheelchair": null, "alt_name": null, "name:zh-Hant": null, "brand:zh-Hant": null, "addr:street": null, "addr:housenumber": null, "addr:district": null, "addr:city": null, "opening_hours": null, "brand:zh": null, "takeaway": "yes", "name:zh": null, "name:ja": null, "name:en": null, "name": "Subway", "cuisine": "sandwich", "brand:wikipedia": "en:Subway (restaurant)", "brand:wikidata": "Q244457", "brand:en": null, "brand": "Subway", "branch:en": null, "branch": null }, "geometry": { "type": "Point", "coordinates": [ 121.7419415, 25.1289872 ] } },
{ "type": "Feature", "properties": { "full_id": "n8402601848", "osm_id": "8402601848", "osm_type": "node", "amenity": "fast_food", "smoking": null, "addr:country": null, "website": null, "phone": null, "operator": null, "opening_hours:covid19": null, "name:ja_rm": null, "level": null, "drive_through": null, "cuisine:ja": null, "brand:ja": null, "addr:postcode": null, "addr:full": null, "addr:floor": null, "wheelchair": null, "alt_name": null, "name:zh-Hant": null, "brand:zh-Hant": null, "addr:street": null, "addr:housenumber": null, "addr:district": null, "addr:city": null, "opening_hours": null, "brand:zh": null, "takeaway": "yes", "name:zh": null, "name:ja": null, "name:en": null, "name": "Burger King", "cuisine": "burger", "brand:wikipedia": "en:Burger King", "brand:wikidata": "Q177054", "brand:en": null, "brand": "Burger King", "branch:en": null, "branch": null }, "geometry": { "type": "Point", "coordinates": [ 121.7513327, 25.1286569 ] } },
{ "type": "Feature", "properties": { "full_id": "n8432261545", "osm_id": "8432261545", "osm_type": "node", "amenity": "fast_food", "smoking": null, "addr:country": null, "website": "https://www.sukiya-jp.com.tw/", "phone": "+996 2 2552-8700", "operator": "台灣善商股份有限公司", "opening_hours:covid19": "same", "name:ja_rm": "Sukiya", "level": "1", "drive_through": "no", "cuisine:ja": "牛丼", "brand:ja": "すき家", "addr:postcode": "200005", "addr:full": "東京都足立区一ツ家1-15-6", "addr:floor": "1", "wheelchair": null, "alt_name": null, "name:zh-Hant": null, "brand:zh-Hant": null, "addr:street": "仁二路", "addr:housenumber": "236", "addr:district": "仁愛區", "addr:city": "基隆市", "opening_hours": "24/7", "brand:zh": null, "takeaway": "yes", "name:zh": "食其家", "name:ja": "すき家", "name:en": "Sukiya", "name": "Sukiya", "cuisine": "japanese;beef_bowl;curry", "brand:wikipedia": "ja:すき家", "brand:wikidata": "Q6137375", "brand:en": "Sukiya", "brand": "すき家", "branch:en": null, "branch": "基隆港前店" }, "geometry": { "type": "Point", "coordinates": [ 121.7433493, 25.1306384 ] } },
{ "type": "Feature", "properties": { "full_id": "n8432266503", "osm_id": "8432266503", "osm_type": "node", "amenity": "fast_food", "smoking": null, "addr:country": null, "website": "https://tw.hamazushi.com/", "phone": null, "operator": "台灣善商股份有限公司", "opening_hours:covid19": "same", "name:ja_rm": null, "level": null, "drive_through": "no", "cuisine:ja": null, "brand:ja": "はま寿司", "addr:postcode": "200005", "addr:full": null, "addr:floor": "3", "wheelchair": null, "alt_name": null, "name:zh-Hant": null, "brand:zh-Hant": null, "addr:street": "仁二路", "addr:housenumber": "236", "addr:district": "仁愛區", "addr:city": "基隆市", "opening_hours": "Mo-Su 11:00-22:00", "brand:zh": null, "takeaway": "yes", "name:zh": "HAMA壽司", "name:ja": "はま寿司", "name:en": "Hamazushi", "name": "はま寿司", "cuisine": "sushi", "brand:wikipedia": "ja:はま寿司", "brand:wikidata": "Q17220385", "brand:en": "Hamazushi", "brand": "はま寿司", "branch:en": null, "branch": "基隆店" }, "geometry": { "type": "Point", "coordinates": [ 121.7430836, 25.1302438 ] } },
{ "type": "Feature", "properties": { "full_id": "n9791836879", "osm_id": "9791836879", "osm_type": "node", "amenity": "fast_food", "smoking": "outside", "addr:country": "TW", "website": null, "phone": "+886 2 24283218", "operator": null, "opening_hours:covid19": null, "name:ja_rm": null, "level": null, "drive_through": null, "cuisine:ja": null, "brand:ja": null, "addr:postcode": "200", "addr:full": null, "addr:floor": "1", "wheelchair": null, "alt_name": null, "name:zh-Hant": null, "brand:zh-Hant": null, "addr:street": "仁二路", "addr:housenumber": "166", "addr:district": "仁愛區", "addr:city": "基隆市", "opening_hours": null, "brand:zh": null, "takeaway": "yes", "name:zh": null, "name:ja": null, "name:en": null, "name": "新派壽司料理", "cuisine": "sushi", "brand:wikipedia": null, "brand:wikidata": null, "brand:en": null, "brand": null, "branch:en": null, "branch": null }, "geometry": { "type": "Point", "coordinates": [ 121.745594, 25.1283583 ] } },
{ "type": "Feature", "properties": { "full_id": "n9792050290", "osm_id": "9792050290", "osm_type": "node", "amenity": "fast_food", "smoking": null, "addr:country": "TW", "website": "https://www.0800076666.com.tw/", "phone": "+886224216655", "operator": null, "opening_hours:covid19": null, "name:ja_rm": null, "level": null, "drive_through": null, "cuisine:ja": null, "brand:ja": null, "addr:postcode": "200", "addr:full": null, "addr:floor": "1", "wheelchair": null, "alt_name": null, "name:zh-Hant": null, "brand:zh-Hant": null, "addr:street": "仁二路", "addr:housenumber": "163", "addr:district": "仁愛區", "addr:city": "基隆市", "opening_hours": null, "brand:zh": null, "takeaway": null, "name:zh": null, "name:ja": null, "name:en": null, "name": "Napoli Keelung Shop", "cuisine": "pizza", "brand:wikipedia": null, "brand:wikidata": null, "brand:en": null, "brand": null, "branch:en": null, "branch": null }, "geometry": { "type": "Point", "coordinates": [ 121.7453512, 25.1283914 ] } },
{ "type": "Feature", "properties": { "full_id": "n9886327122", "osm_id": "9886327122", "osm_type": "node", "amenity": "fast_food", "smoking": null, "addr:country": null, "website": null, "phone": null, "operator": null, "opening_hours:covid19": null, "name:ja_rm": null, "level": null, "drive_through": null, "cuisine:ja": null, "brand:ja": null, "addr:postcode": null, "addr:full": null, "addr:floor": null, "wheelchair": null, "alt_name": null, "name:zh-Hant": null, "brand:zh-Hant": null, "addr:street": null, "addr:housenumber": null, "addr:district": null, "addr:city": null, "opening_hours": null, "brand:zh": null, "takeaway": null, "name:zh": null, "name:ja": null, "name:en": null, "name": "麥味登", "cuisine": null, "brand:wikipedia": null, "brand:wikidata": null, "brand:en": null, "brand": null, "branch:en": null, "branch": null }, "geometry": { "type": "Point", "coordinates": [ 121.7211609, 25.1223443 ] } }
]
}
