{
"type": "FeatureCollection",
"name": "fastfood_a_NTPC",
"crs": { "type": "name", "properties": { "name": "urn:ogc:def:crs:OGC:1.3:CRS84" } },
"features": [
{ "type": "Feature", "properties": { "full_id": "w196809146", "osm_id": "196809146", "osm_type": "way", "amenity": "fast_food", "building:levels": null, "addr:floor": null, "addr:housename": null, "addr:county": null, "internet_access": null, "wheelchair:description": null, "wheelchair": null, "toilets:wheelchair": null, "addr:full": null, "first_aid": null, "defibrillator": null, "takeaway": "yes", "smoking": "no", "phone": "+886 2 2406 1095", "opening_hours": "06:00-24:00", "name:zh-Hant": "麥當勞", "name:zh": "麥當勞", "name:ja": "マクドナルド", "name:en": "McDonald's", "name": "麥當勞", "ele": "55", "drive_through": "yes", "drive_in": "yes", "cuisine": "burger", "building": "yes", "brand:zh-Hant": "麥當勞", "brand:zh": "麥當勞", "brand:wikipedia": "zh:麥當勞", "brand:wikidata": "Q38076", "brand:en": "McDonald's", "brand": "麥當勞", "branch": "瑞芳中山店", "addr:street": "中山路", "addr:postcode": "22444", "addr:housenumber": "168", "addr:district": "瑞芳區", "addr:country": "TW", "addr:city": "新北市" }, "geometry": { "type": "MultiPolygon", "coordinates": [ [ [ [ 121.8018931, 25.1069131 ], [ 121.8018263, 25.1066714 ], [ 121.8018614, 25.1066634 ], [ 121.8019665, 25.1066396 ], [ 121.8019979, 25.1066325 ], [ 121.8020647, 25.1068742 ], [ 121.8018931, 25.1069131 ] ] ] ] } },
{ "type": "Feature", "properties": { "full_id": "w259018205", "osm_id": "259018205", "osm_type": "way", "amenity": "fast_food", "building:levels": null, "addr:floor": null, "addr:housename": null, "addr:county": null, "internet_access": null, "wheelchair:description": null, "wheelchair": null, "toilets:wheelchair": null, "addr:full": null, "first_aid": null, "defibrillator": null, "takeaway": null, "smoking": null, "phone": null, "opening_hours": "24/7", "name:zh-Hant": null, "name:zh": "麥當勞", "name:ja": "マクドナルド", "name:en": "McDonald's", "name": "麥當勞", "ele": null, "drive_through": null, "drive_in": null, "cuisine": null, "building": "yes", "brand:zh-Hant": null, "brand:zh": "麥當勞", "brand:wikipedia": "zh:麥當勞", "brand:wikidata": "Q38076", "brand:en": "McDonald's", "brand": "麥當勞", "branch": "林口中山店", "addr:street": "中山路", "addr:postcode": null, "addr:housenumber": null, "addr:district": null, "addr:country": null, "addr:city": null }, "geometry": { "type": "MultiPolygon", "coordinates": [ [ [ [ 121.3857916, 25.0798355 ], [ 121.3857408, 25.0796459 ], [ 121.3859054, 25.0795465 ], [ 121.3860904, 25.0795096 ], [ 121.3861575, 25.0797821 ], [ 121.3860538, 25.0798153 ], [ 121.3859074, 25.0798521 ], [ 121.3858383, 25.079865 ], [ 121.3857916, 25.0798355 ] ] ] ] } },
{ "type": "Feature", "properties": { "full_id": "w289882314", "osm_id": "289882314", "osm_type": "way", "amenity": "fast_food", "building:levels": null, "addr:floor": null, "addr:housename": null, "addr:county": null, "internet_access": null, "wheelchair:description": null, "wheelchair": null, "toilets:wheelchair": null, "addr:full": null, "first_aid": "yes", "defibrillator": "yes", "takeaway": null, "smoking": null, "phone": null, "opening_hours": null, "name:zh-Hant": null, "name:zh": "森林小舖", "name:ja": null, "name:en": "Refreshment Station", "name": "森林小舖", "ele": null, "drive_through": null, "drive_in": null, "cuisine": null, "building": "yes", "brand:zh-Hant": null, "brand:zh": null, "brand:wikipedia": null, "brand:wikidata": null, "brand:en": null, "brand": null, "branch": null, "addr:street": null, "addr:postcode": null, "addr:housenumber": null, "addr:district": null, "addr:country": null, "addr:city": null }, "geometry": { "type": "MultiPolygon", "coordinates": [ [ [ [ 121.449104, 24.8222392 ], [ 121.4489789, 24.8222743 ], [ 121.4489332, 24.8221404 ], [ 121.4490583, 24.8221052 ], [ 121.449104, 24.8222392 ] ] ] ] } },
{ "type": "Feature", "properties": { "full_id": "w291707273", "osm_id": "291707273", "osm_type": "way", "amenity": "fast_food", "building:levels": null, "addr:floor": null, "addr:housename": null, "addr:county": null, "internet_access": null, "wheelchair:description": null, "wheelchair": "yes", "toilets:wheelchair": "yes", "addr:full": "251新北市淡水區新市一路三段151號", "first_aid": null, "defibrillator": null, "takeaway": null, "smoking": null, "phone": null, "opening_hours": null, "name:zh-Hant": null, "name:zh": "麥當勞", "name:ja": null, "name:en": "McDonald's", "name": "麥當勞", "ele": null, "drive_through": "yes", "drive_in": null, "cuisine": "burger", "building": "yes", "brand:zh-Hant": null, "brand:zh": "麥當勞", "brand:wikipedia": "zh:麥當勞", "brand:wikidata": "Q38076", "brand:en": "McDonald's", "brand": "麥當勞", "branch": "淡水新市餐廳", "addr:street": "新市一路三段", "addr:postcode": "251", "addr:housenumber": "151", "addr:district": "淡水區", "addr:country": "TW", "addr:city": "新北市" }, "geometry": { "type": "MultiPolygon", "coordinates": [ [ [ [ 121.4478043, 25.1834509 ], [ 121.4477958, 25.1830872 ], [ 121.4483277, 25.1830925 ], [ 121.4483133, 25.1833297 ], [ 121.4481725, 25.1834534 ], [ 121.4478043, 25.1834509 ] ] ] ] } },
{ "type": "Feature", "properties": { "full_id": "w293944580", "osm_id": "293944580", "osm_type": "way", "amenity": "fast_food", "building:levels": null, "addr:floor": null, "addr:housename": null, "addr:county": null, "internet_access": null, "wheelchair:description": "整棟的麥當勞建築都是階梯，沒有任何的無障礙坡道，雖門口設置服務鈴卻是在不起眼的地方，且就算服務員協助輪椅使用者進入麥當勞，還是要經過約七階的樓梯，非常限制。", "wheelchair": "no", "toilets:wheelchair": "no", "addr:full": null, "first_aid": null, "defibrillator": null, "takeaway": null, "smoking": null, "phone": null, "opening_hours": "24/7", "name:zh-Hant": null, "name:zh": "麥當勞", "name:ja": "マクドナルド", "name:en": "McDonald's", "name": "麥當勞", "ele": null, "drive_through": null, "drive_in": null, "cuisine": "burger", "building": "yes", "brand:zh-Hant": null, "brand:zh": "麥當勞", "brand:wikipedia": "zh:麥當勞", "brand:wikidata": "Q38076", "brand:en": "McDonald's", "brand": "麥當勞", "branch": null, "addr:street": "中正東路", "addr:postcode": "251", "addr:housenumber": "37", "addr:district": "淡水區", "addr:country": "TW", "addr:city": "新北市" }, "geometry": { "type": "MultiPolygon", "coordinates": [ [ [ [ 121.4462396, 25.1683108 ], [ 121.446351, 25.168223 ], [ 121.4464085, 25.1682828 ], [ 121.4462972, 25.1683706 ], [ 121.4462396, 25.1683108 ] ] ] ] } },
{ "type": "Feature", "properties": { "full_id": "w352925865", "osm_id": "352925865", "osm_type": "way", "amenity": "fast_food", "building:levels": null, "addr:floor": null, "addr:housename": null, "addr:county": null, "internet_access": "wlan", "wheelchair:description": null, "wheelchair": null, "toilets:wheelchair": null, "addr:full": null, "first_aid": null, "defibrillator": null, "takeaway": null, "smoking": null, "phone": null, "opening_hours": "24/7", "name:zh-Hant": null, "name:zh": null, "name:ja": null, "name:en": null, "name": "麥當勞", "ele": null, "drive_through": null, "drive_in": null, "cuisine": null, "building": "yes", "brand:zh-Hant": null, "brand:zh": "麥當勞", "brand:wikipedia": "zh:麥當勞", "brand:wikidata": "Q38076", "brand:en": "McDonald's", "brand": "麥當勞", "branch": null, "addr:street": null, "addr:postcode": null, "addr:housenumber": null, "addr:district": null, "addr:country": null, "addr:city": null }, "geometry": { "type": "MultiPolygon", "coordinates": [ [ [ [ 121.3754962, 24.9425869 ], [ 121.3756472, 24.9423832 ], [ 121.3754746, 24.9422696 ], [ 121.375329, 24.9424514 ], [ 121.3754962, 24.9425869 ] ] ] ] } },
{ "type": "Feature", "properties": { "full_id": "w367111502", "osm_id": "367111502", "osm_type": "way", "amenity": "fast_food", "building:levels": null, "addr:floor": null, "addr:housename": "792", "addr:county": "TW", "internet_access": null, "wheelchair:description": null, "wheelchair": null, "toilets:wheelchair": null, "addr:full": null, "first_aid": null, "defibrillator": null, "takeaway": "yes", "smoking": null, "phone": null, "opening_hours": null, "name:zh-Hant": "麥當勞", "name:zh": "麥當勞", "name:ja": null, "name:en": "McDonald's", "name": "麥當勞", "ele": null, "drive_through": null, "drive_in": null, "cuisine": "burger", "building": null, "brand:zh-Hant": "麥當勞", "brand:zh": "麥當勞", "brand:wikipedia": "zh:麥當勞", "brand:wikidata": "Q38076", "brand:en": "McDonald's", "brand": "麥當勞", "branch": null, "addr:street": "新北大道七段", "addr:postcode": null, "addr:housenumber": null, "addr:district": "新莊區", "addr:country": null, "addr:city": "新北市" }, "geometry": { "type": "MultiPolygon", "coordinates": [ [ [ [ 121.4127618, 25.0243621 ], [ 121.4129317, 25.0244547 ], [ 121.4130065, 25.024342 ], [ 121.4128391, 25.0242508 ], [ 121.4128302, 25.0242641 ], [ 121.4127811, 25.0242374 ], [ 121.4127324, 25.0243107 ], [ 121.412779, 25.0243361 ], [ 121.4127618, 25.0243621 ] ] ] ] } },
{ "type": "Feature", "properties": { "full_id": "w385128158", "osm_id": "385128158", "osm_type": "way", "amenity": "fast_food", "building:levels": null, "addr:floor": null, "addr:housename": null, "addr:county": "TW", "internet_access": null, "wheelchair:description": null, "wheelchair": "limited", "toilets:wheelchair": null, "addr:full": null, "first_aid": null, "defibrillator": null, "takeaway": "yes", "smoking": null, "phone": null, "opening_hours": null, "name:zh-Hant": "麥當勞", "name:zh": "麥當勞", "name:ja": null, "name:en": "McDonald's", "name": "麥當勞", "ele": null, "drive_through": null, "drive_in": null, "cuisine": "burger", "building": null, "brand:zh-Hant": "麥當勞", "brand:zh": "麥當勞", "brand:wikipedia": "zh:麥當勞", "brand:wikidata": "Q38076", "brand:en": "McDonald's", "brand": "麥當勞", "branch": null, "addr:street": "中山路一段", "addr:postcode": null, "addr:housenumber": "101", "addr:district": "樹林區", "addr:country": null, "addr:city": "新北市" }, "geometry": { "type": "MultiPolygon", "coordinates": [ [ [ [ 121.4232278, 24.9909675 ], [ 121.4234199, 24.9908784 ], [ 121.4233957, 24.9908356 ], [ 121.4232036, 24.9909247 ], [ 121.4232278, 24.9909675 ] ] ] ] } },
{ "type": "Feature", "properties": { "full_id": "w430959519", "osm_id": "430959519", "osm_type": "way", "amenity": "fast_food", "building:levels": null, "addr:floor": null, "addr:housename": null, "addr:county": "TW", "internet_access": null, "wheelchair:description": null, "wheelchair": null, "toilets:wheelchair": null, "addr:full": null, "first_aid": null, "defibrillator": null, "takeaway": "yes", "smoking": null, "phone": null, "opening_hours": null, "name:zh-Hant": "麥當勞", "name:zh": "麥當勞", "name:ja": null, "name:en": "McDonald's", "name": "麥當勞", "ele": null, "drive_through": null, "drive_in": null, "cuisine": "burger", "building": null, "brand:zh-Hant": "麥當勞", "brand:zh": "麥當勞", "brand:wikipedia": "zh:麥當勞", "brand:wikidata": "Q38076", "brand:en": "McDonald's", "brand": "麥當勞", "branch": null, "addr:street": "新台五路一段", "addr:postcode": null, "addr:housenumber": "162", "addr:district": "汐止區", "addr:country": null, "addr:city": "新北市" }, "geometry": { "type": "MultiPolygon", "coordinates": [ [ [ [ 121.6543801, 25.062387 ], [ 121.6544589, 25.0622376 ], [ 121.6545148, 25.0622618 ], [ 121.6545272, 25.0622383 ], [ 121.6545744, 25.0622587 ], [ 121.6545622, 25.0622817 ], [ 121.6545968, 25.0622967 ], [ 121.6545178, 25.0624466 ], [ 121.6543801, 25.062387 ] ] ] ] } },
{ "type": "Feature", "properties": { "full_id": "w549100392", "osm_id": "549100392", "osm_type": "way", "amenity": "fast_food", "building:levels": "2", "addr:floor": "1", "addr:housename": null, "addr:county": "TW", "internet_access": null, "wheelchair:description": null, "wheelchair": null, "toilets:wheelchair": null, "addr:full": null, "first_aid": null, "defibrillator": null, "takeaway": "yes", "smoking": null, "phone": null, "opening_hours": null, "name:zh-Hant": "麥當勞", "name:zh": "麥當勞", "name:ja": null, "name:en": "McDonald's", "name": "麥當勞", "ele": null, "drive_through": null, "drive_in": null, "cuisine": "burger", "building": "commercial", "brand:zh-Hant": "麥當勞", "brand:zh": "麥當勞", "brand:wikipedia": "zh:麥當勞", "brand:wikidata": "Q38076", "brand:en": "McDonald's", "brand": "麥當勞", "branch": null, "addr:street": "正義北路", "addr:postcode": "241", "addr:housenumber": "176", "addr:district": "新莊區", "addr:country": "TW", "addr:city": "新北市" }, "geometry": { "type": "MultiPolygon", "coordinates": [ [ [ [ 121.4963205, 25.0665044 ], [ 121.4964465, 25.0665185 ], [ 121.4964675, 25.0665302 ], [ 121.4964814, 25.0665475 ], [ 121.496491, 25.0665694 ], [ 121.4964905, 25.0665913 ], [ 121.4964858, 25.0666175 ], [ 121.4962997, 25.0665788 ], [ 121.4963205, 25.0665044 ] ] ] ] } },
{ "type": "Feature", "properties": { "full_id": "w557042862", "osm_id": "557042862", "osm_type": "way", "amenity": "fast_food", "building:levels": "5", "addr:floor": null, "addr:housename": "99", "addr:county": "TW", "internet_access": null, "wheelchair:description": null, "wheelchair": null, "toilets:wheelchair": null, "addr:full": null, "first_aid": null, "defibrillator": null, "takeaway": "yes", "smoking": null, "phone": null, "opening_hours": null, "name:zh-Hant": "麥當勞", "name:zh": "麥當勞", "name:ja": null, "name:en": "McDonald's", "name": "麥當勞", "ele": null, "drive_through": null, "drive_in": null, "cuisine": "burger", "building": "apartments", "brand:zh-Hant": "麥當勞", "brand:zh": "麥當勞", "brand:wikipedia": "zh:麥當勞", "brand:wikidata": "Q38076", "brand:en": "McDonald's", "brand": "麥當勞", "branch": null, "addr:street": "篤行路三段", "addr:postcode": "220", "addr:housenumber": null, "addr:district": "板橋區", "addr:country": "TW", "addr:city": "新北市" }, "geometry": { "type": "MultiPolygon", "coordinates": [ [ [ [ 121.4263861, 24.9847378 ], [ 121.4264137, 24.9847072 ], [ 121.4263555, 24.9845683 ], [ 121.4262927, 24.9845433 ], [ 121.4262559, 24.9846044 ], [ 121.426262, 24.9846433 ], [ 121.4262835, 24.9846739 ], [ 121.4263861, 24.9847378 ] ] ] ] } },
{ "type": "Feature", "properties": { "full_id": "w858973727", "osm_id": "858973727", "osm_type": "way", "amenity": "fast_food", "building:levels": null, "addr:floor": null, "addr:housename": null, "addr:county": "TW", "internet_access": null, "wheelchair:description": null, "wheelchair": "yes", "toilets:wheelchair": null, "addr:full": null, "first_aid": null, "defibrillator": null, "takeaway": "yes", "smoking": null, "phone": null, "opening_hours": "24/7", "name:zh-Hant": "麥當勞", "name:zh": "麥當勞", "name:ja": null, "name:en": "McDonald's", "name": "麥當勞", "ele": null, "drive_through": null, "drive_in": null, "cuisine": "burger", "building": null, "brand:zh-Hant": "麥當勞", "brand:zh": "麥當勞", "brand:wikipedia": "zh:麦当劳", "brand:wikidata": "Q38076", "brand:en": "McDonald's", "brand": "麥當勞", "branch": null, "addr:street": "中平路", "addr:postcode": null, "addr:housenumber": "346", "addr:district": "新莊區", "addr:country": null, "addr:city": "新北市" }, "geometry": { "type": "MultiPolygon", "coordinates": [ [ [ [ 121.4447734, 25.0531106 ], [ 121.4447755, 25.0529034 ], [ 121.4451107, 25.0529144 ], [ 121.4451013, 25.0531215 ], [ 121.4447734, 25.0531106 ] ] ] ] } },
{ "type": "Feature", "properties": { "full_id": "w858995153", "osm_id": "858995153", "osm_type": "way", "amenity": "fast_food", "building:levels": null, "addr:floor": null, "addr:housename": "69", "addr:county": "TW", "internet_access": null, "wheelchair:description": null, "wheelchair": null, "toilets:wheelchair": null, "addr:full": null, "first_aid": null, "defibrillator": null, "takeaway": "yes", "smoking": null, "phone": null, "opening_hours": null, "name:zh-Hant": "麥當勞", "name:zh": "麥當勞", "name:ja": null, "name:en": "McDonald's", "name": "麥當勞", "ele": null, "drive_through": null, "drive_in": null, "cuisine": "burger", "building": null, "brand:zh-Hant": "麥當勞", "brand:zh": "麥當勞", "brand:wikipedia": "zh:麦当劳", "brand:wikidata": "Q38076", "brand:en": "McDonald's", "brand": "麥當勞", "branch": "板橋府中", "addr:street": "府中路", "addr:postcode": null, "addr:housenumber": null, "addr:district": "板橋區", "addr:country": null, "addr:city": "新北市" }, "geometry": { "type": "MultiPolygon", "coordinates": [ [ [ [ 121.4577882, 25.0094407 ], [ 121.4577305, 25.009352 ], [ 121.4578378, 25.0093338 ], [ 121.4578103, 25.0094426 ], [ 121.4577882, 25.0094407 ] ] ] ] } },
{ "type": "Feature", "properties": { "full_id": "w858995154", "osm_id": "858995154", "osm_type": "way", "amenity": "fast_food", "building:levels": null, "addr:floor": null, "addr:housename": "180", "addr:county": "TW", "internet_access": null, "wheelchair:description": null, "wheelchair": null, "toilets:wheelchair": null, "addr:full": null, "first_aid": null, "defibrillator": null, "takeaway": "yes", "smoking": null, "phone": null, "opening_hours": null, "name:zh-Hant": "麥當勞", "name:zh": "麥當勞", "name:ja": null, "name:en": "McDonald's", "name": "麥當勞", "ele": null, "drive_through": null, "drive_in": null, "cuisine": "burger", "building": "yes", "brand:zh-Hant": "麥當勞", "brand:zh": "麥當勞", "brand:wikipedia": "zh:麦当劳", "brand:wikidata": "Q38076", "brand:en": "McDonald's", "brand": "麥當勞", "branch": null, "addr:street": "裕民路", "addr:postcode": null, "addr:housenumber": null, "addr:district": "土城區", "addr:country": null, "addr:city": "新北市" }, "geometry": { "type": "MultiPolygon", "coordinates": [ [ [ [ 121.4527423, 24.9852114 ], [ 121.4526538, 24.9851366 ], [ 121.4527101, 24.9850795 ], [ 121.4527973, 24.985156 ], [ 121.4527423, 24.9852114 ] ] ] ] } },
{ "type": "Feature", "properties": { "full_id": "w858995155", "osm_id": "858995155", "osm_type": "way", "amenity": "fast_food", "building:levels": null, "addr:floor": null, "addr:housename": "887-5", "addr:county": "TW", "internet_access": null, "wheelchair:description": null, "wheelchair": null, "toilets:wheelchair": null, "addr:full": null, "first_aid": null, "defibrillator": null, "takeaway": "yes", "smoking": null, "phone": null, "opening_hours": "24/7一", "name:zh-Hant": "麥當勞", "name:zh": "麥當勞", "name:ja": null, "name:en": "McDonald's", "name": "麥當勞", "ele": null, "drive_through": null, "drive_in": null, "cuisine": "burger", "building": "yes", "brand:zh-Hant": "麥當勞", "brand:zh": "麥當勞", "brand:wikipedia": "zh:麦当劳", "brand:wikidata": "Q38076", "brand:en": "McDonald's", "brand": "麥當勞", "branch": null, "addr:street": "中正路", "addr:postcode": "242052", "addr:housenumber": "877-5", "addr:district": "新莊區", "addr:country": null, "addr:city": "新北市" }, "geometry": { "type": "MultiPolygon", "coordinates": [ [ [ [ 121.4179649, 25.0264742 ], [ 121.4179362, 25.0264006 ], [ 121.418058, 25.0263617 ], [ 121.4180867, 25.0264353 ], [ 121.4179649, 25.0264742 ] ] ] ] } },
{ "type": "Feature", "properties": { "full_id": "w858995156", "osm_id": "858995156", "osm_type": "way", "amenity": "fast_food", "building:levels": null, "addr:floor": null, "addr:housename": "617", "addr:county": "TW", "internet_access": null, "wheelchair:description": null, "wheelchair": null, "toilets:wheelchair": null, "addr:full": null, "first_aid": null, "defibrillator": null, "takeaway": "yes", "smoking": null, "phone": null, "opening_hours": "Mo-Su 06:00-00:00", "name:zh-Hant": "麥當勞", "name:zh": "麥當勞", "name:ja": null, "name:en": "McDonald's", "name": "麥當勞", "ele": null, "drive_through": null, "drive_in": null, "cuisine": "burger", "building": null, "brand:zh-Hant": "麥當勞", "brand:zh": "麥當勞", "brand:wikipedia": "zh:麥當勞", "brand:wikidata": "Q38076", "brand:en": "McDonald's", "brand": "麥當勞", "branch": "新莊中正二店", "addr:street": "中正路", "addr:postcode": "242", "addr:housenumber": "617", "addr:district": "新莊區", "addr:country": null, "addr:city": "新北市" }, "geometry": { "type": "MultiPolygon", "coordinates": [ [ [ [ 121.4321833, 25.0317918 ], [ 121.432267, 25.0315832 ], [ 121.4324588, 25.0316652 ], [ 121.4323823, 25.031856 ], [ 121.4321833, 25.0317918 ] ] ] ] } },
{ "type": "Feature", "properties": { "full_id": "w858995157", "osm_id": "858995157", "osm_type": "way", "amenity": "fast_food", "building:levels": null, "addr:floor": null, "addr:housename": "232", "addr:county": "TW", "internet_access": null, "wheelchair:description": null, "wheelchair": null, "toilets:wheelchair": null, "addr:full": null, "first_aid": null, "defibrillator": null, "takeaway": "yes", "smoking": null, "phone": null, "opening_hours": null, "name:zh-Hant": "麥當勞", "name:zh": "麥當勞", "name:ja": null, "name:en": "McDonald's", "name": "麥當勞", "ele": null, "drive_through": null, "drive_in": null, "cuisine": "burger", "building": "yes", "brand:zh-Hant": "麥當勞", "brand:zh": "麥當勞", "brand:wikipedia": "zh:麥當勞", "brand:wikidata": "Q38076", "brand:en": "McDonald's", "brand": "麥當勞", "branch": null, "addr:street": "中正路", "addr:postcode": "242", "addr:housenumber": null, "addr:district": "新莊區", "addr:country": null, "addr:city": "新北市" }, "geometry": { "type": "MultiPolygon", "coordinates": [ [ [ [ 121.4482795, 25.035502 ], [ 121.4483377, 25.0353178 ], [ 121.4484295, 25.0353416 ], [ 121.4483713, 25.0355258 ], [ 121.4482795, 25.035502 ] ] ] ] } },
{ "type": "Feature", "properties": { "full_id": "w859565332", "osm_id": "859565332", "osm_type": "way", "amenity": "fast_food", "building:levels": null, "addr:floor": null, "addr:housename": "146", "addr:county": null, "internet_access": null, "wheelchair:description": null, "wheelchair": null, "toilets:wheelchair": null, "addr:full": null, "first_aid": null, "defibrillator": null, "takeaway": "yes", "smoking": null, "phone": null, "opening_hours": null, "name:zh-Hant": null, "name:zh": "Q Burger", "name:ja": null, "name:en": "Q Burger", "name": "Q Burger", "ele": null, "drive_through": null, "drive_in": null, "cuisine": "burger", "building": null, "brand:zh-Hant": null, "brand:zh": "Q Burger", "brand:wikipedia": null, "brand:wikidata": null, "brand:en": "Q Burger", "brand": "Q Burger", "branch": null, "addr:street": "育英街", "addr:postcode": null, "addr:housenumber": null, "addr:district": "樹林區", "addr:country": null, "addr:city": "新北市" }, "geometry": { "type": "MultiPolygon", "coordinates": [ [ [ [ 121.419041, 24.9894847 ], [ 121.4191228, 24.9895893 ], [ 121.4192207, 24.9895467 ], [ 121.419041, 24.9894847 ] ] ] ] } },
{ "type": "Feature", "properties": { "full_id": "w859565333", "osm_id": "859565333", "osm_type": "way", "amenity": "fast_food", "building:levels": null, "addr:floor": null, "addr:housename": "375", "addr:county": null, "internet_access": null, "wheelchair:description": null, "wheelchair": null, "toilets:wheelchair": null, "addr:full": null, "first_aid": null, "defibrillator": null, "takeaway": "yes", "smoking": null, "phone": null, "opening_hours": null, "name:zh-Hant": null, "name:zh": "Q Burger", "name:ja": null, "name:en": "Q Burger", "name": "Q Burger", "ele": null, "drive_through": null, "drive_in": null, "cuisine": "burger", "building": null, "brand:zh-Hant": null, "brand:zh": "Q Burger", "brand:wikipedia": null, "brand:wikidata": null, "brand:en": "Q Burger", "brand": "Q Burger", "branch": null, "addr:street": "金門街", "addr:postcode": null, "addr:housenumber": null, "addr:district": "板橋區", "addr:country": null, "addr:city": "新北市" }, "geometry": { "type": "MultiPolygon", "coordinates": [ [ [ [ 121.4281766, 24.9845154 ], [ 121.428251, 24.9844431 ], [ 121.4283042, 24.984486 ], [ 121.4282322, 24.9845592 ], [ 121.4281766, 24.9845154 ] ] ] ] } }
]
}
