{
"type": "FeatureCollection",
"name": "fastfood_a_KEL",
"crs": { "type": "name", "properties": { "name": "urn:ogc:def:crs:OGC:1.3:CRS84" } },
"features": [
{ "type": "Feature", "properties": { "full_id": "w368324007", "osm_id": "368324007", "osm_type": "way", "amenity": "fast_food", "website": null, "smoking": null, "phone": null, "outdoor_seating": null, "operator": null, "opening_hours": null, "official_name": null, "name:ja": null, "drive_through": null, "building:levels": null, "brand:zh": null, "addr:street": null, "addr:postcode": null, "addr:place": null, "addr:housenumber": null, "addr:full": null, "addr:district": null, "addr:city": null, "takeaway": "yes", "name:zh": "肯德基", "name:en": "KFC", "name": "肯德基", "cuisine": "chicken", "building": "yes", "brand:wikipedia": "zh:肯德基", "brand:wikidata": "Q524757", "brand:en": "KFC", "brand": "肯德基" }, "geometry": { "type": "MultiPolygon", "coordinates": [ [ [ [ 121.7402618, 25.1299457 ], [ 121.7401566, 25.1297832 ], [ 121.7400923, 25.1298189 ], [ 121.740213, 25.1300017 ], [ 121.7402456, 25.1299843 ], [ 121.7402618, 25.1299457 ] ] ] ] } },
{ "type": "Feature", "properties": { "full_id": "w533892957", "osm_id": "533892957", "osm_type": "way", "amenity": "fast_food", "website": "https://www.mos.com.tw/shop/search_detail.aspx?id=B299", "smoking": "no", "phone": "+886 2 2428-8296", "outdoor_seating": "no", "operator": "安心食品服務公司", "opening_hours": "Mo-Su 06:00-23:00", "official_name": "摩斯漢堡基隆站前店", "name:ja": "モスバーガー", "drive_through": "no", "building:levels": "3", "brand:zh": "摩斯漢堡", "addr:street": "忠一路", "addr:postcode": "20041", "addr:place": "文昌里", "addr:housenumber": "18", "addr:full": "20041基隆市仁愛區忠一路18號", "addr:district": "仁愛區", "addr:city": "基隆市", "takeaway": "yes", "name:zh": "摩斯漢堡", "name:en": "MOS Burger", "name": "摩斯漢堡", "cuisine": "burger", "building": "commercial", "brand:wikipedia": "zh:摩斯漢堡", "brand:wikidata": "Q1204169", "brand:en": "MOS Burger", "brand": "摩斯漢堡" }, "geometry": { "type": "MultiPolygon", "coordinates": [ [ [ [ 121.7399354, 25.1312807 ], [ 121.7398883, 25.1313056 ], [ 121.7398189, 25.1311981 ], [ 121.739866, 25.1311732 ], [ 121.7399354, 25.1312807 ] ] ] ] } }
]
}
