{
"type": "FeatureCollection",
"name": "fastfood_a_ILA",
"crs": { "type": "name", "properties": { "name": "urn:ogc:def:crs:OGC:1.3:CRS84" } },
"features": [
{ "type": "Feature", "properties": { "full_id": "w484895537", "osm_id": "484895537", "osm_type": "way", "amenity": "fast_food", "name:zh-Hant": null, "brand:zh-Hant": null, "addr:county": null, "website": "http://www.mcdonalds.com.tw/", "takeaway": "yes", "phone": "+886 3 987 1338", "opening_hours": "24/7", "name:zh": "麥當勞", "name:ja": "マクドナルド", "name:en": "McDonald's", "name": "麥當勞", "drive_through": "yes", "delivery": "yes", "cuisine": "burger", "building": "yes", "brand:zh": "麥當勞", "brand:wikipedia": "zh:麥當勞", "brand:wikidata": "Q38076", "brand:en": "McDonald's", "brand": "麥當勞", "branch": "宜蘭礁溪店", "addr:street": "礁溪路四段", "addr:postcode": "26243", "addr:housenumber": "158", "addr:full": "26243宜蘭縣礁溪鄉礁溪路四段158號", "addr:district": "礁溪鄉", "addr:city": "宜蘭縣" }, "geometry": { "type": "MultiPolygon", "coordinates": [ [ [ [ 121.7702966, 24.8226348 ], [ 121.770443, 24.8225128 ], [ 121.7703579, 24.8224248 ], [ 121.7702393, 24.8224553 ], [ 121.7702966, 24.8226348 ] ] ] ] } },
{ "type": "Feature", "properties": { "full_id": "w593001182", "osm_id": "593001182", "osm_type": "way", "amenity": "fast_food", "name:zh-Hant": "麥當勞", "brand:zh-Hant": "麥當勞", "addr:county": "TW", "website": null, "takeaway": "yes", "phone": null, "opening_hours": null, "name:zh": "麥當勞", "name:ja": null, "name:en": "McDonald's", "name": "麥當勞", "drive_through": null, "delivery": null, "cuisine": "burger", "building": "yes", "brand:zh": "麥當勞", "brand:wikipedia": "zh:麥當勞", "brand:wikidata": "Q38076", "brand:en": "McDonald's", "brand": "麥當勞", "branch": null, "addr:street": "宜興路一段", "addr:postcode": null, "addr:housenumber": "263", "addr:full": null, "addr:district": "宜蘭市", "addr:city": "宜蘭縣" }, "geometry": { "type": "MultiPolygon", "coordinates": [ [ [ [ 121.7580749, 24.756569 ], [ 121.7576672, 24.7566707 ], [ 121.7577137, 24.7567909 ], [ 121.7581006, 24.7566892 ], [ 121.7580749, 24.756569 ] ] ] ] } },
{ "type": "Feature", "properties": { "full_id": "w858995158", "osm_id": "858995158", "osm_type": "way", "amenity": "fast_food", "name:zh-Hant": "麥當勞", "brand:zh-Hant": "麥當勞", "addr:county": "TW", "website": null, "takeaway": "yes", "phone": null, "opening_hours": null, "name:zh": "麥當勞", "name:ja": null, "name:en": "McDonald's", "name": "麥當勞", "drive_through": null, "delivery": null, "cuisine": "burger", "building": null, "brand:zh": "麥當勞", "brand:wikipedia": "zh:麥當勞", "brand:wikidata": "Q38076", "brand:en": "McDonald's", "brand": "麥當勞", "branch": null, "addr:street": "神農路二段", "addr:postcode": null, "addr:housenumber": "135", "addr:full": null, "addr:district": "宜蘭市", "addr:city": "宜蘭縣" }, "geometry": { "type": "MultiPolygon", "coordinates": [ [ [ [ 121.7516503, 24.7544609 ], [ 121.7516108, 24.7543287 ], [ 121.7517878, 24.7542825 ], [ 121.7518347, 24.7544103 ], [ 121.7516503, 24.7544609 ] ] ] ] } }
]
}
