{
"type": "FeatureCollection",
"name": "fastfood_a_TYN",
"crs": { "type": "name", "properties": { "name": "urn:ogc:def:crs:OGC:1.3:CRS84" } },
"features": [
{ "type": "Feature", "properties": { "full_id": "w132315049", "osm_id": "132315049", "osm_type": "way", "amenity": "fast_food", "addr:place": null, "takeaway:covid19": null, "website": null, "phone": null, "delivery": null, "addr:country": null, "outdoor_seating": null, "name:lzh": null, "brand:lzh": null, "branch": null, "addr:street": null, "addr:postcode": null, "addr:housenumber": null, "addr:district": null, "addr:city": null, "drive_through": null, "name:zh-Hant": null, "name:zh": null, "name:ja": null, "name:en": null, "building:levels": null, "brand:zh-Hant": null, "brand:zh": null, "brand:en": null, "takeaway": "yes", "smoking": "no", "operator": "McDonald's", "opening_hours": "24/7", "name": "McDonald's", "cuisine": "burger", "building": "yes", "brand:wikipedia": "en:McDonald's", "brand:wikidata": "Q38076", "brand": "McDonald's" }, "geometry": { "type": "MultiPolygon", "coordinates": [ [ [ [ 121.2890028, 24.8819102 ], [ 121.2892133, 24.8818529 ], [ 121.2891689, 24.8816946 ], [ 121.2889719, 24.8817412 ], [ 121.2890028, 24.8819102 ] ] ] ] } },
{ "type": "Feature", "properties": { "full_id": "w183759770", "osm_id": "183759770", "osm_type": "way", "amenity": "fast_food", "addr:place": null, "takeaway:covid19": null, "website": null, "phone": null, "delivery": null, "addr:country": null, "outdoor_seating": null, "name:lzh": null, "brand:lzh": null, "branch": null, "addr:street": null, "addr:postcode": null, "addr:housenumber": null, "addr:district": null, "addr:city": null, "drive_through": null, "name:zh-Hant": "麥當勞", "name:zh": "麥當勞", "name:ja": "マクドナルド", "name:en": "McDonald's", "building:levels": "2", "brand:zh-Hant": "麥當勞", "brand:zh": "麥當勞", "brand:en": "McDonald's", "takeaway": "yes", "smoking": "no", "operator": "McDonald's", "opening_hours": "24/7", "name": "麥當勞", "cuisine": "burger", "building": "yes", "brand:wikipedia": "zh:麥當勞", "brand:wikidata": "Q38076", "brand": "麥當勞" }, "geometry": { "type": "MultiPolygon", "coordinates": [ [ [ [ 121.3022717, 25.0137008 ], [ 121.3024462, 25.0137724 ], [ 121.3025764, 25.0135117 ], [ 121.302402, 25.0134401 ], [ 121.3022717, 25.0137008 ] ] ] ] } },
{ "type": "Feature", "properties": { "full_id": "w183799689", "osm_id": "183799689", "osm_type": "way", "amenity": "fast_food", "addr:place": null, "takeaway:covid19": null, "website": null, "phone": null, "delivery": null, "addr:country": null, "outdoor_seating": null, "name:lzh": null, "brand:lzh": null, "branch": null, "addr:street": null, "addr:postcode": null, "addr:housenumber": null, "addr:district": null, "addr:city": null, "drive_through": null, "name:zh-Hant": null, "name:zh": null, "name:ja": null, "name:en": null, "building:levels": null, "brand:zh-Hant": null, "brand:zh": null, "brand:en": null, "takeaway": "yes", "smoking": null, "operator": "McDonald's", "opening_hours": "24/7", "name": "McDonald's", "cuisine": "burger", "building": "yes", "brand:wikipedia": "en:McDonald's", "brand:wikidata": "Q38076", "brand": "McDonald's" }, "geometry": { "type": "MultiPolygon", "coordinates": [ [ [ [ 121.3033854, 25.0206752 ], [ 121.3035254, 25.0207265 ], [ 121.3035827, 25.0205982 ], [ 121.3034427, 25.0205468 ], [ 121.3033854, 25.0206752 ] ] ] ] } },
{ "type": "Feature", "properties": { "full_id": "w386369971", "osm_id": "386369971", "osm_type": "way", "amenity": "fast_food", "addr:place": null, "takeaway:covid19": null, "website": null, "phone": null, "delivery": null, "addr:country": null, "outdoor_seating": null, "name:lzh": null, "brand:lzh": null, "branch": null, "addr:street": null, "addr:postcode": null, "addr:housenumber": null, "addr:district": null, "addr:city": null, "drive_through": "yes", "name:zh-Hant": null, "name:zh": "麥當勞", "name:ja": "マクドナルド", "name:en": null, "building:levels": null, "brand:zh-Hant": null, "brand:zh": null, "brand:en": null, "takeaway": "yes", "smoking": "no", "operator": null, "opening_hours": null, "name": "McDonald's", "cuisine": "burger", "building": "yes", "brand:wikipedia": "en:McDonald's", "brand:wikidata": "Q38076", "brand": "McDonald's" }, "geometry": { "type": "MultiPolygon", "coordinates": [ [ [ [ 121.2973888, 24.9489864 ], [ 121.2973468, 24.9488636 ], [ 121.2975966, 24.9488128 ], [ 121.2976246, 24.9489546 ], [ 121.2973888, 24.9489864 ] ] ] ] } },
{ "type": "Feature", "properties": { "full_id": "w456148724", "osm_id": "456148724", "osm_type": "way", "amenity": "fast_food", "addr:place": null, "takeaway:covid19": null, "website": null, "phone": null, "delivery": null, "addr:country": null, "outdoor_seating": null, "name:lzh": null, "brand:lzh": null, "branch": null, "addr:street": null, "addr:postcode": null, "addr:housenumber": null, "addr:district": null, "addr:city": null, "drive_through": null, "name:zh-Hant": "麥當勞", "name:zh": "麥當勞", "name:ja": "マクドナルド", "name:en": "McDonald's", "building:levels": null, "brand:zh-Hant": "麥當勞", "brand:zh": "麥當勞", "brand:en": "McDonald's", "takeaway": "yes", "smoking": null, "operator": null, "opening_hours": null, "name": "麥當勞", "cuisine": "burger", "building": "yes", "brand:wikipedia": "zh:麦当劳", "brand:wikidata": "Q38076", "brand": "麥當勞" }, "geometry": { "type": "MultiPolygon", "coordinates": [ [ [ [ 121.1680174, 24.9081976 ], [ 121.1679433, 24.9082003 ], [ 121.1679219, 24.908255 ], [ 121.1679527, 24.9082611 ], [ 121.1679552, 24.90829 ], [ 121.1683038, 24.9082882 ], [ 121.1683067, 24.9080841 ], [ 121.1681213, 24.9081199 ], [ 121.1680174, 24.9081976 ] ] ] ] } },
{ "type": "Feature", "properties": { "full_id": "w456148761", "osm_id": "456148761", "osm_type": "way", "amenity": "fast_food", "addr:place": null, "takeaway:covid19": null, "website": null, "phone": null, "delivery": null, "addr:country": null, "outdoor_seating": null, "name:lzh": null, "brand:lzh": null, "branch": null, "addr:street": null, "addr:postcode": null, "addr:housenumber": null, "addr:district": null, "addr:city": null, "drive_through": null, "name:zh-Hant": null, "name:zh": "肯德基", "name:ja": null, "name:en": "KFC", "building:levels": null, "brand:zh-Hant": null, "brand:zh": "肯德基", "brand:en": "KFC", "takeaway": "yes", "smoking": null, "operator": null, "opening_hours": null, "name": "肯德基", "cuisine": "chicken", "building": "yes", "brand:wikipedia": "zh:肯德基", "brand:wikidata": "Q524757", "brand": "肯德基" }, "geometry": { "type": "MultiPolygon", "coordinates": [ [ [ [ 121.166962, 24.9091711 ], [ 121.1671924, 24.9091701 ], [ 121.167192, 24.9090943 ], [ 121.1670914, 24.9090947 ], [ 121.1670908, 24.9089823 ], [ 121.166961, 24.9089829 ], [ 121.166962, 24.9091711 ] ] ] ] } },
{ "type": "Feature", "properties": { "full_id": "w460179861", "osm_id": "460179861", "osm_type": "way", "amenity": "fast_food", "addr:place": null, "takeaway:covid19": null, "website": null, "phone": null, "delivery": null, "addr:country": null, "outdoor_seating": null, "name:lzh": null, "brand:lzh": null, "branch": null, "addr:street": null, "addr:postcode": null, "addr:housenumber": null, "addr:district": null, "addr:city": null, "drive_through": "yes", "name:zh-Hant": "麥當勞", "name:zh": "麥當勞", "name:ja": null, "name:en": "McDonald's", "building:levels": null, "brand:zh-Hant": "麥當勞", "brand:zh": "麥當勞", "brand:en": "McDonald's", "takeaway": "yes", "smoking": null, "operator": null, "opening_hours": null, "name": "麥當勞", "cuisine": "burger", "building": "yes", "brand:wikipedia": "zh:麦当劳", "brand:wikidata": "Q38076", "brand": "麥當勞" }, "geometry": { "type": "MultiPolygon", "coordinates": [ [ [ [ 121.2039847, 24.9570341 ], [ 121.2040012, 24.9568293 ], [ 121.2041958, 24.9568327 ], [ 121.2041736, 24.957073 ], [ 121.2040857, 24.957073 ], [ 121.2040407, 24.9570557 ], [ 121.2039847, 24.9570341 ] ] ] ] } },
{ "type": "Feature", "properties": { "full_id": "w495599446", "osm_id": "495599446", "osm_type": "way", "amenity": "fast_food", "addr:place": null, "takeaway:covid19": null, "website": null, "phone": null, "delivery": null, "addr:country": null, "outdoor_seating": null, "name:lzh": null, "brand:lzh": null, "branch": "楊梅中山北店", "addr:street": "中山北路一段", "addr:postcode": "326", "addr:housenumber": "218號", "addr:district": "楊梅區", "addr:city": "桃園市", "drive_through": "yes", "name:zh-Hant": "麥當勞", "name:zh": "麥當勞", "name:ja": null, "name:en": "McDonald's", "building:levels": null, "brand:zh-Hant": "麥當勞", "brand:zh": "麥當勞", "brand:en": "McDonald's", "takeaway": "yes", "smoking": null, "operator": null, "opening_hours": null, "name": "麥當勞", "cuisine": "burger", "building": "yes", "brand:wikipedia": "zh:麦当劳", "brand:wikidata": "Q38076", "brand": "麥當勞" }, "geometry": { "type": "MultiPolygon", "coordinates": [ [ [ [ 121.1546609, 24.9082823 ], [ 121.1546235, 24.9084752 ], [ 121.1544683, 24.9084505 ], [ 121.1545057, 24.9082576 ], [ 121.1546609, 24.9082823 ] ] ] ] } },
{ "type": "Feature", "properties": { "full_id": "w516268083", "osm_id": "516268083", "osm_type": "way", "amenity": "fast_food", "addr:place": null, "takeaway:covid19": null, "website": null, "phone": null, "delivery": null, "addr:country": null, "outdoor_seating": null, "name:lzh": "麥當勞", "brand:lzh": "麥當勞", "branch": null, "addr:street": "桃鶯路", "addr:postcode": null, "addr:housenumber": "37", "addr:district": "八德區", "addr:city": "桃園市", "drive_through": null, "name:zh-Hant": "麥當勞", "name:zh": "麥當勞", "name:ja": "マクドナルド", "name:en": "McDonald's", "building:levels": "2", "brand:zh-Hant": "麥當勞", "brand:zh": "麥當勞", "brand:en": "McDonald's", "takeaway": "yes", "smoking": null, "operator": null, "opening_hours": null, "name": "麥當勞", "cuisine": "burger", "building": "yes", "brand:wikipedia": "zh:麦当劳", "brand:wikidata": "Q38076", "brand": "麥當勞" }, "geometry": { "type": "MultiPolygon", "coordinates": [ [ [ [ 121.3270914, 24.9713621 ], [ 121.3271719, 24.9712915 ], [ 121.3270592, 24.9711894 ], [ 121.3269787, 24.9712684 ], [ 121.3270914, 24.9713621 ] ] ] ] } },
{ "type": "Feature", "properties": { "full_id": "w522390110", "osm_id": "522390110", "osm_type": "way", "amenity": "fast_food", "addr:place": null, "takeaway:covid19": null, "website": null, "phone": null, "delivery": null, "addr:country": null, "outdoor_seating": "no", "name:lzh": null, "brand:lzh": null, "branch": null, "addr:street": null, "addr:postcode": null, "addr:housenumber": null, "addr:district": null, "addr:city": null, "drive_through": "yes", "name:zh-Hant": null, "name:zh": null, "name:ja": null, "name:en": null, "building:levels": null, "brand:zh-Hant": null, "brand:zh": "麥當勞", "brand:en": "McDonald's", "takeaway": "yes", "smoking": "no", "operator": null, "opening_hours": null, "name": "麥當勞", "cuisine": null, "building": "yes", "brand:wikipedia": "zh:麥當勞", "brand:wikidata": "Q38076", "brand": "麥當勞" }, "geometry": { "type": "MultiPolygon", "coordinates": [ [ [ [ 121.2365161, 24.9491904 ], [ 121.2367332, 24.9493229 ], [ 121.2366394, 24.9494555 ], [ 121.2366232, 24.9494397 ], [ 121.2365943, 24.9494539 ], [ 121.236449, 24.9493546 ], [ 121.2365267, 24.9492537 ], [ 121.2364932, 24.9492184 ], [ 121.2365161, 24.9491904 ] ] ] ] } },
{ "type": "Feature", "properties": { "full_id": "w533503582", "osm_id": "533503582", "osm_type": "way", "amenity": "fast_food", "addr:place": null, "takeaway:covid19": null, "website": "http://kfcclub.com.tw", "phone": "+886 3 480 8696", "delivery": "yes", "addr:country": "TW", "outdoor_seating": "yes", "name:lzh": null, "brand:lzh": null, "branch": null, "addr:street": "北龍路", "addr:postcode": "325", "addr:housenumber": "309", "addr:district": "龍潭區", "addr:city": "桃園市", "drive_through": null, "name:zh-Hant": null, "name:zh": "肯德基", "name:ja": "ケンタッキーフライドチキン", "name:en": "KFC", "building:levels": null, "brand:zh-Hant": null, "brand:zh": "肯德基", "brand:en": "KFC", "takeaway": "yes", "smoking": "no", "operator": null, "opening_hours": "Mo-Su 08:00-23:00", "name": "肯德基", "cuisine": "chicken", "building": "commercial", "brand:wikipedia": "zh:肯德基", "brand:wikidata": "Q524757", "brand": "肯德基" }, "geometry": { "type": "MultiPolygon", "coordinates": [ [ [ [ 121.2182952, 24.8684604 ], [ 121.218143, 24.8686631 ], [ 121.2181726, 24.8687779 ], [ 121.2182517, 24.8688317 ], [ 121.2183427, 24.8688389 ], [ 121.218398, 24.8688012 ], [ 121.2184435, 24.86869 ], [ 121.218476, 24.868544 ], [ 121.2183794, 24.8684993 ], [ 121.2182952, 24.8684604 ] ] ] ] } },
{ "type": "Feature", "properties": { "full_id": "w539140874", "osm_id": "539140874", "osm_type": "way", "amenity": "fast_food", "addr:place": null, "takeaway:covid19": null, "website": null, "phone": null, "delivery": null, "addr:country": null, "outdoor_seating": null, "name:lzh": null, "brand:lzh": null, "branch": null, "addr:street": null, "addr:postcode": null, "addr:housenumber": null, "addr:district": null, "addr:city": null, "drive_through": null, "name:zh-Hant": "麥當勞", "name:zh": "麥當勞", "name:ja": null, "name:en": "McDonald's", "building:levels": "1", "brand:zh-Hant": "麥當勞", "brand:zh": "麥當勞", "brand:en": "McDonald's", "takeaway": "yes", "smoking": null, "operator": null, "opening_hours": null, "name": "麥當勞", "cuisine": "burger", "building": "yes", "brand:wikipedia": "zh:麥當勞", "brand:wikidata": "Q38076", "brand": "麥當勞" }, "geometry": { "type": "MultiPolygon", "coordinates": [ [ [ [ 121.3176387, 24.9865071 ], [ 121.3178396, 24.986525 ], [ 121.3178567, 24.9863671 ], [ 121.3176558, 24.9863492 ], [ 121.3176387, 24.9865071 ] ] ] ] } },
{ "type": "Feature", "properties": { "full_id": "w572289086", "osm_id": "572289086", "osm_type": "way", "amenity": "fast_food", "addr:place": null, "takeaway:covid19": "yes", "website": null, "phone": null, "delivery": null, "addr:country": null, "outdoor_seating": null, "name:lzh": null, "brand:lzh": null, "branch": null, "addr:street": "自強東路", "addr:postcode": "333023", "addr:housenumber": "291", "addr:district": "龜山區", "addr:city": "桃園市", "drive_through": "yes", "name:zh-Hant": "麥當勞", "name:zh": "麥當勞", "name:ja": null, "name:en": "McDonald's", "building:levels": "2", "brand:zh-Hant": "麥當勞", "brand:zh": "麥當勞", "brand:en": "McDonald's", "takeaway": "yes", "smoking": null, "operator": null, "opening_hours": "24/7", "name": "McDonald's", "cuisine": "burger", "building": "yes", "brand:wikipedia": "en:McDonald's", "brand:wikidata": "Q38076", "brand": "McDonald's" }, "geometry": { "type": "MultiPolygon", "coordinates": [ [ [ [ 121.3450975, 24.9983539 ], [ 121.3451827, 24.9982361 ], [ 121.3453601, 24.9983416 ], [ 121.3452749, 24.9984594 ], [ 121.3450975, 24.9983539 ] ] ] ] } },
{ "type": "Feature", "properties": { "full_id": "w615424262", "osm_id": "615424262", "osm_type": "way", "amenity": "fast_food", "addr:place": null, "takeaway:covid19": null, "website": null, "phone": null, "delivery": null, "addr:country": null, "outdoor_seating": null, "name:lzh": null, "brand:lzh": null, "branch": null, "addr:street": null, "addr:postcode": null, "addr:housenumber": null, "addr:district": null, "addr:city": null, "drive_through": null, "name:zh-Hant": null, "name:zh": null, "name:ja": null, "name:en": null, "building:levels": null, "brand:zh-Hant": null, "brand:zh": null, "brand:en": null, "takeaway": null, "smoking": null, "operator": null, "opening_hours": null, "name": "胖老爹", "cuisine": null, "building": "yes", "brand:wikipedia": null, "brand:wikidata": null, "brand": "胖老爹美式炸雞" }, "geometry": { "type": "MultiPolygon", "coordinates": [ [ [ [ 121.313802, 24.9907479 ], [ 121.3138399, 24.9906408 ], [ 121.3140662, 24.9907065 ], [ 121.3140283, 24.9908136 ], [ 121.313802, 24.9907479 ] ] ] ] } },
{ "type": "Feature", "properties": { "full_id": "w930767895", "osm_id": "930767895", "osm_type": "way", "amenity": "fast_food", "addr:place": null, "takeaway:covid19": null, "website": null, "phone": null, "delivery": null, "addr:country": null, "outdoor_seating": null, "name:lzh": null, "brand:lzh": null, "branch": null, "addr:street": null, "addr:postcode": null, "addr:housenumber": null, "addr:district": null, "addr:city": null, "drive_through": null, "name:zh-Hant": null, "name:zh": "肯德基", "name:ja": null, "name:en": "KFC", "building:levels": null, "brand:zh-Hant": null, "brand:zh": null, "brand:en": "KFC", "takeaway": "yes", "smoking": null, "operator": null, "opening_hours": null, "name": "肯德基", "cuisine": "chicken", "building": "yes", "brand:wikipedia": "zh:肯德基", "brand:wikidata": "Q524757", "brand": "肯德基" }, "geometry": { "type": "MultiPolygon", "coordinates": [ [ [ [ 121.2941982, 25.0439992 ], [ 121.2942478, 25.0438934 ], [ 121.2944208, 25.0439311 ], [ 121.2944262, 25.0439979 ], [ 121.2944222, 25.0440295 ], [ 121.2944007, 25.0440478 ], [ 121.2941982, 25.0439992 ] ] ] ] } },
{ "type": "Feature", "properties": { "full_id": "w1042951567", "osm_id": "1042951567", "osm_type": "way", "amenity": "fast_food", "addr:place": null, "takeaway:covid19": null, "website": "https://www.mcdonalds.com.tw/", "phone": "+886-3-307-6781", "delivery": null, "addr:country": null, "outdoor_seating": null, "name:lzh": null, "brand:lzh": null, "branch": "大溪員林店", "addr:street": "員林路一段", "addr:postcode": "335", "addr:housenumber": "268", "addr:district": "大溪區", "addr:city": "桃園市", "drive_through": null, "name:zh-Hant": "麥當勞", "name:zh": "麥當勞", "name:ja": null, "name:en": "McDonald's", "building:levels": null, "brand:zh-Hant": "麥當勞", "brand:zh": "麥當勞", "brand:en": "McDonald's", "takeaway": "yes", "smoking": null, "operator": null, "opening_hours": "24/7", "name": "麥當勞", "cuisine": "burger", "building": "yes", "brand:wikipedia": "zh:麦当劳", "brand:wikidata": "Q38076", "brand": "麥當勞" }, "geometry": { "type": "MultiPolygon", "coordinates": [ [ [ [ 121.2762737, 24.8946214 ], [ 121.2764048, 24.8947604 ], [ 121.2762737, 24.8948622 ], [ 121.2761425, 24.8947232 ], [ 121.2762737, 24.8946214 ] ] ] ] } },
{ "type": "Feature", "properties": { "full_id": "w1053349642", "osm_id": "1053349642", "osm_type": "way", "amenity": "fast_food", "addr:place": "南美里", "takeaway:covid19": null, "website": null, "phone": null, "delivery": null, "addr:country": null, "outdoor_seating": null, "name:lzh": null, "brand:lzh": null, "branch": null, "addr:street": "南上路121號", "addr:postcode": "333", "addr:housenumber": null, "addr:district": "龜山區", "addr:city": "桃園市", "drive_through": null, "name:zh-Hant": null, "name:zh": "巨林美而美", "name:ja": null, "name:en": "Jyulin Mei & Mei", "building:levels": null, "brand:zh-Hant": null, "brand:zh": "巨林美而美", "brand:en": "Jyulin Mei & Mei", "takeaway": "yes", "smoking": null, "operator": "巨林食品企業有限公司", "opening_hours": null, "name": "巨林美而美", "cuisine": "breakfast", "building": "yes", "brand:wikipedia": null, "brand:wikidata": "Q105722219", "brand": "巨林美而美" }, "geometry": { "type": "MultiPolygon", "coordinates": [ [ [ [ 121.2978912, 25.0475729 ], [ 121.2978655, 25.0474664 ], [ 121.2979762, 25.0474112 ], [ 121.2980209, 25.0475535 ], [ 121.2978912, 25.0475729 ] ] ] ] } }
]
}
